,County,License Number,Operation Type,Establishment Type,Entity Name,DBA Name,Street Number,Street Name,Address Line 2,Address Line 3,City,State,Zip Code,Square Footage,geometry,index_right,STATEFP,COUNTYFP,TRACTCE,AFFGEOID,GEOID,NAME,NAMELSAD,STUSPS,NAMELSADCO,STATE_NAME,LSAD,ALAND,AWATER
0,ONONDAGA,760190,Store,A,DOLGEN NEW YORK LLC,DOLLAR GENERAL #30401,2711,S SALINA ST,,,SYRACUSE,NY,13205,0,POINT (406909.6915583047 4763797.704726768),1690,36,067,005400,1400000US36067005400,36067005400,54,Census Tract 54,NY,Onondaga County,New York,CT,747726,0
1,QUEENS,759990,Store,A,DOLGEN NEW YORK LLC,DOLLAR GENERAL #19222,71-24,MYRTLE AVE,,,GLENDALE,NY,11385,0,POINT (594678.89501714 4506282.35625721),2993,36,081,062900,1400000US36081062900,36081062900,629,Census Tract 629,NY,Queens County,New York,CT,183530,0
2,JEFFERSON,759988,Store,A,DOLGEN NEW YORK LLC,DOLLAR GENERAL #30022,29,N BROAD ST,,,CARTHAGE,NY,13619,0,POINT (449684.0594371145 4868902.719423912),3494,36,045,061000,1400000US36045061000,36045061000,610,Census Tract 610,NY,Jefferson County,New York,CT,57271125,1591440
3,SUFFOLK,759935,Store,A,DOLGEN NEW YORK LLC,DOLLAR GENERAL #30610,200,MIDDLE COUNTRY RD,,,MIDDLE ISLAND,NY,11953,0,POINT (671365.2068415096 4527127.070415801),831,36,103,158705,1400000US36103158705,36103158705,1587.05,Census Tract 1587.05,NY,Suffolk County,New York,CT,4413705,35802
4,LEWIS,759933,Store,A,DOLGEN NEW YORK LLC,DOLLAR GENERAL #30025,6163,SOLOMAN RD,,,GLENFIELD,NY,13343,0,POINT (466980.6173113484 4840856.672843817),4354,36,049,950500,1400000US36049950500,36049950500,9505,Census Tract 9505,NY,Lewis County,New York,CT,269609155,928898
5,MONROE,759932,Store,A,DOLGEN NEW YORK LLC,DOLLAR GENERAL #30675,3750,MT READ BLVD,,,ROCHESTER,NY,14616,0,POINT (284117.2438929764 4789483.455082955),3858,36,055,013901,1400000US36055013901,36055013901,139.01,Census Tract 139.01,NY,Monroe County,New York,CT,2258111,0
6,ONONDAGA,758863,Store,A,DOLGEN NEW YORK LLC,DOLLAR GENERAL #25200,3905,NEW COURT AVE,,,SYRACUSE,NY,13206,0,POINT (409328.0757069653 4770402.17313665),4785,36,067,014400,1400000US36067014400,36067014400,144,Census Tract 144,NY,Onondaga County,New York,CT,16966984,0
7,ESSEX,758857,Store,A,DOLGEN NEW YORK LLC,DOLLAR GENERAL #25167,3192,PLANK RD,,,MORIAH,NY,12960,10000,POINT (618918.5979090664 4882583.334697604),3796,36,031,961002,1400000US36031961002,36031961002,9610.02,Census Tract 9610.02,NY,Essex County,New York,CT,58858955,15910765
8,COLUMBIA,758587,Store,A,DOLGEN NEW YORK LLC,DOLLAR GENERAL #25025,1475,ROUTE 20,,,NEW LEBANON,NY,12125,0,POINT (625635.6380155153 4704817.868680665),181,36,021,000100,1400000US36021000100,36021000100,1,Census Tract 1,NY,Columbia County,New York,CT,92797021,301438
9,GENESEE,758545,Store,A,DOLGEN NEW YORK LLC,DOLLAR GENERAL #25187,6329,ROUTE 262,,,BYRON,NY,14422,0,POINT (250609.7958424664 4774224.586948497),1835,36,037,950100,1400000US36037950100,36037950100,9501,Census Tract 9501,NY,Genesee County,New York,CT,154806278,295701
10,ONONDAGA,758544,Store,A,DOLGEN NEW YORK LLC,DOLLAR GENERAL #30177,101,LAWRENCE RD E,,,SYRACUSE,NY,13212,0,POINT (406872.1619954957 4774266.422987831),271,36,067,013800,1400000US36067013800,36067013800,138,Census Tract 138,NY,Onondaga County,New York,CT,2631520,0
11,BROOME,758330,Store,A,DOLGEN NEW YORK LLC,DOLLAR GENERAL #24536,6946,STATE RT 17C,,,ENDICOTT,NY,13760,0,POINT (405270.7949446544 4659040.89328672),2252,36,107,020300,1400000US36107020300,36107020300,203,Census Tract 203,NY,Tioga County,New York,CT,130645770,1255418
12,ALLEGANY,758294,Store,A,DOLGEN NEW YORK LLC,DOLLAR GENERAL #24752,4,MAIL ST,,,CANASERAGA,NY,14822,0,POINT (271725.5436920177 4704903.317507865),5254,36,003,950100,1400000US36003950100,36003950100,9501,Census Tract 9501,NY,Allegany County,New York,CT,328795140,1467755
13,CHEMUNG,758293,Store,A,DOLGEN NEW YORK LLC,DOLLAR GENERAL #24584,165,DANIEL ZENKER DR,,,BIG FLATS,NY,14814,0,POINT (340106.7363155287 4667681.602610892),1372,36,015,010301,1400000US36015010301,36015010301,103.01,Census Tract 103.01,NY,Chemung County,New York,CT,49397282,86881
14,CHAUTAUQUA,757921,Store,A,DOLGEN NEW YORK LLC,DOLLAR GENERAL #24271,4041,ROUTE 60,,,GERRY,NY,14740,10658,POINT (148513.2857412258 4678014.518011914),3549,36,013,036901,1400000US36013036901,36013036901,369.01,Census Tract 369.01,NY,Chautauqua County,New York,CT,169162630,325714
15,BROOME,757920,Store,A,DOLGEN NEW YORK LLC,DOLLAR GENERAL #9335,185,MAIN ST,,,JOHNSON CITY,NY,13790,0,POINT (421219.7113018997 4662942.211175436),779,36,007,013900,1400000US36007013900,36007013900,139,Census Tract 139,NY,Broome County,New York,CT,1007215,0
16,ERIE,757896,Store,A,DOLGEN NEW YORK LLC,DOLLAR GENERAL #23550,1853,LOVE RD,,,GRAND ISLAND,NY,14072,6000,POINT (177212.5397168528 4768000.588805951),4887,36,029,007305,1400000US36029007305,36029007305,73.05,Census Tract 73.05,NY,Erie County,New York,CT,27275965,3103205
17,GENESEE,757481,Store,A,DOLGEN NEW YORK LLC,DOLLAR GENERAL #24659,1658,BROADWAY RD,,,DARIEN CENTER,NY,14040,8500,POINT (225008.1907164715 4755362.9213574),4870,36,037,951400,1400000US36037951400,36037951400,9514,Census Tract 9514,NY,Genesee County,New York,CT,214550652,816869
18,SCHENECTADY,757293,Store,A,DOLGEN NEW YORK LLC,DOLLAR GENERAL #24494,6250,DUANESBURG RD,,,DUANESBURG,NY,12056,0,POINT (571829.8086376563 4734949.381860031),3375,36,093,033102,1400000US36093033102,36093033102,331.02,Census Tract 331.02,NY,Schenectady County,New York,CT,183329990,3232878
19,NIAGARA,757292,Store,A,DOLGEN NEW YORK LLC,DOLLAR GENERAL #24374,3929,RIDGE RD,,,LOCKPORT,NY,14094,6000,POINT (189065.5971695365 4790402.589491796),5099,36,063,024303,1400000US36063024303,36063024303,243.03,Census Tract 243.03,NY,Niagara County,New York,CT,102847866,0
20,ERIE,755862,Store,A,DOLGEN NEW YORK LLC,DOLLAR GENERAL #21443,10344,MAIN ST,,,CLARENCE,NY,14031,7820,POINT (206280.2583496515 4764899.978642032),1609,36,029,014704,1400000US36029014704,36029014704,147.04,Census Tract 147.04,NY,Erie County,New York,CT,14135185,167857
21,MADISON,755861,Store,A,DOLGEN NEW YORK LLC,DOLLAR GENERAL #23829,1414,ROUTE 5 W,,,CHITTENANGO,NY,13037,0,POINT (426798.3789697238 4766533.73615684),3460,36,053,030402,1400000US36053030402,36053030402,304.02,Census Tract 304.02,NY,Madison County,New York,CT,77836104,209266
22,SENECA,755860,Store,A,DOLGEN NEW YORK LLC,DOLLAR GENERAL #24131,8530,NY-414,,,LODI,NY,14860,0,POINT (350477.3266066915 4719617.061155384),1769,36,099,950900,1400000US36099950900,36099950900,9509,Census Tract 9509,NY,Seneca County,New York,CT,168491180,34870761
23,WAYNE,755859,Store,A,DOLGEN NEW YORK LLC,DOLLAR GENERAL #24328,7,ROUTE 31,,,LYONS,NY,14489,0,POINT (337264.875281232 4769500.899534121),4886,36,117,021400,1400000US36117021400,36117021400,214,Census Tract 214,NY,Wayne County,New York,CT,11139507,199067
24,CHEMUNG,755582,Store,A,DOLGEN NEW YORK INC,DOLLAR GENERAL #25090,424,S MAIN ST,,,ELMIRA,NY,14904,4000,POINT (350794.2475308776 4660024.355660401),413,36,015,001000,1400000US36015001000,36015001000,10,Census Tract 10,NY,Chemung County,New York,CT,1251867,160538
25,SCHUYLER,754830,Store,A,DOLGEN NEW YORK LLC,DOLLAR GENERAL #24002,6339,STATE RT 13,,,CAYUTA,NY,14824,0,POINT (360258.0832669543 4683909.658308563),4884,36,097,950500,1400000US36097950500,36097950500,9505,Census Tract 9505,NY,Schuyler County,New York,CT,184505223,1579047
26,NIAGARA,754829,Store,A,DOLGEN NEW YORK LLC,DOLLAR GENERAL #22399,2300,NIAGARA FALLS BLVD,,,NIAGARA FALLS,NY,14304,9000,POINT (180678.0316402329 4779180.128893746),1513,36,063,022714,1400000US36063022714,36063022714,227.14,Census Tract 227.14,NY,Niagara County,New York,CT,12226917,1736902
27,ERIE,754805,Store,A,DOLGEN NEW YORK LLC,DOLLAR GENERAL #23338,650,TWO ROD RD,,,MARILLA,NY,14102,10642,POINT (209406.3458257134 4750976.180634048),2689,36,029,015001,1400000US36029015001,36029015001,150.01,Census Tract 150.01,NY,Erie County,New York,CT,71238508,97287
28,WARREN,754704,Store,A,DOLGEN NEW YORK LLC,DOLLAR GENERAL #21795,3254,STATE RTE 28,,,NORTH CREEK,NY,12853,9360,POINT (582403.7255044405 4837248.550409987),4436,36,113,074000,1400000US36113074000,36113074000,740,Census Tract 740,NY,Warren County,New York,CT,528951203,6506568
29,ERIE,754703,Store,A,DOLGEN NEW YORK LLC,DOLLAR GENERAL #23945,5807,BROADWAY ST,,,LANCASTER,NY,14086,9100,POINT (202414.0235521488 4755584.700787353),4664,36,029,014204,1400000US36029014204,36029014204,142.04,Census Tract 142.04,NY,Erie County,New York,CT,23661835,93069
30,JEFFERSON,754448,Store,A,DOLGEN NEW YORK LLC,DOLLAR GENERAL #23538,12301,STATE RT 193,,,ELLISBURG,NY,13636,10000,POINT (409300.8444250803 4843318.010577275),4146,36,045,062500,1400000US36045062500,36045062500,625,Census Tract 625,NY,Jefferson County,New York,CT,342061371,4669240
31,ESSEX,754447,Store,A,DOLGEN NEW YORK LLC,DOLLAR GENERAL #24203,3954,NYS RT 22,,,WILLSBORO,NY,12996,9160,POINT (627478.0624877923 4914444.810263705),3368,36,031,960800,1400000US36031960800,36031960800,9608,Census Tract 9608,NY,Essex County,New York,CT,110623845,79439873
32,WARREN,754163,Store,A,DOLGEN NEW YORK LLC,DOLLAR GENERAL #23797,3760,MAIN ST,,,WARRENSBURG,NY,12885,10642,POINT (599631.0395080872 4816243.705519733),5274,36,113,073000,1400000US36113073000,36113073000,730,Census Tract 730,NY,Warren County,New York,CT,164426858,3400647
33,CLINTON,753874,Store,A,DOLGEN NEW YORK LLC,DOLLAR GENERAL #23449,7598,ROUTE 22,,,WEST CHAZY,NY,12992,0,POINT (618057.8273765668 4963313.121760501),3169,36,019,100200,1400000US36019100200,36019100200,1002,Census Tract 1002,NY,Clinton County,New York,CT,140256207,18551716
34,ORANGE,753669,Store,A,DOLGEN NEW YORK LLC,DOLLAR GENERAL #21171,5280,US ROUTE 9W,,,NEWBURGH,NY,12550,10000,POINT (582978.0450242581 4600566.324342586),3431,36,071,010200,1400000US36071010200,36071010200,102,Census Tract 102,NY,Orange County,New York,CT,11786535,3857160
35,TOMPKINS,753583,Store,A,DOLGEN NEW YORK LLC,DOLLAR GENERAL #23670,1124,RIDGE RD,,,LANSING,NY,14882,0,POINT (369975.1867584225 4715546.164654098),2342,36,109,002300,1400000US36109002300,36109002300,23,Census Tract 23,NY,Tompkins County,New York,CT,169762369,19075323
36,HERKIMER,753265,Store,A,DOLGEN NEW YORK LLC,DOLLAR GENERAL #23760,8290,STATE RT 28,,,NEWPORT,NY,13416,10770,POINT (496858.5129692074 4783406.524012047),4305,36,043,011400,1400000US36043011400,36043011400,114,Census Tract 114,NY,Herkimer County,New York,CT,281955763,2273683
37,HERKIMER,753211,Store,A,DOLGEN NEW YORK LLC,DOLLAR GENERAL #23909,4225,ACME RD,,,FRANKFORT,NY,13340,8519,POINT (495072.1401767283 4764121.119557776),5271,36,043,010201,1400000US36043010201,36043010201,102.01,Census Tract 102.01,NY,Herkimer County,New York,CT,4850242,135700
38,ST. LAWRENCE,753209,Store,A,DOLGEN NEW YORK LLC,DOLLAR GENERAL #23623,8740,ROUTE 56,,,NORFOLK,NY,13667,0,POINT (501779.8263616023 4964745.045902254),2329,36,089,490600,1400000US36089490600,36089490600,4906,Census Tract 4906,NY,St. Lawrence County,New York,CT,146955090,2599602
39,SCHENECTADY,753207,Store,A,DOLGEN NEW YORK LLC,DOLLAR GENERAL #20977,1225,MAIN ST,,,ROTTERDAM JUNCTION,NY,12150,0,POINT (578436.1531034114 4746843.534264087),2250,36,093,032602,1400000US36093032602,36093032602,326.02,Census Tract 326.02,NY,Schenectady County,New York,CT,60048381,1896395
40,WAYNE,752251,Store,A,DOLGEN NEW YORK LLC,DOLLAR GENERAL #23061,6466,RTE 104A,,,RED CREEK,NY,13143,0,POINT (359459.3200058044 4788416.213970689),5079,36,117,021502,1400000US36117021502,36117021502,215.02,Census Tract 215.02,NY,Wayne County,New York,CT,101139630,2333354
41,FRANKLIN,752250,Store,A,DOLGEN NEW YORK LLC,DOLLAR GENERAL #23337,1329,STATE RT 122,,,CONSTABLE,NY,12926,0,POINT (556888.8472944567 4975503.615664294),369,36,033,952000,1400000US36033952000,36033952000,9520,Census Tract 9520,NY,Franklin County,New York,CT,354571285,62808
42,JEFFERSON,752249,Store,A,DOLGEN NEW YORK LLC,DOLLAR GENERAL #22995,32270,STATE RT 3,,,CARTHAGE,NY,13619,0,POINT (441612.4789047964 4875234.415795261),4872,36,045,061101,1400000US36045061101,36045061101,611.01,Census Tract 611.01,NY,Jefferson County,New York,CT,72976395,666488
43,MADISON,752095,Store,A,DOLGEN NEW YORK LLC,DOLLAR GENERAL #23298,3199,STATE RT 31,,,CANASTOTA,NY,13032,0,POINT (436265.9835957988 4778748.548473521),3459,36,053,030200,1400000US36053030200,36053030200,302,Census Tract 302,NY,Madison County,New York,CT,79435468,46792
44,MONROE,751290,Store,A,DOLGEN NEW YORK LLC,DOLLAR GENERAL #22585,252,E MAIN ST,,,ROCHESTER,NY,14604,0,POINT (288180.3348765763 4781615.350295606),4362,36,055,009401,1400000US36055009401,36055009401,94.01,Census Tract 94.01,NY,Monroe County,New York,CT,521226,17868
45,ERIE,751065,Store,A,DOLGEN NEW YORK LLC,DOLLAR GENERAL #22725,4030,SOUTHWESTERN BLVD,,,ORCHARD PARK,NY,14127,0,POINT (189168.5820994538 4742828.598399566),2533,36,029,012903,1400000US36029012903,36029012903,129.03,Census Tract 129.03,NY,Erie County,New York,CT,4002427,0
46,ONEIDA,751062,Store,A,DOLGEN NEW YORK LLC,DOLLAR GENERAL #6714,1600,MAIN ST,,,SYLVAN BEACH,NY,13157,0,POINT (440857.8279474124 4783724.599714375),4764,36,065,026700,1400000US36065026700,36065026700,267,Census Tract 267,NY,Oneida County,New York,CT,159147761,87125467
47,ERIE,751042,Store,A,DOLGEN NEW YORK LLC,DOLLAR GENERAL #21764,12220,WALDEN AVE,,,ALDEN,NY,14004,9160,POINT (211710.9687630463 4760111.331882843),4510,36,029,014903,1400000US36029014903,36029014903,149.03,Census Tract 149.03,NY,Erie County,New York,CT,78247976,475100
48,ERIE,750455,Store,A,DOLGEN NEW YORK LLC,DOLLAR GENERAL 22699,8680,STATE RD,,,COLDEN,NY,14033,9400,POINT (197742.3149560119 4728205.694856026),2720,36,029,015101,1400000US36029015101,36029015101,151.01,Census Tract 151.01,NY,Erie County,New York,CT,92294578,225200
49,CATTARAUGUS,750401,Store,A,DOLGEN NEW YORK LLC,DOLLAR GENERAL #20622,244,BUFFALO ST,,,GOWANDA,NY,14070,9160,POINT (176443.2877411355 4709567.580185418),3585,36,029,017501,1400000US36029017501,36029017501,175.01,Census Tract 175.01,NY,Erie County,New York,CT,5792700,34273
50,OSWEGO,750399,Store,A,DOLGEN NEW YORK LLC,DOLLAR GENERAL #23128,1896,ROUTE 11,,,HASTINGS,NY,13076,10765,POINT (406623.9863923389 4802482.66295433),1705,36,075,020703,1400000US36075020703,36075020703,207.03,Census Tract 207.03,NY,Oswego County,New York,CT,85362427,100561
51,ST. LAWRENCE,750135,Store,A,DOLGEN NEW YORK LLC,DOLLAR GENERAL #22686,3712,ST HWY 37,,,OGDENSBURG,NY,13669,0,POINT (449722.7888323318 4938196.258227411),2328,36,089,492800,1400000US36089492800,36089492800,4928,Census Tract 4928,NY,St. Lawrence County,New York,CT,275686886,41820481
52,ULSTER,750134,Store,A,DOLGEN NEW YORK LLC,DOLLAR GENERAL #22620,1984,ROUTE 9W,,,MARLBORO,NY,12542,0,POINT (586587.0488112706 4613620.717263442),2899,36,111,953800,1400000US36111953800,36111953800,9538,Census Tract 9538,NY,Ulster County,New York,CT,16213206,4633058
53,ORLEANS,750132,Store,A,DOLGEN NEW YORK LLC,DOLLAR GENERAL #22562,30,N MAIN ST,,,LYNDONVILLE,NY,14098,7520,POINT (225250.8437957174 4802163.272941227),2487,36,073,401200,1400000US36073401200,36073401200,4012,Census Tract 4012,NY,Orleans County,New York,CT,130055678,673983
54,CLINTON,750130,Store,A,DOLGEN NEW YORK LLC,DOLLAR GENERAL #21753,901,MILITARY TPKE,,,PLATTSBURGH,NY,12901,0,POINT (617986.4055625347 4945533.634307911),4018,36,019,103900,1400000US36019103900,36019103900,1039,Census Tract 1039,NY,Clinton County,New York,CT,103244141,783104
55,ORANGE,750128,Store,A,DOLGEN NEW YORK LLC,DOLLAR GENERAL #19908,748,ROUTE 284,,,WESTTOWN,NY,10998,0,POINT (538360.8685244521 4576033.054530875),3427,36,071,011702,1400000US36071011702,36071011702,117.02,Census Tract 117.02,NY,Orange County,New York,CT,59572166,373606
56,TOMPKINS,750127,Store,A,DOLGEN NEW YORK LLC,DOLLAR GENERAL #22623,1188,AUBURN RD,,,LOCKE,NY,13092,0,POINT (377135.845303367 4718935.070270691),2342,36,109,002300,1400000US36109002300,36109002300,23,Census Tract 23,NY,Tompkins County,New York,CT,169762369,19075323
57,ONONDAGA,749812,Store,JAC,DOLGEN NEW YORK LLC,DOLLAR GENERAL #23195,301,S SALINA ST,,,SYRACUSE,NY,13202,0,POINT (406180.8613752261 4766842.348505607),3703,36,067,003200,1400000US36067003200,36067003200,32,Census Tract 32,NY,Onondaga County,New York,CT,1190714,0
58,ST. LAWRENCE,749811,Store,A,DOLGEN NEW YORK LLC,DOLLAR GENERAL #22958,4149,STATE HWY 3,,,STAR LAKE,NY,13690,0,POINT (496784.8383626309 4889940.983394922),3998,36,089,492501,1400000US36089492501,36089492501,4925.01,Census Tract 4925.01,NY,St. Lawrence County,New York,CT,1065895805,51193750
59,ERIE,749810,Store,A,DOLGEN NEW YORK LLC,DOLLAR GENERAL #21444,6401,OLEAN RD,,,SOUTH WALES,NY,14139,9000,POINT (206995.3220767681 4734896.545569539),2692,36,029,015002,1400000US36029015002,36029015002,150.02,Census Tract 150.02,NY,Erie County,New York,CT,92169877,130985
60,ERIE,749809,Store,A,DOLGEN NEW YORK LLC,DOLLAR GENERAL #22710,5203,SENECA ST,,,W SENECA,NY,14224,0,POINT (196600.9995974532 4749114.361436673),3724,36,029,017302,1400000US36029017302,36029017302,173.02,Census Tract 173.02,NY,Erie County,New York,CT,6985674,30893
61,LIVINGSTON,749808,Store,A,DOLGEN NEW YORK LLC,DOLLAR GENERAL #22852,4797,S MAIN ST,,,HEMLOCK,NY,14466,0,POINT (286939.7964019192 4740740.047458073),4046,36,051,030701,1400000US36051030701,36051030701,307.01,Census Tract 307.01,NY,Livingston County,New York,CT,61958841,1170593
62,BROOME,749792,Store,A,DOLGEN NEW YORK LLC,DOLLAR GENERAL #22475,2301,VESTAL PKWY,,,VESTAL,NY,13850,0,POINT (409049.818511548 4658005.82262552),4434,36,007,014500,1400000US36007014500,36007014500,145,Census Tract 145,NY,Broome County,New York,CT,16187282,509811
63,ESSEX,749790,Store,A,DOLGEN NEW YORK LLC,DOLLAR GENERAL #22214,1790,E MAIN ST,,,BLOOMINGDALE,NY,12913,0,POINT (573342.2648585291 4917874.453680254),5385,36,031,960300,1400000US36031960300,36031960300,9603,Census Tract 9603,NY,Essex County,New York,CT,315291733,3063870
64,ONTARIO,749775,Store,A,DOLGEN NEW YORK LLC,DOLLAR GENERAL #10079,8673,MAIN ST,,,HONEOYE,NY,14471,0,POINT (294518.8069705531 4740469.950479967),5219,36,069,052003,1400000US36069052003,36069052003,520.03,Census Tract 520.03,NY,Ontario County,New York,CT,38135363,5077036
65,STEUBEN,749774,Store,A,DOLGEN NEW YORK LLC,DOLLAR GENERAL #22186,8569,MAIN ST,,,CAMPBELL,NY,14821,0,POINT (319217.0595766006 4677607.689993924),4727,36,101,961700,1400000US36101961700,36101961700,9617,Census Tract 9617,NY,Steuben County,New York,CT,105372683,243467
66,FRANKLIN,749773,Store,A,DOLGEN NEW YORK LLC,DOLLAR GENERAL #22010,94,W MAIN ST,,,CHATEAUGAY,NY,12920,0,POINT (572231.0999856484 4975141.502635421),369,36,033,952000,1400000US36033952000,36033952000,9520,Census Tract 9520,NY,Franklin County,New York,CT,354571285,62808
67,DUTCHESS,749772,Store,A,DOLGEN NEW YORK LLC,DOLLAR GENERAL #22142,2555,STATE RT 55,,,POUGHQUAG,NY,12570,0,POINT (609383.7452346395 4608998.562995252),1315,36,027,020004,1400000US36027020004,36027020004,200.04,Census Tract 200.04,NY,Dutchess County,New York,CT,22812881,224020
68,STEUBEN,749771,Store,A,DOLGEN NEW YORK LLC,DOLLAR GENERAL #20710,1084,CATON RD,,,CORNING,NY,14830,0,POINT (332214.2002602131 4658018.684178802),1510,36,101,963000,1400000US36101963000,36101963000,9630,Census Tract 9630,NY,Steuben County,New York,CT,194541412,1866515
69,JEFFERSON,749744,Store,A,DOLGEN NEW YORK LLC,DOLLAR GENERAL #22520,16234,FOSTER PARK RD,,,DEXTER,NY,13634,9346,POINT (416059.924584608 4872540.349619943),2496,36,045,060402,1400000US36045060402,36045060402,604.02,Census Tract 604.02,NY,Jefferson County,New York,CT,60637804,6136963
70,CHAUTAUQUA,749728,Store,A,DOLGEN NEW YORK LLC,DOLLAR GENERAL #8294,1190,CENTRAL AVE A,,,DUNKIRK,NY,14048,7240,POINT (143662.0478480923 4709673.56080533),802,36,013,035700,1400000US36013035700,36013035700,357,Census Tract 357,NY,Chautauqua County,New York,CT,2891496,0
71,DUTCHESS,749726,Store,A,DOLGEN NEW YORK LLC,DOLLAR GENERAL #20475,1,E DORSEY LN,,,POUGHKEEPSIE,NY,12601,7500,POINT (590515.6583599079 4622094.452792183),4099,36,027,070401,1400000US36027070401,36027070401,704.01,Census Tract 704.01,NY,Dutchess County,New York,CT,8724846,1312317
72,STEUBEN,749592,Store,A,DOLGEN NEW YORK LLC,DOLLAR GENERAL #22635,6758,RT 415,,,BATH,NY,14810,3,POINT (310647.063182928 4688860.690347873),4279,36,101,961300,1400000US36101961300,36101961300,9613,Census Tract 9613,NY,Steuben County,New York,CT,130460119,1291435
73,WYOMING,749574,Store,A,DOLGEN NEW YORK LLC,DOLLAR GENERAL 22210,3644,RT 78,,,STRYKERSVILLE,NY,14145,9300,POINT (217052.023873973 4734349.814624446),4709,36,121,970400,1400000US36121970400,36121970400,9704,Census Tract 9704,NY,Wyoming County,New York,CT,214732557,277124
74,WYOMING,749486,Store,A,DOLGEN NEW YORK LLC,DOLLAR GENERAL #22357,7862,RT 98,,,ARCADE,NY,14009,4000,POINT (219703.5974965451 4713764.589516564),1656,36,121,971000,1400000US36121971000,36121971000,9710,Census Tract 9710,NY,Wyoming County,New York,CT,121740567,273605
75,CHENANGO,748405,Store,A,DOLGEN NEW YORK LLC,DOLLAR GENERAL #22374,6192,HWY 12,,,NORWICH,NY,13815,0,POINT (456841.2704468108 4711405.79465578),4301,36,017,970601,1400000US36017970601,36017970601,9706.01,Census Tract 9706.01,NY,Chenango County,New York,CT,138498926,382745
76,SCHOHARIE,748402,Store,A,DOLGEN NEW YORK LLC,DOLLAR GENERAL #21746,1273,STATE RD 10,,,JEFFERSON,NY,12093,0,POINT (532741.0016851609 4703341.277513002),4348,36,095,740600,1400000US36095740600,36095740600,7406,Census Tract 7406,NY,Schoharie County,New York,CT,368179663,1683284
77,WAYNE,746908,Store,A,DOLGEN NEW YORK LLC,DOLLAR GENERAL #22258,4802,RT 414,,,NORTH ROSE,NY,14516,0,POINT (346604.4887275753 4782332.73378438),1795,36,117,021600,1400000US36117021600,36117021600,216,Census Tract 216,NY,Wayne County,New York,CT,183852269,219965
78,LEWIS,746906,Store,A,DOLGEN NEW YORK LLC,DOLLAR GENERAL #21446,10024,STATE RT 12,,,COPENHAGEN,NY,13626,9160,POINT (445364.0451613234 4860736.093184591),2561,36,049,950302,1400000US36049950302,36049950302,9503.02,Census Tract 9503.02,NY,Lewis County,New York,CT,321420783,1403432
79,CHENANGO,746905,Store,A,DOLGEN NEW YORK LLC,DOLLAR GENERAL #21398,5294,STATE HWY 41,,,SMITHVILLE FLATS,NY,13841,0,POINT (433519.7619440636 4694396.532438717),2265,36,017,970802,1400000US36017970802,36017970802,9708.02,Census Tract 9708.02,NY,Chenango County,New York,CT,182090288,1573864
80,WASHINGTON,746615,Store,A,DOLGEN NEW YORK LLC,DOLLAR GENERAL #21449,123,ROWE HILL RD,,,HARTFORD,NY,12838,0,POINT (630155.7929316589 4801941.315087724),786,36,115,085000,1400000US36115085000,36115085000,850,Census Tract 850,NY,Washington County,New York,CT,112309958,261211
81,MADISON,746439,Store,A,DOLGEN NEW YORK LLC,DOLLAR GENERAL #21799,7578,RT 20,,,MADISON,NY,13402,0,POINT (459484.7249204257 4750225.144112261),3455,36,053,031000,1400000US36053031000,36053031000,310,Census Tract 310,NY,Madison County,New York,CT,202190861,1691611
82,DELAWARE,746355,Store,A,DOLGEN NEW YORK LLC,DOLLAR GENERAL #21723,15276,STATE HWY 30,,,DOWNSVILLE,NY,13755,9160,POINT (500551.1293275711 4658458.699982524),3458,36,025,971300,1400000US36025971300,36025971300,9713,Census Tract 9713,NY,Delaware County,New York,CT,354285419,13948478
83,COLUMBIA,746084,Store,A,DOLGEN NEW YORK LLC,DOLLAR GENERAL #16022,4311,ROUTE 9G,,,GERMANTOWN,NY,12526,0,POINT (591638.7521433099 4665508.026719804),440,36,021,002000,1400000US36021002000,36021002000,20,Census Tract 20,NY,Columbia County,New York,CT,31346403,4711090
84,ALBANY,746076,Store,A,DOLGEN NEW YORK LLC,DOLLAR GENERAL # 22495,310,S PEARL ST,,,ALBANY,NY,12202,0,POINT (601864.8616468413 4721602.455772624),3441,36,001,002500,1400000US36001002500,36001002500,25,Census Tract 25,NY,Albany County,New York,CT,667349,115684
85,ERIE,745207,Store,A,DOLGEN NEW YORK LLC,DOLLAR GENERAL #21384,2250,NIAGARA FALLS BLVD,,,TONAWANDA,NY,14150,8000,POINT (188475.620311381 4769654.948526993),1827,36,029,007901,1400000US36029007901,36029007901,79.01,Census Tract 79.01,NY,Erie County,New York,CT,2376359,73386
86,CHENANGO,745206,Store,A,DOLGEN NEW YORK LLC,DOLLAR GENERAL #21772,478,COUNTY ROAD 16,,,PLYMOUTH,NY,13832,6500,POINT (450616.092126801 4718529.201908723),4301,36,017,970601,1400000US36017970601,36017970601,9706.01,Census Tract 9706.01,NY,Chenango County,New York,CT,138498926,382745
87,ERIE,745205,Store,A,DOLGEN NEW YORK LLC,DOLLAR GENERAL #21543,1107,SHERIDAN DR,,,TONAWANDA,NY,14150,8000,POINT (182532.2091819514 4765988.791731481),3587,36,029,008400,1400000US36029008400,36029008400,84,Census Tract 84,NY,Erie County,New York,CT,10966624,3505091
88,CAYUGA,745204,Store,A,DOLGEN NEW YORK LLC,DOLLAR GENERAL #21994,293,CAYUGA ST,,,UNION SPRINGS,NY,13160,0,POINT (361757.7323427744 4746241.953769773),3822,36,011,041201,1400000US36011041201,36011041201,412.01,Census Tract 412.01,NY,Cayuga County,New York,CT,55451292,14039021
89,ALLEGANY,745203,Store,A,DOLGEN NEW YORK LLC,DOLLAR GENERAL #21722,135,E MAIN ST,,,ANGELICA,NY,14709,0,POINT (251976.8585213459 4687911.128861144),3754,36,003,951302,1400000US36003951302,36003951302,9513.02,Census Tract 9513.02,NY,Allegany County,New York,CT,232217343,592326
90,WASHINGTON,745202,Store,A,DOLGEN NEW YORK LLC,DOLLAR GENERAL #21459,2033,CTY RD 23,,,GRANVILLE,NY,12832,0,POINT (638114.2291442808 4810110.457375465),4544,36,115,084002,1400000US36115084002,36115084002,840.02,Census Tract 840.02,NY,Washington County,New York,CT,67246353,594659
91,CHAUTAUQUA,745198,Store,A,DOLGEN NEW YORK LLC,DOLLAR GENERAL #21766,226,WINSOR ST,,,JAMESTOWN,NY,14701,9160,POINT (150224.62505293 4669498.64060727),1288,36,013,030100,1400000US36013030100,36013030100,301,Census Tract 301,NY,Chautauqua County,New York,CT,3097416,0
92,TOMPKINS,745194,Store,A,DOLGEN NEW YORK LLC,DOLLAR GENERAL #22567,178,MAIN ST,,,GROTON,NY,13073,0,POINT (387780.3961582784 4716015.169150403),3325,36,109,002200,1400000US36109002200,36109002200,22,Census Tract 22,NY,Tompkins County,New York,CT,79314153,207523
93,OTSEGO,745192,Store,A,DOLGEN NEW YORK LLC,DOLLAR GENERAL #21671,1735,ST HWY 205,,,LAURENS,NY,13796,0,POINT (493911.6395202462 4709740.400098595),929,36,077,591402,1400000US36077591402,36077591402,5914.02,Census Tract 5914.02,NY,Otsego County,New York,CT,108906709,307363
94,TOMPKINS,745190,Store,A,DOLGEN NEW YORK LLC,DOLLAR GENERAL #21094,1408,DRYDEN RD,,,FREEVILLE,NY,13068,0,POINT (384756.4255332952 4703088.489160398),3323,36,109,001400,1400000US36109001400,36109001400,14,Census Tract 14,NY,Tompkins County,New York,CT,53043055,352958
95,BROOME,745189,Store,A,DOLGEN NEW YORK LLC,DOLLAR GENERAL #20396,1749,NY STREET RTE 12,,,BINGHAMTON,NY,13901,9160,POINT (427688.0530682097 4671668.656840451),4215,36,007,012101,1400000US36007012101,36007012101,121.01,Census Tract 121.01,NY,Broome County,New York,CT,33009093,461827
96,ORANGE,745164,Store,A,DOLGEN NEW YORK LLC,DOLLAR GENERAL #21504,1650,RTE 211,,,OTISVILLE,NY,10963,0,POINT (539765.3028226963 4591033.903197011),764,36,071,011500,1400000US36071011500,36071011500,115,Census Tract 115,NY,Orange County,New York,CT,65096340,937239
97,OSWEGO,745163,Store,A,DOLGEN NEW YORK LLC,DOLLAR GENERAL #21707,4296,STATE ROUTE 104,,,MEXICO,NY,13114,9160,POINT (393334.4486631695 4814954.122735749),3478,36,075,021501,1400000US36075021501,36075021501,215.01,Census Tract 215.01,NY,Oswego County,New York,CT,80544758,5995613
98,SCHUYLER,745162,Store,A,DOLGEN NEW YORK LLC,DOLLAR GENERAL #21908,365,COUNTY RD 23,,,DUNDEE,NY,14837,4000,POINT (328609.9289367801 4698856.324339417),13,36,097,950300,1400000US36097950300,36097950300,9503,Census Tract 9503,NY,Schuyler County,New York,CT,236633986,7035659
99,ONEIDA,745160,Store,A,DOLGEN NEW YORK LLC,DOLLAR GENERAL #21145,9127,TURIN RD,,,ROME,NY,13440,9160,POINT (461602.3845079726 4794514.634650297),723,36,065,024301,1400000US36065024301,36065024301,243.01,Census Tract 243.01,NY,Oneida County,New York,CT,9204331,1051131
100,CHENANGO,745159,Store,A,DOLGEN NEW YORK LLC,DOLLAR GENERAL #21789,6286,STATE HWY 23,,,SOUTH NEW BERLIN,NY,13843,0,POINT (467974.7567472564 4708848.377520142),3791,36,017,970502,1400000US36017970502,36017970502,9705.02,Census Tract 9705.02,NY,Chenango County,New York,CT,155128559,1162067
101,OSWEGO,745121,Store,A,DOLGEN NEW YORK LLC,DOLLAR GENERAL #21343,1668,RT 45,,,FULTON,NY,13069,9100,POINT (396069.7325481467 4802143.090705879),2355,36,075,020800,1400000US36075020800,36075020800,208,Census Tract 208,NY,Oswego County,New York,CT,104800828,722284
102,RENSSELAER,744482,Store,A,DOLGEN NEW YORK LLC,DOLLAR GENERAL #21200,324,NY RTE 43,,,STEPHENTOWN,NY,12168,4000,POINT (634030.218816063 4711913.227489875),637,36,083,052603,1400000US36083052603,36083052603,526.03,Census Tract 526.03,NY,Rensselaer County,New York,CT,149931221,508218
103,OSWEGO,744479,Store,A,DOLGEN NEW YORK LLC,DOLLAR GENERAL #21401,2340,STATE RTE 13,,,ALTMAR,NY,13302,9346,POINT (418593.7732322324 4818094.212111365),3719,36,075,020501,1400000US36075020501,36075020501,205.01,Census Tract 205.01,NY,Oswego County,New York,CT,101634390,904462
104,ONONDAGA,744235,Store,A,DOLGEN NEW YORK LLC,DOLLAR GENERAL #22429,7386,OSWEGO RD,,,LIVERPOOL,NY,13090,0,POINT (400905.9828616854 4775834.745444992),2390,36,067,011102,1400000US36067011102,36067011102,111.02,Census Tract 111.02,NY,Onondaga County,New York,CT,7940947,0
105,SENECA,744234,Store,A,DOLGEN NEW YORK LLC,DOLLAR GENERAL #20950,8453,MAIN ST,,,INTERLAKEN,NY,14847,0,POINT (358604.8217410506 4719451.44976301),2680,36,099,951000,1400000US36099951000,36099951000,9510,Census Tract 9510,NY,Seneca County,New York,CT,81287547,16045715
106,ERIE,744233,Store,A,DOLGEN NEW YORK LLC,DOLLAR GENERAL #21270,3230,WALDEN AVE,,,DEPEW,NY,14043,0,POINT (197938.8835350194 4757653.044572274),4868,36,029,009702,1400000US36029009702,36029009702,97.02,Census Tract 97.02,NY,Erie County,New York,CT,2548107,0
107,FULTON,744230,Store,A,DOLGEN NEW YORK LLC,DOLLAR GENERAL #20951,3237,RTE 29A,,,CAROGA LAKE,NY,12032,0,POINT (542262.6272350597 4776220.599428198),2267,36,035,970400,1400000US36035970400,36035970400,9704,Census Tract 9704,NY,Fulton County,New York,CT,279079227,15372598
108,CORTLAND,744229,Store,A,DOLGEN NEW YORK LLC,DOLLAR GENERAL #21716,2717,ROUTE 26,,,CINCINNATUS,NY,13040,9100,POINT (425831.05562716 4709937.724710579),3311,36,023,971100,1400000US36023971100,36023971100,9711,Census Tract 9711,NY,Cortland County,New York,CT,262915283,1878767
109,NIAGARA,744228,Store,A,DOLGEN NEW YORK LLC,DOLLAR GENERAL #20328,5970,E LAKE RD,,,OLCOTT,NY,14126,7542,POINT (198986.8071655059 4804752.248030244),4392,36,063,024202,1400000US36063024202,36063024202,242.02,Census Tract 242.02,NY,Niagara County,New York,CT,59612748,4292154
110,SCHENECTADY,744226,Store,A,DOLGEN NEW YORK LLC,DOLLAR GENERAL #21982,1936,VAN VRANKEN AVE,,,SCHENECTADY,NY,12308,0,POINT (588173.6497758434 4742256.739913474),3370,36,093,020200,1400000US36093020200,36093020200,202,Census Tract 202,NY,Schenectady County,New York,CT,1821139,226176
111,SUFFOLK,744191,Store,A,DOLGEN NEW YORK LLC,DOLLAR GENERAL 21988,3395,GREAT NECK RD,,,AMITYVILLE,NY,11701,5000,POINT (634284.2297178665 4506492.659263694),1379,36,103,123304,1400000US36103123304,36103123304,1233.04,Census Tract 1233.04,NY,Suffolk County,New York,CT,1396845,0
112,CORTLAND,744043,Store,A,DOLGEN NEW YORK LLC,DOLLAR GENERAL 21374,5795,ROUTE 13,,,CUYLER,NY,13158,0,POINT (426928.5057721961 4734091.136763002),2326,36,023,970100,1400000US36023970100,36023970100,9701,Census Tract 9701,NY,Cortland County,New York,CT,382730819,799861
113,MONTGOMERY,742191,Store,A,DOLGEN NEW YORK LLC,DOLLAR GENERAL #8623,174,W GRAND ST,,,PALATINE BRIDGE,NY,13428,0,POINT (533988.4371149228 4751364.409863372),249,36,057,072300,1400000US36057072300,36057072300,723,Census Tract 723,NY,Montgomery County,New York,CT,106373634,1630284
114,SULLIVAN,742029,Store,A,DOLGEN NEW YORK LLC,DOLLAR GENERAL #20891,3357,STATE RT 52,,,WHITE SULPHER SPRING,NY,12787,9346,POINT (514018.4135514173 4627510.420699215),3467,36,105,950600,1400000US36105950600,36105950600,9506,Census Tract 9506,NY,Sullivan County,New York,CT,78608932,1521026
115,CHEMUNG,741440,Store,A,DOLGEN NEW YORK LLC,DOLLAR GENERAL #20645,113,OLD ITHICA RD,,,HORSEHEADS,NY,14845,0,POINT (349851.1020265848 4670824.376956509),5021,36,015,010702,1400000US36015010702,36015010702,107.02,Census Tract 107.02,NY,Chemung County,New York,CT,59149965,625891
116,CLINTON,741149,Store,A,DOLGEN NEW YORK LLC,DOLLAR GENERAL STORE #19573,2593,STATE ROUTE 11,,,MOOERS,NY,12958,0,POINT (610606.4862679369 4979422.230842595),4717,36,019,104200,1400000US36019104200,36019104200,1042,Census Tract 1042,NY,Clinton County,New York,CT,415743321,1797656
117,ONEIDA,741148,Store,A,DOLGEN NEW YORK LLC,DOLLAR GENERAL #20688,5354,STATE ROUTE 233,,,WESTMORELAND,NY,13490,0,POINT (466997.304542742 4774412.599318658),4515,36,065,023000,1400000US36065023000,36065023000,230,Census Tract 230,NY,Oneida County,New York,CT,111720718,38347
118,WASHINGTON,740970,Store,A,DOLGEN NEW YORK LLC,DOLLAR GENERAL STORE #20719,290,BROADWAY,,,FORT EDWARD,NY,12828,0,POINT (614737.475556805 4792799.017822828),2593,36,115,088001,1400000US36115088001,36115088001,880.01,Census Tract 880.01,NY,Washington County,New York,CT,4769592,3053
119,SULLIVAN,740749,Store,A,DOLGEN NEW YORK LLC,DOLLAR GENERAL #20156,882,BLOOMBURG RD,,,BLOOMINGBURG,NY,12721,8300,POINT (547899.7302444873 4602276.767525389),4469,36,105,951202,1400000US36105951202,36105951202,9512.02,Census Tract 9512.02,NY,Sullivan County,New York,CT,21257929,18955
120,MADISON,740748,Store,A,DOLGEN NEW YORK LLC,DOLLAR GENERAL #20391,5114,BEAR PATH RD,,,MUNNSVILLE,NY,13409,0,POINT (452175.9095721637 4757619.422514667),3755,36,053,030601,1400000US36053030601,36053030601,306.01,Census Tract 306.01,NY,Madison County,New York,CT,144955591,222349
121,TIOGA,740747,Store,A,DOLGEN NEW YORK LLC,DOLLAR GENERAL #6172,91,W TIOGA ST,,,SPENCER,NY,14883,0,POINT (376202.1016246061 4673994.043264997),1331,36,107,020701,1400000US36107020701,36107020701,207.01,Census Tract 207.01,NY,Tioga County,New York,CT,127206992,822423
122,ONTARIO,740602,Store,A,DOLGEN NEW YORK LLC,DOLLAR GENERAL STORE #20442,9212,ROUTE 5 & 20,,,W BLOOMFIELD,NY,14469,0,POINT (291946.6332585586 4753648.903024146),2545,36,069,050502,1400000US36069050502,36069050502,505.02,Census Tract 505.02,NY,Ontario County,New York,CT,65944134,101008
123,NIAGARA,740535,Store,A,DOLGEN NEW YORK LLC,DOLLAR GENERAL #19988,3622,HYDE PARK BLVD,,,NIAGARA FALLS,NY,14305,6000,POINT (171616.7025712827 4782146.806694745),1711,36,063,020200,1400000US36063020200,36063020200,202,Census Tract 202,NY,Niagara County,New York,CT,2279766,0
124,ERIE,740534,Store,A,DOLGEN NEW YORK LLC,DOLLAR GENERAL #19760,11184,BIG TREE RD,,,EAST AURORA,NY,14052,9200,POINT (207935.3681032288 4741217.932513289),2692,36,029,015002,1400000US36029015002,36029015002,150.02,Census Tract 150.02,NY,Erie County,New York,CT,92169877,130985
125,ONEIDA,740533,Store,A,DOLGEN NEW YORK LLC,DOLLAR GENERAL #20510,10372,PRITCHARD RD,,,REMSEN,NY,13438,9750,POINT (483685.0252991605 4798308.055129549),4310,36,065,024102,1400000US36065024102,36065024102,241.02,Census Tract 241.02,NY,Oneida County,New York,CT,202338572,3968996
126,CHEMUNG,740439,Store,A,DOLGEN NEW YORK LLC,DOLLAR GENERAL STORE #20329,1817,PENNSYLVANIA AVE,,,PINE CITY,NY,14871,0,POINT (342870.388720756 4652093.935234277),3868,36,015,011200,1400000US36015011200,36015011200,112,Census Tract 112,NY,Chemung County,New York,CT,140600139,1482813
127,ERIE,740375,Store,A,DOLGEN NEW YORK LLC,DOLLAR GENERAL STORE #20621,6889,ERIE ROAD,,,DERBY,NY,14047,3000,POINT (173660.2597998976 4735101.801001201),2714,36,029,015402,1400000US36029015402,36029015402,154.02,Census Tract 154.02,NY,Erie County,New York,CT,48235701,2600455
128,JEFFERSON,740226,Store,A,DOLGEN NEW YORK LLC,DOLLAR GENERAL #19591,43450,STATE RT 12,,,ALEXANDRIA BAY,NY,13607,9160,POINT (422952.0191613719 4905356.086933441),4934,36,045,060101,1400000US36045060101,36045060101,601.01,Census Tract 601.01,NY,Jefferson County,New York,CT,159324050,13272533
129,OTSEGO,740186,Store,A,DOLGEN NEW YORK LLC,DOLLAR GENERAL #20258,6373,ST HWY 7,,,MARYLAND,NY,12116,9200,POINT (502830.8814733391 4704529.301148765),4296,36,077,590500,1400000US36077590500,36077590500,5905,Census Tract 5905,NY,Otsego County,New York,CT,119453209,2665718
130,CHAUTAUQUA,739928,Store,A,DOLGEN NEW YORK LLC,DOLLAR GENERAL STORE #17957,3032,ROUTE 430,,,BEMUS POINT,NY,14712,7520,POINT (143803.8899151353 4672509.720500299),3546,36,013,036902,1400000US36013036902,36013036902,369.02,Census Tract 369.02,NY,Chautauqua County,New York,CT,47304779,19388135
131,ST. LAWRENCE,739764,Store,A,DOLGEN NEW YORK LLC,DOLLAR GENERAL #19569,1809,STATE HWY 345,,,MADRID,NY,13660,0,POINT (489960.7562809353 4954538.072775502),4513,36,089,490500,1400000US36089490500,36089490500,4905,Census Tract 4905,NY,St. Lawrence County,New York,CT,270885766,18038515
132,JEFFERSON,739761,Store,A,DOLGEN NEW YORK LLC,DOLLAR GENERAL #19585,2137,S JAMES ST,,,CAPE VINCENT,NY,13618,9200,POINT (393762.1641799642 4885857.180205934),2498,36,045,060301,1400000US36045060301,36045060301,603.01,Census Tract 603.01,NY,Jefferson County,New York,CT,117505181,6269382
133,ALLEGANY,739757,Store,A,DOLGEN NEW YORK LLC,DOLLAR GENERAL #20432,7259,COUNTY RD 20,,,FRIENDSHIP,NY,14739,0,POINT (240168.4429244351 4677024.390921349),1800,36,003,950500,1400000US36003950500,36003950500,9505,Census Tract 9505,NY,Allegany County,New York,CT,131390323,1929125
134,ONONDAGA,739443,Store,A,DOLGEN NEW YORK LLC,DOLLAR GENERAL #21162,4975,BEAR RD,,,LIVERPOOL,NY,13088,10100,POINT (404696.4678892913 4776672.82508772),3675,36,067,011012,1400000US36067011012,36067011012,110.12,Census Tract 110.12,NY,Onondaga County,New York,CT,1965787,0
135,ALLEGANY,739282,Store,A,DOLGEN NEW YORK LLC,DOLLAR GENERAL #20345,46,E CHESTNUT ST,,,ANDOVER,NY,14806,7500,POINT (269363.7888708712 4670713.870734551),4789,36,003,950900,1400000US36003950900,36003950900,9509,Census Tract 9509,NY,Allegany County,New York,CT,205684907,313724
136,STEUBEN,739169,Store,A,DOLGEN NEW YORK LLC,DOLLAR GENERAL STORE #19743,19,N DANSVILLE STREET,,,COHOCTON,NY,14826,2500,POINT (293836.5424653324 4708953.326861376),4278,36,101,960300,1400000US36101960300,36101960300,9603,Census Tract 9603,NY,Steuben County,New York,CT,145246643,18357
137,RENSSELAER,739168,Store,A,DOLGEN NEW YORK LLC,DOLLAR GENERAL STORE #19865,396,2ND AVENUE,,,TROY,NY,12182,0,POINT (607972.0008524267 4735864.033653786),2932,36,083,040200,1400000US36083040200,36083040200,402,Census Tract 402,NY,Rensselaer County,New York,CT,1239425,154820
138,ALBANY,739167,Store,A,DOLGEN NEW YORK LLC,DOLLAR GENERAL STORE #19911,805,HELDERBERG TRAIL,,,EAST BERNE,NY,12059,0,POINT (576390.2764881552 4718367.294446914),2286,36,001,014801,1400000US36001014801,36001014801,148.01,Census Tract 148.01,NY,Albany County,New York,CT,165837030,1822037
139,SCHUYLER,739166,Store,A,DOLGEN NEW YORK LLC,DOLLAR GENERAL STORE #19976,391,STATE ROUTE 414,,,BEAVER DAMS,NY,14812,0,POINT (338512.4325344546 4679561.862569791),1841,36,015,010200,1400000US36015010200,36015010200,102,Census Tract 102,NY,Chemung County,New York,CT,197657258,440430
140,ULSTER,739165,Store,A,DOLGEN NEW YORK LLC,DOLLAR GENERAL STORE #20389,1162,BROADWAY,,,ESOPUS,NY,12429,0,POINT (585814.0208989781 4630980.024095763),4457,36,111,952600,1400000US36111952600,36111952600,9526,Census Tract 9526,NY,Ulster County,New York,CT,91460503,10295467
141,ERIE,738953,Store,A,DOLGEN NEW YORK LLC,DOLLAR GENERAL #21065,1971,COLVIN BLVD,,,TONAWANDA,NY,14150,4000,POINT (185956.1850457859 4767085.604594697),1364,36,029,007902,1400000US36029007902,36029007902,79.02,Census Tract 79.02,NY,Erie County,New York,CT,3481158,0
142,HERKIMER,738952,Store,A,DOLGEN NEW YORK LLC,DOLLAR GENERAL #20834,166,SOUTH ST,,,WEST WINFIELD,NY,13491,0,POINT (484305.0694722725 4747913.365194889),3329,36,043,010100,1400000US36043010100,36043010100,101,Census Tract 101,NY,Herkimer County,New York,CT,328295038,1093782
143,HERKIMER,738951,Store,A,DOLGEN NEW YORK LLC,DOLLAR GENERAL #19944,2102,STATE RT 5,,,UTICA,NY,13502,0,POINT (486793.6408181203 4772342.915454432),2340,36,043,011302,1400000US36043011302,36043011302,113.02,Census Tract 113.02,NY,Herkimer County,New York,CT,103273348,927026
144,CHENANGO,738725,Store,A,DOLGEN NEW YORK LLC,DOLLAR GENERAL #19913,109,STATE RT 12,,,CHENANGO FORKS,NY,13746,9700,POINT (431031.8791996134 4677441.222214681),2263,36,017,971000,1400000US36017971000,36017971000,9710,Census Tract 9710,NY,Chenango County,New York,CT,153140704,1172476
145,DELAWARE,738724,Store,A,DOLGEN NEW YORK LLC,DOLLAR GENERAL #19989,2232,NYS RT 206,,,MASONVILLE,NY,13804,7263,POINT (469098.2613375686 4676711.764957405),4783,36,025,970502,1400000US36025970502,36025970502,9705.02,Census Tract 9705.02,NY,Delaware County,New York,CT,213934736,4237929
146,SCHENECTADY,738700,Store,A,DOLGEN NEW YORK LLC,DOLLAR GENERAL #8749,2001,BROADWAY,,,SCHENECTADY,NY,12306,5000,POINT (584666.9839668262 4738915.09477192),2248,36,093,021200,1400000US36093021200,36093021200,212,Census Tract 212,NY,Schenectady County,New York,CT,1165672,0
147,WARREN,738513,Store,A,DOLGEN NEW YORK LLC,DOLLAR GENERAL #19808,1858,RTE 9,,,LAKE GEORGE,NY,12845,0,POINT (604976.2009281834 4805178.970813486),4242,36,113,072001,1400000US36113072001,36113072001,720.01,Census Tract 720.01,NY,Warren County,New York,CT,19649381,3045776
148,ONONDAGA,738512,Store,A,DOLGEN NEW YORK LLC,DOLLAR GENERAL #19518,7344,RTE 20,,,POMPEY,NY,13138,9346,POINT (417218.8520373573 4749942.079226432),2588,36,067,015701,1400000US36067015701,36067015701,157.01,Census Tract 157.01,NY,Onondaga County,New York,CT,86618651,219762
149,ULSTER,738470,Store,A,DOLGEN NEW YORK LLC,DOLLAR GENERAL #17899,3592,RT 9W,,,HIGHLAND,NY,12528,9200,POINT (586173.4351955386 4618381.711413046),658,36,111,953600,1400000US36111953600,36111953600,9536,Census Tract 9536,NY,Ulster County,New York,CT,12137977,1009337
150,CHENANGO,738117,Store,A,DOLGEN NEW YORK LLC,DOLLAR GENERAL #19842,1615,STATE HWY 8,,,MOUNT UPTON,NY,13809,9160,POINT (468648.0497739313 4696434.705913467),2262,36,017,970602,1400000US36017970602,36017970602,9706.02,Census Tract 9706.02,NY,Chenango County,New York,CT,158105863,1147063
151,SARATOGA,737245,Store,A,DOLGEN NEW YORK LLC,DOLLAR GENERAL #19431,1800,NYS RT 29,,,GALWAY,NY,12074,9100,POINT (577356.4352863514 4767337.786812572),248,36,091,061500,1400000US36091061500,36091061500,615,Census Tract 615,NY,Saratoga County,New York,CT,113494742,3066692
152,ST. LAWRENCE,736973,Store,A,DOLGEN NEW YORK LLC,DOLLAR GENERAL #19679,109,NYS RT 3,,,HARRISVILLE,NY,13648,0,POINT (475242.2090196962 4890236.310050839),2327,36,089,492600,1400000US36089492600,36089492600,4926,Census Tract 4926,NY,St. Lawrence County,New York,CT,648542293,9797124
153,CHAUTAUQUA,736375,Store,A,DOLGEN NEW YORK LLC,DOLLAR GENERAL #19335,5360,ROUUTE 474,,,ASHVILLE,NY,14710,91609,POINT (135161.5753510129 4668237.320872237),3768,36,013,036801,1400000US36013036801,36013036801,368.01,Census Tract 368.01,NY,Chautauqua County,New York,CT,71124528,7672519
154,NIAGARA,736208,Store,A,DOLGEN NEW YORK LLC,DOLLAR GENERAL #19579,1895,QUAKER RD,,,BARKER,NY,14012,8000,POINT (211846.2705923329 4802828.570745336),5310,36,063,024102,1400000US36063024102,36063024102,241.02,Census Tract 241.02,NY,Niagara County,New York,CT,96109920,3325140
155,BROOME,736205,Store,A,DOLGEN NEW YORK LLC,DOLLAR GENERAL #19634,16,PINE ST,,,DEPOSIT,NY,13754,7500,POINT (465427.3919658364 4656776.455803801),4883,36,025,970501,1400000US36025970501,36025970501,9705.01,Census Tract 9705.01,NY,Delaware County,New York,CT,292215280,16595916
156,TIOGA,736200,Store,A,DOLGEN NEW YORK LLC,DOLLAR GENERAL STORE #19746,97,OWEGO RD,,,CANDOR,NY,13743,0,POINT (389924.6003679238 4676462.902904136),3380,36,107,020200,1400000US36107020200,36107020200,202,Census Tract 202,NY,Tioga County,New York,CT,246029924,305736
157,DELAWARE,735996,Store,A,DOLGEN NEW YORK LLC,DOLLAR GENERAL #19338,550,W MAIN ST,,,HANCOCK,NY,13783,8777,POINT (475761.6562510377 4645000.365759517),2272,36,025,971400,1400000US36025971400,36025971400,9714,Census Tract 9714,NY,Delaware County,New York,CT,411781802,7121717
158,CHENANGO,735106,Store,A,DOLGEN NEW YORK LLC,DOLLAR GENERAL #18530,311,MAIN ST,,,AFTON,NY,13730,9217,POINT (457324.9904631318 4675955.845462923),5052,36,017,970901,1400000US36017970901,36017970901,9709.01,Census Tract 9709.01,NY,Chenango County,New York,CT,112996897,1843180
159,WAYNE,735105,Store,A,DOLGEN NEW YORK LLC,DOLLAR GENERAL #18565,2080,WALWORTH-PENFIELD RD,,,WALWORTH,NY,14568,0,POINT (314601.3125679522 4778670.737483907),4243,36,117,020201,1400000US36117020201,36117020201,202.01,Census Tract 202.01,NY,Wayne County,New York,CT,49582986,95141
160,CATTARAUGUS,735100,Store,A,DOLGEN NEW YORK LLC,DOLLAR GENERAL #18976,1511,E STATE ST,,,OLEAN,NY,14760,9160,POINT (218566.0374290654 4663494.996930802),798,36,009,961800,1400000US36009961800,36009961800,9618,Census Tract 9618,NY,Cattaraugus County,New York,CT,5925686,379709
161,GENESEE,735099,Store,A,DOLGEN NEW YORK LLC,DOLLAR GENERAL #19400,2666,W MAIN ST,,,BATAVIA,NY,14036,3200,POINT (230598.6154558547 4765676.194611757),4799,36,037,950402,1400000US36037950402,36037950402,9504.02,Census Tract 9504.02,NY,Genesee County,New York,CT,60485391,518265
162,WASHINGTON,735097,Store,A,DOLGEN NEW YORK LLC,DOLLAR GENERAL #18239,32,S MAIN ST,,,SALEM,NY,12865,3500,POINT (635600.9597875481 4780264.486803447),2261,36,115,090000,1400000US36115090000,36115090000,900,Census Tract 900,NY,Washington County,New York,CT,135616682,149107
163,ERIE,735095,Store,A,DOLGEN NEW YORK LLC,DOLLAR GENERAL #18657,2737,SOUTHWESTERN BLVD,,,ORCHARD PARK,NY,14127,3000,POINT (195468.2132471211 4746555.771324011),3584,36,029,013702,1400000US36029013702,36029013702,137.02,Census Tract 137.02,NY,Erie County,New York,CT,18369136,0
164,STEUBEN,735094,Store,A,DOLGEN NEW YORK LLC,DOLLAR GENERAL #18917,3851,STATE RT 417,,,JASPER,NY,14855,0,POINT (293260.0795997657 4666255.81783767),2670,36,101,962000,1400000US36101962000,36101962000,9620,Census Tract 9620,NY,Steuben County,New York,CT,601496576,673071
165,CHAUTAUQUA,735092,Store,A,DOLGEN NEW YORK LLC,DOLLAR GENERAL #18952,2864,ROUTE 426,,,FINDLEY LAKE,NY,14736,7263,POINT (108298.8228557553 4674280.065143509),3544,36,013,036600,1400000US36013036600,36013036600,366,Census Tract 366,NY,Chautauqua County,New York,CT,219138951,6916410
166,TIOGA,734633,Store,A,DOLGEN NEW YORK LLC,DOLLAR GENERAL STORE #18509,7146,STATE ROUTE 434,,,APALACHIN,NY,13732,0,POINT (404882.6593989672 4657994.331072978),4836,36,107,020401,1400000US36107020401,36107020401,204.01,Census Tract 204.01,NY,Tioga County,New York,CT,121903491,1641263
167,WYOMING,734632,Store,A,DOLGEN NEW YORK LLC,DOLLAR GENERAL STORE #18900,2480,SR 20A,,,VARYSBURG,NY,14167,7512,POINT (228871.8422537589 4739635.240816304),4709,36,121,970400,1400000US36121970400,36121970400,9704,Census Tract 9704,NY,Wyoming County,New York,CT,214732557,277124
168,TIOGA,734631,Store,A,DOLGEN NEW YORK LLC,DOLLAR GENERAL STORE #19035,12343,STATE ROUTE 38,,,BERKSHIRE,NY,13736,0,POINT (402136.3649540478 4683226.738541678),4014,36,107,020101,1400000US36107020101,36107020101,201.01,Census Tract 201.01,NY,Tioga County,New York,CT,177346057,75268
169,ONEIDA,734527,Store,A,DOLGEN NEW YORK LLC,DOLLAR GENERAL STORE #16137,8420,STATE ROUTE 69,,,ORISKANY,NY,13424,0,POINT (472997.3530491276 4778526.627532831),3366,36,065,026100,1400000US36065026100,36065026100,261,Census Tract 261,NY,Oneida County,New York,CT,31810303,0
170,GREENE,734526,Store,A,DOLGEN NEW YORK LLC,DOLLAR GENERAL STORE #16748,9718,ROUTE 9W,,,ATHENS,NY,12015,8000,POINT (594560.6609163779 4682598.898688601),2322,36,039,080900,1400000US36039080900,36039080900,809,Census Tract 809,NY,Greene County,New York,CT,67977451,6792137
171,DELAWARE,734524,Store,A,DOLGEN NEW YORK LLC,DOLLAR GENERAL STORE #18914,11160,STATE HIGHWAY 23,,,DAVENPORT CENTER,NY,13751,7220,POINT (506345.3350554911 4699022.605905661),938,36,025,970102,1400000US36025970102,36025970102,9701.02,Census Tract 9701.02,NY,Delaware County,New York,CT,133548339,904696
172,CHENANGO,734523,Store,A,DOLGEN NEW YORK LLC,DOLLAR GENERAL STORE #19410,72,S MAIN STREET,,,EARLVILLE,NY,13332,9160,POINT (455556.586510322 4731217.960531949),3793,36,017,970101,1400000US36017970101,36017970101,9701.01,Census Tract 9701.01,NY,Chenango County,New York,CT,136130047,222452
173,SULLIVAN,734522,Store,A,DOLGEN NEW YORK LLC,DOLLAR GENERAL STORE #18717,7899,STATE ROUTE 55,,,NEVERSINK,NY,12765,7542,POINT (534555.7633866777 4634079.654092116),773,36,105,950100,1400000US36105950100,36105950100,9501,Census Tract 9501,NY,Sullivan County,New York,CT,214381821,9041006
174,ST. LAWRENCE,733234,Store,A,DOLGEN NEW YORK LLC,DOLLAR GENERAL #18388,52,S MAIN ST,,,HAMMOND,NY,13646,0,POINT (444637.3330900372 4921493.14873744),3345,36,089,492900,1400000US36089492900,36089492900,4929,Census Tract 4929,NY,St. Lawrence County,New York,CT,258998791,44412638
175,ORLEANS,733232,Store,A,DOLGEN NEW YORK LLC,DOLLAR GENERAL #18377,16669,ROOSEVELT HWY,,,KENDALL,NY,14476,9160,POINT (253692.1128657453 4800677.528930828),5014,36,073,401300,1400000US36073401300,36073401300,4013,Census Tract 4013,NY,Orleans County,New York,CT,164821172,1558999
176,BROOME,733229,Store,A,DOLGEN NEW YORK LLC,DOLLAR GENERAL #18570,2225,AIRPORT RD,,,BINGHAMTON,NY,13905,13500,POINT (418637.1238167965 4671643.577616368),3423,36,007,010200,1400000US36007010200,36007010200,102,Census Tract 102,NY,Broome County,New York,CT,117946363,304276
177,SARATOGA,733226,Store,A,DOLGEN NEW YORK LLC,DOLLAR GENERAL #16997,51,LEONARD ST,,,GANSEVOORT,NY,12831,3000,POINT (609957.1127608622 4784131.468074917),2257,36,091,060800,1400000US36091060800,36091060800,608,Census Tract 608,NY,Saratoga County,New York,CT,83652853,1603766
178,NIAGARA,732351,Store,A,DOLGEN NEW YORK LLC,DOLLAR GENERAL #18480,3887,MAPLETON RD,,,NORTH TONAWANDA,NY,14120,7500,POINT (188118.5634844956 4781544.874570686),5314,36,063,022717,1400000US36063022717,36063022717,227.17,Census Tract 227.17,NY,Niagara County,New York,CT,30368286,0
179,MONTGOMERY,732158,Store,A,DOLGEN NEW YORK LLC,DOLLAR GENERAL #18503,201,E MAIN ST,,,AMSTERDAM,NY,12010,9160,POINT (566411.3139632405 4753750.111195772),900,36,057,070900,1400000US36057070900,36057070900,709,Census Tract 709,NY,Montgomery County,New York,CT,1239481,193108
180,CHAUTAUQUA,731678,Store,A,DOLGEN NEW YORK LLC,DOLLAR GENERAL #18496,4884,RTE 430,,,BEMUS POINT,NY,14712,9160,POINT (135021.3782780425 4681899.731186116),3549,36,013,036901,1400000US36013036901,36013036901,369.01,Census Tract 369.01,NY,Chautauqua County,New York,CT,169162630,325714
181,ALLEGANY,731485,Store,A,DOLGEN NEW YORK LLC,DOLLAR GENERAL #17999,8874,ST ROUTE 243,,,RUSHFORD,NY,14777,9217,POINT (232975.3290384431 4698091.17660932),3829,36,003,950300,1400000US36003950300,36003950300,9503,Census Tract 9503,NY,Allegany County,New York,CT,232017438,2013702
182,BROOME,731469,Store,A,DOLGEN NEW YORK LLC,DOLLAR GENERAL #18376,1538,CONKLIN RD,,,CONKLIN,NY,13748,0,POINT (433925.4003410833 4652585.196752065),5027,36,007,012701,1400000US36007012701,36007012701,127.01,Census Tract 127.01,NY,Broome County,New York,CT,63367948,1262039
183,CHAUTAUQUA,731468,Store,A,DOLGEN NEW YORK LLC,DOLLAR GENERAL #22154,5817,JAMESTOWN ST,,,SINCLAIRVILLE,NY,14782,9346,POINT (148039.6675441063 4686730.071838093),3549,36,013,036901,1400000US36013036901,36013036901,369.01,Census Tract 369.01,NY,Chautauqua County,New York,CT,169162630,325714
184,CHAUTAUQUA,731467,Store,A,DOLGEN NEW YORK LLC,DOLLAR GENERAL #18261,50,E MAIN ST,,,RIPLEY,NY,14775,7520,POINT (111856.4713516022 4690303.927274046),3544,36,013,036600,1400000US36013036600,36013036600,366,Census Tract 366,NY,Chautauqua County,New York,CT,219138951,6916410
185,CATTARAUGUS,731466,Store,A,DOLGEN NEW YORK LLC,DOLLAR GENERAL #18458,529,PINE ST,,,SOUTH DAYTON,NY,14138,9346,POINT (165808.9477494386 4698254.93239804),4553,36,009,960500,1400000US36009960500,36009960500,9605,Census Tract 9605,NY,Cattaraugus County,New York,CT,292692599,2078216
186,WYOMING,731379,Store,A,DOLGEN NEW YORK LLC,DOLLAR GENERAL #17666,5720,RT 19A,,,CASTILE,NY,14427,3000,POINT (248717.4699427605 4723481.104148292),1808,36,121,970700,1400000US36121970700,36121970700,9707,Census Tract 9707,NY,Wyoming County,New York,CT,95778110,3665729
187,KINGS,730633,Store,A,DOLGEN NEW YORK LLC,DOLLAR GENERAL #19215,2027,UTICA AVE,,,BROOKLYN,NY,11234,8000,POINT (590752.4397887064 4497389.006179778),2101,36,047,068000,1400000US36047068000,36047068000,680,Census Tract 680,NY,Kings County,New York,CT,168859,0
188,ONEIDA,730580,Store,A,DOLGEN NEW YORK LLC,DOLLAR GENERAL # 12183,1112,MOHAWK ST,,,UTICA,NY,13501,3000,POINT (481929.0504611991 4770956.299866991),2351,36,065,021302,1400000US36065021302,36065021302,213.02,Census Tract 213.02,NY,Oneida County,New York,CT,1632506,0
189,ORANGE,730579,Store,A,DOLGEN NEW YORK LLC,DOLLAR GENERAL # 17793,1035,ROUTE 209,,,CUDDEBACKVILLE,NY,12729,8000,POINT (533941.3557690852 4590260.730674127),4774,36,071,011602,1400000US36071011602,36071011602,116.02,Census Tract 116.02,NY,Orange County,New York,CT,105570709,2375481
190,CATTARAUGUS,730578,Store,A,DOLGEN NEW YORK LLC,DOLLAR GENERAL # 17913,10011,ROUTE 16,,,MACHIAS,NY,14101,9200,POINT (213739.5090509262 4704010.931757132),3542,36,009,960200,1400000US36009960200,36009960200,9602,Census Tract 9602,NY,Cattaraugus County,New York,CT,68448630,1461870
191,FRANKLIN,730577,Store,A,DOLGEN NEW YORK LLC,DOLLAR GENERAL # 17932,116,COUNTY ROUTE 5,,,DICKINSON CENTER,NY,12930,0,POINT (535953.5671355682 4947573.410234039),4000,36,033,951300,1400000US36033951300,36033951300,9513,Census Tract 9513,NY,Franklin County,New York,CT,221390021,405556
192,NIAGARA,730576,Store,A,DOLGEN NEW YORK LLC,DOLLAR GENERAL # 18375,6408,CAMPBELL BLVD,,,LOCKPORT,NY,14094,0,POINT (193340.4571997679 4780626.388239792),4815,36,063,022702,1400000US36063022702,36063022702,227.02,Census Tract 227.02,NY,Niagara County,New York,CT,70153542,699417
193,WESTCHESTER,730575,Store,A,DOLGEN NEW YORK LLC,DOLLAR GENERAL # 19009,205,E 3RD ST,,,MOUNT VERNON,NY,10553,5000,POINT (598701.4493194995 4529262.717986397),1624,36,119,003300,1400000US36119003300,36119003300,33,Census Tract 33,NY,Westchester County,New York,CT,624485,0
194,QUEENS,730574,Store,A,DOLGENCORP OF NEW YORK LLC,DOLLAR GENERAL # 19203,3527,31ST ST,,,ASTORIA,NY,11106,0,POINT (590410.0496991844 4512372.612120274),1848,36,081,005300,1400000US36081005300,36081005300,53,Census Tract 53,NY,Queens County,New York,CT,196497,0
195,KINGS,730573,Store,A,DOLGEN NEW YORK LLC,DOLLAR GENERAL # 19212,112,E 98TH ST #126,,,BROOKLYN,NY,11212,2000,POINT (591121.0821087193 4502015.5425521),104,36,047,089200,1400000US36047089200,36047089200,892,Census Tract 892,NY,Kings County,New York,CT,179663,0
196,KINGS,730571,Store,A,DOLGENCORP OF NEW YORK LLC,DOLLAR GENERAL # 19213,1192,MYRTLE AVE,,,BROOKLYN,NY,11221,15000,POINT (590298.5421604086 4505707.457219854),77,36,047,039300,1400000US36047039300,36047039300,393,Census Tract 393,NY,Kings County,New York,CT,189603,0
197,KINGS,730570,Store,A,DOLGEN NEW YORK LLC,DOLLAR GENERAL # 19214,1450,ROCKAWAY PARKWAY,,,BROOKLYN,NY,11236,1500,POINT (592848.6173432772 4499894.554406459),4526,36,047,096800,1400000US36047096800,36047096800,968,Census Tract 968,NY,Kings County,New York,CT,149019,0
198,KINGS,730568,Store,A,DOLGENCORP OF NEW YORK LLC,DOLLAR GENERAL # 19216,226,MOTHER GASTON BLVD,,,BROOKLYN,NY,11233,0,POINT (592244.5066638386 4503100.846915144),4819,36,047,036502,1400000US36047036502,36047036502,365.02,Census Tract 365.02,NY,Kings County,New York,CT,122056,0
199,QUEENS,730566,Store,A,DOLGEN NEW YORK LLC,DOLLAR GENERAL # 19221,1479,BEACH CHANNEL DR,,,FAR ROCKAWAY,NY,11691,0,POINT (605423.0940747955 4496197.804995548),153,36,081,103201,1400000US36081103201,36081103201,1032.01,Census Tract 1032.01,NY,Queens County,New York,CT,399541,28173
200,ERIE,730565,Store,A,DOLGEN NEW YORK LLC,DOLLAR GENERAL # 19220,41,BUFFALO RD,,,EAST AURORA,NY,14052,11100,POINT (202947.7592628375 4741500.018102764),2529,36,029,013802,1400000US36029013802,36029013802,138.02,Census Tract 138.02,NY,Erie County,New York,CT,53171090,44713
201,FULTON,730564,Store,A,DOLGEN NEW YORK LLC,DOLLAR GENERAL # 19226,200,N COMRIE AVE,,,JOHNSTOWN,NY,12095,5500,POINT (552167.859993047 4762558.812745082),3384,36,035,971200,1400000US36035971200,36035971200,9712,Census Tract 9712,NY,Fulton County,New York,CT,4873800,0
202,MONROE,730563,Store,A,DOLGEN NEW YORK LLC,DOLLAR GENERAL # 19237,529,MONROE AVE,,,ROCHESTER,NY,14607,0,POINT (289134.472984393 4780286.668967142),5263,36,055,003000,1400000US36055003000,36055003000,30,Census Tract 30,NY,Monroe County,New York,CT,438635,0
203,MONROE,730562,Store,A,DOLGEN NEW YORK LLC,DOLLAR GENERAL #19236,2390,LYELL AVE,,,ROCHESTER,NY,14606,0,POINT (281256.1743280856 4782754.459654446),1783,36,055,014301,1400000US36055014301,36055014301,143.01,Census Tract 143.01,NY,Monroe County,New York,CT,2762436,66653
204,MONROE,730560,Store,A,DOLGEN NEW YORK LLC,DOLLAR GENERAL # 19235,1004,CULVER RD,,,ROCHESTER,NY,14609,9785,POINT (291579.7221576017 4782157.076048302),9,36,055,006000,1400000US36055006000,36055006000,60,Census Tract 60,NY,Monroe County,New York,CT,902895,0
205,QUEENS,730559,Store,A,DOLGEN NEW YORK LLC,DOLLAR GENERAL # 19234,1815,GATES AVE,,,RIDGEWOOD,NY,11385,2000,POINT (592238.2634650616 4506439.580907592),3045,36,081,054700,1400000US36081054700,36081054700,547,Census Tract 547,NY,Queens County,New York,CT,129153,0
206,ONONDAGA,730554,Store,A,DOLGEN NEW YORK LLC,DOLLAR GENERAL # 19245,4141,S SALINA ST,,,SYRACUSE,NY,13205,7000,POINT (406987.8363642874 4762356.549969306),863,36,067,006101,1400000US36067006101,36067006101,61.01,Census Tract 61.01,NY,Onondaga County,New York,CT,1364424,0
207,QUEENS,730553,Store,JAC,DOLGENCORP OF NEWYORK INC,DOLLAR GENERAL # 19222,7134,MYRTLE AVE,,,GLENDALE,NY,11385,5500,POINT (594737.8691231826 4506283.735475326),2993,36,081,062900,1400000US36081062900,36081062900,629,Census Tract 629,NY,Queens County,New York,CT,183530,0
208,ERIE,730551,Store,A,DOLGEN NEW YORK LLC,DOLLAR GENERAL #19223,2391,GRAND ISLAND BLVD,,,GRAND ISLAND,NY,14072,0,POINT (176730.2779766437 4771451.384733479),3851,36,029,007303,1400000US36029007303,36029007303,73.03,Census Tract 73.03,NY,Erie County,New York,CT,15264155,2338580
209,MONROE,730549,Store,A,DOLGEN NEW YORK LLC,DOLLAR GENERAL # 19224,4419,DEWEY AVE,,,ROCHESTER,NY,14616,0,POINT (285033.837471534 4792205.574859004),5081,36,055,013601,1400000US36055013601,36055013601,136.01,Census Tract 136.01,NY,Monroe County,New York,CT,2418783,0
210,QUEENS,730548,Store,A,DOLGEN NEW YORK LLC,DOLLAR GENERAL # 19219,13217,14TH AVE,,,COLLEGE POINT,NY,11356,7000,POINT (598241.6998804765 4515807.040687513),4688,36,081,094500,1400000US36081094500,36081094500,945,Census Tract 945,NY,Queens County,New York,CT,1527718,872808
211,KINGS,730547,Store,A,DOLGEN NEW YORK LLC,DOLLAR GENERAL # 19218,4602,AVENUE D,,,BROOKLYN,NY,11203,0,POINT (590224.1815307342 4499541.484643538),1358,36,047,084000,1400000US36047084000,36047084000,840,Census Tract 840,NY,Kings County,New York,CT,170057,0
212,KINGS,730545,Store,A,DOLGEN NEW YORK LLC,DOLLAR GENERAL #19217,4118,FARRAGUT RD,,,BROOKLYN,NY,11210,6400,POINT (589893.8798028578 4498979.843881078),2105,36,047,083600,1400000US36047083600,36047083600,836,Census Tract 836,NY,Kings County,New York,CT,208197,0
213,ONONDAGA,730532,Store,A,DOLGEN NEW YORK LLC,DOLLAR GENERAL # 19244,220,S GEDDES ST,,,SYRACUSE,NY,13204,0,POINT (404608.8121607113 4766458.792361522),5094,36,067,002901,1400000US36067002901,36067002901,29.01,Census Tract 29.01,NY,Onondaga County,New York,CT,1884803,0
214,RICHMOND,730531,Store,A,DOLGEN NEW YORK LLC,DOLLAR GENERAL # 19243,2264,FOREST AVE,,,STATEN ISLAND,NY,10303,0,POINT (570574.9989592663 4497648.699421664),3803,36,085,030302,1400000US36085030302,36085030302,303.02,Census Tract 303.02,NY,Richmond County,New York,CT,908763,0
215,RICHMOND,730529,Store,A,DOLGEN NEW YORK LLC,DOLLAR GENERAL # 19242,135,CANAL ST,,,STATEN ISLAND,NY,10304,5000,POINT (577968.3680243456 4497744.101752076),2913,36,085,002100,1400000US36085002100,36085002100,21,Census Tract 21,NY,Richmond County,New York,CT,864360,2017877
216,SUFFOLK,730527,Store,A,DOLGEN NEW YORK LLC,DOLLAR GENERAL # 19238,29,ROCKY POINT YAPHUNK RD,,,ROCKY POINT,NY,11778,0,POINT (673350.5511911807 4534368.518906083),4351,36,103,158401,1400000US36103158401,36103158401,1584.01,Census Tract 1584.01,NY,Suffolk County,New York,CT,20900109,0
217,SUFFOLK,730526,Store,A,DOLGEN NEW YORK LLC,DOLLAR GENERAL # 19240,441,WILLIAM FLOYD PKWY,,,SHIRLEY,NY,11967,13000,POINT (680211.0265533782 4516841.090824441),3974,36,103,159517,1400000US36103159517,36103159517,1595.17,Census Tract 1595.17,NY,Suffolk County,New York,CT,2641935,0
218,FRANKLIN,730525,Store,A,DOLGEN NEW YORK LLC,DOLLAR GENERAL # 19239,245,BROADWAY STE 2,,,SARANAC LAKE,NY,12983,0,POINT (568632.9311705023 4909202.132157217),4999,36,033,951000,1400000US36033951000,36033951000,9510,Census Tract 9510,NY,Franklin County,New York,CT,96664004,24820934
219,QUEENS,730523,Store,A,DOLGEN NEW YORK LLC,DOLLAR GENERAL # 19232,168-42,JAMAICA AVE,,,JAMAICA,NY,11432,8600,POINT (602154.8278323142 4506906.859084406),3658,36,081,044400,1400000US36081044400,36081044400,444,Census Tract 444,NY,Queens County,New York,CT,897125,0
220,QUEENS,730522,Store,A,DOLGEN NEW YORK LLC,DOLLAR GENERAL #19233,11335,SPRINGFIELD BLVD,,,QUEENS VILLAGE,NY,11429,4500,POINT (606411.0797522839 4506568.946199642),859,36,081,058200,1400000US36081058200,36081058200,582,Census Tract 582,NY,Queens County,New York,CT,563649,0
221,ONONDAGA,730521,Store,A,DOLGEN NEW YORK LLC,DOLLAR GENERAL # 19228,2202,BREWERTON RD,,,MATTYDALE,NY,13211,9994,POINT (406865.3041402227 4772332.686101562),3697,36,067,013900,1400000US36067013900,36067013900,139,Census Tract 139,NY,Onondaga County,New York,CT,4608637,0
222,SUFFOLK,730519,Store,A,DOLGEN NEW YORK LLC,DOLLAR GENERAL #19227,660,N WELLWOOD AVE,,,LINDENHURST,NY,11757,2200,POINT (636438.4589183318 4507029.785053614),4078,36,103,123404,1400000US36103123404,36103123404,1234.04,Census Tract 1234.04,NY,Suffolk County,New York,CT,2105125,0
223,QUEENS,730518,Store,A,DOLGEN NEW YORK LLC,DOLLAR GENERAL # 19225,11205,SUTPHIN BLVD,,,JAMAICA,NY,11435,5000,POINT (601879.8312073015 4504757.095815651),1881,36,081,027000,1400000US36081027000,36081027000,270,Census Tract 270,NY,Queens County,New York,CT,185072,0
224,DUTCHESS,730514,Store,A,DOLGEN NEW YORK LLC,DOLLAR GENERAL # 19230,258,HOOKER AVE,,,POUGHKEEPSIE,NY,12603,2000,POINT (590686.3790150543 4615536.04326318),889,36,027,220901,1400000US36027220901,36027220901,2209.01,Census Tract 2209.01,NY,Dutchess County,New York,CT,1332168,0
225,QUEENS,730513,Store,A,DOLGEN NEW YORK LLC,DOLLAR GENERAL # 19231,112-12,JAMAICA AVE,,,RICHMOND HILL,NY,11418,0,POINT (598357.4717198737 4505842.055765805),493,36,081,012400,1400000US36081012400,36081012400,124,Census Tract 124,NY,Queens County,New York,CT,197659,0
226,TOMPKINS,730512,Store,A,DOLGEN NEW YORK LLC,DOLLAR GENERAL # 17711,2124,MECKLENBURG RD,,,ITHACA,NY,14850,0,POINT (365689.2235466875 4701191.131950589),3326,36,109,001700,1400000US36109001700,36109001700,17,Census Tract 17,NY,Tompkins County,New York,CT,119634912,354060
227,CHAUTAUQUA,730511,Store,A,DOLGEN NEW YORK LLC,DOLLAR GENERAL # 17678,112,OSBORNE ST,,,SHERMAN,NY,14781,9160,POINT (120398.8000233312 4677356.023769745),2172,36,013,036700,1400000US36013036700,36013036700,367,Census Tract 367,NY,Chautauqua County,New York,CT,281647564,630690
228,GREENE,730510,Store,A,DOLGEN NEW YORK LLC,DOLLAR GENERAL #17472,3647,RTE 145,,,EAST DURHAM,NY,12423,8000,POINT (570477.6803463079 4693788.898221348),3321,36,039,080202,1400000US36039080202,36039080202,802.02,Census Tract 802.02,NY,Greene County,New York,CT,127723671,107280
229,BRONX,730509,Store,A,DOLGEN NEW YORK LLC,DOLLAR GENERAL # 19211,900,SOUTHERN BLVD,,,BRONX,NY,10459,1500,POINT (593377.9520377342 4519305.563688993),1548,36,005,008900,1400000US36005008900,36005008900,89,Census Tract 89,NY,Bronx County,New York,CT,110291,0
230,ST. LAWRENCE,730508,Store,A,DOLGEN NEW YORK LLC,DOLLAR GENERAL # 17684,6,MCLIWEE RD,,,HEUVELTON,NY,13654,10000,POINT (467362.947478243 4941184.844163886),3352,36,089,491700,1400000US36089491700,36089491700,4917,Census Tract 4917,NY,St. Lawrence County,New York,CT,169642767,14771516
231,BRONX,730507,Store,A,DOLGEN NEW YORK LLC,DOLLAR GENERAL # 19204,1041,PROSPECT AVE,,,BRONX,NY,10459,0,POINT (592744.9333123734 4519905.595668203),3179,36,005,013100,1400000US36005013100,36005013100,131,Census Tract 131,NY,Bronx County,New York,CT,230967,0
232,BRONX,730506,Store,A,DOLGEN NEW YORK LLC,DOLLAR GENERAL # 19205,1312,SOUTHER BLVD,,,BRONX,NY,10459,1500,POINT (593487.3585866559 4520609.070876044),1978,36,005,012300,1400000US36005012300,36005012300,123,Census Tract 123,NY,Bronx County,New York,CT,303327,0
233,BRONX,730505,Store,A,DOLGEN NEW YORK LLC,DOLLAR GENERAL # 19206,1412,JEROME AVE,,,BRONX,NY,10452,0,POINT (591298.4028714804 4521652.400448786),2056,36,005,022300,1400000US36005022300,36005022300,223,Census Tract 223,NY,Bronx County,New York,CT,92765,0
234,BRONX,730503,Store,A,DOLGEN NEW YORK LLC,DOLLAR GENERAL # 19207,2500,WHITE PLAINS RD,,,BRONX,NY,10467,7800,POINT (595465.7280153171 4524211.477762158),3257,36,005,033000,1400000US36005033000,36005033000,330,Census Tract 330,NY,Bronx County,New York,CT,206129,0
235,BRONX,730500,Store,A,DOLGEN NEW YORK LLC,DOLLAR GENERAL # 19208,3555,WHITE PLAINS RD,,,BRONX,NY,10467,7500,POINT (595555.7998989311 4525926.989694158),3845,36,005,037800,1400000US36005037800,36005037800,378,Census Tract 378,NY,Bronx County,New York,CT,131851,0
236,BRONX,730494,Store,A,DOLGEN NEW YORK LLC,DOLLAR GENERAL STORE #19210,528,JACKSON AVE,,,BRONX,NY,10455,0,POINT (592001.0618734806 4518528.178398506),678,36,005,003500,1400000US36005003500,36005003500,35,Census Tract 35,NY,Bronx County,New York,CT,142005,0
237,ST. LAWRENCE,729527,Store,A,DOLGEN NEW YORK LLC,DOLLAR GENERAL #17768,2776,NYS RT 11B,,,NICHOLVILLE,NY,12965,0,POINT (522983.9722038924 4948441.714594034),2658,36,089,493000,1400000US36089493000,36089493000,4930,Census Tract 4930,NY,St. Lawrence County,New York,CT,1348133135,58802690
238,CATTARAUGUS,729525,Store,A,DOLGEN NEW YORK LLC,DOLLAR GENERAL #17674,3545,RT 16,,,HINSDALE,NY,14743,9200,POINT (219162.9389070544 4672277.971975276),3540,36,009,961000,1400000US36009961000,36009961000,9610,Census Tract 9610,NY,Cattaraugus County,New York,CT,169315328,367177
239,CLINTON,729524,Store,A,DOLGEN NEW YORK LLC,DOLLAR GENERAL #17480,1945,STATE RT 3,,,CADYVILLE,NY,12918,9346,POINT (609319.6058749032 4950960.236693693),3170,36,019,100700,1400000US36019100700,36019100700,1007,Census Tract 1007,NY,Clinton County,New York,CT,41573684,1130788
240,SULLIVAN,729523,Store,A,DOLGEN NEW YORK LLC,DOLLAR GENERAL #16890,37,GLEN WILD RD,,,ROCK HILL,NY,12775,7263,POINT (533468.3859500855 4608632.160816641),2603,36,105,951701,1400000US36105951701,36105951701,9517.01,Census Tract 9517.01,NY,Sullivan County,New York,CT,80751463,4230629
241,ST. LAWRENCE,729522,Store,A,DOLGEN NEW YORK LLC,DOLLAR GENERAL #17784,4906,NYS RT 56,,,COLTON,NY,13625,0,POINT (504391.8706866679 4933797.782956492),3997,36,089,492301,1400000US36089492301,36089492301,4923.01,Census Tract 4923.01,NY,St. Lawrence County,New York,CT,217235603,6328008
242,LEWIS,729489,Store,A,DOLGEN NEW YORK LLC,DOLLAR GENERAL #17843,9680,STATE RT 812,,,CROGHAN,NY,13327,9160,POINT (468646.301965713 4859609.685835876),5228,36,049,950101,1400000US36049950101,36049950101,9501.01,Census Tract 9501.01,NY,Lewis County,New York,CT,336349059,4173393
243,SARATOGA,729106,Store,A,DOLGEN NEW YORK LLC,DOLLAR GENERAL #16423,44,SPRING ST,,,SCHUYLERVILLE,NY,12871,5000,POINT (615085.21020318 4773429.015025062),4206,36,091,060902,1400000US36091060902,36091060902,609.02,Census Tract 609.02,NY,Saratoga County,New York,CT,2679450,140897
244,OTSEGO,728903,Store,A,DOLGEN NEW YORK LLC,DOLLAR GENERAL #17580,1975,STATE ROUTE 80,,,EDMESTON,NY,13335,0,POINT (481883.8918279757 4727583.637033337),3783,36,077,590401,1400000US36077590401,36077590401,5904.01,Census Tract 5904.01,NY,Otsego County,New York,CT,114739092,210742
245,RENSSELAER,728902,Store,A,DOLGEN NEW YORK LLC,DOLLAR GENERAL #17476,18322,NYS ROUTE 22,,,BERLIN,NY,12022,0,POINT (633168.8245089962 4728452.397730984),4728,36,083,052103,1400000US36083052103,36083052103,521.03,Census Tract 521.03,NY,Rensselaer County,New York,CT,154353157,827021
246,CLINTON,728901,Store,A,DOLGEN NEW YORK LLC,DOLLAR GENERAL #17063,7143,ROUTE 9,,,PLATTSBURGH,NY,12901,9160,POINT (623843.2930278375 4953828.941288134),3927,36,019,100800,1400000US36019100800,36019100800,1008,Census Tract 1008,NY,Clinton County,New York,CT,43113544,33156445
247,SCHOHARIE,728900,Store,A,DOLGEN NEW YORK LLC,DOLLAR GENERAL #16110,393,MAIN STREET,,,RICHMONDVILLE,NY,12149,9000,POINT (536625.6333706657 4720551.532899415),245,36,095,740500,1400000US36095740500,36095740500,7405,Census Tract 7405,NY,Schoharie County,New York,CT,174163169,1199665
248,DELAWARE,728623,Store,A,DOLGEN NEW YORK LLC,DOLLAR GENERAL #17621,36558,ROUTE 23,,,GRAND GORGE,NY,12434,0,POINT (540830.4548882378 4690765.2421998),3446,36,025,971100,1400000US36025971100,36025971100,9711,Census Tract 9711,NY,Delaware County,New York,CT,225624717,1269083
249,GREENE,728622,Store,A,DOLGEN NEW YORK LLC,DOLLAR GENERAL #16252,6459,NYS 23A,,,TANNERSVILLE,NY,12485,9346,POINT (569810.7713755518 4671628.537807877),3769,36,039,080404,1400000US36039080404,36039080404,804.04,Census Tract 804.04,NY,Greene County,New York,CT,176981239,276871
250,NIAGARA,728621,Store,A,DOLGEN NEW YORK LLC,DOLLAR GENERAL #18074,6726,TRANSIT RD,,,LOCKPORT,NY,14094,0,POINT (199095.3146642507 4778814.969013019),4815,36,063,022702,1400000US36063022702,36063022702,227.02,Census Tract 227.02,NY,Niagara County,New York,CT,70153542,699417
251,DUTCHESS,728620,Store,A,DOLGEN NEW YORK LLC,DOLLAR GENERAL #16664,3059,NYS ROUTE 22,,,DOVER PLAINS,NY,12522,8000,POINT (617967.4408569527 4621196.646949325),2180,36,027,040001,1400000US36027040001,36027040001,400.01,Census Tract 400.01,NY,Dutchess County,New York,CT,74503978,1444736
252,CAYUGA,725933,Store,A,DOLGEN NEW YORK LLC,DOLLAR GENERAL #17989,72,UTICA ST,,,PORT BYRON,NY,13140,7200,POINT (367797.3270889254 4765951.181458346),4528,36,011,040300,1400000US36011040300,36011040300,403,Census Tract 403,NY,Cayuga County,New York,CT,135051407,3511220
253,CATTARAUGUS,725533,Store,A,DOLGENCORP OF NEW YORK INC,DOLLAR GENERAL #17246,5442,NYS RT 353,,,LITTLE VALLEY,NY,14755,9100,POINT (188162.2243623736 4683634.332056677),5134,36,009,960600,1400000US36009960600,36009960600,9606,Census Tract 9606,NY,Cattaraugus County,New York,CT,248756746,540529
254,ALBANY,725467,Store,A,DOLGEN NEW YORK LLC,DOLLAR GENERAL 16872,1939,CENTRAL AVE,,,ALBANY,NY,12205,5500,POINT (593578.0626941617 4732430.028539215),2503,36,001,013804,1400000US36001013804,36001013804,138.04,Census Tract 138.04,NY,Albany County,New York,CT,14915816,967
255,STEUBEN,725466,Store,A,DOLGEN NEW YORK LLC,DOLLAR GENERAL #17267,95,S MAIN ST,,,AVOCA,NY,14809,0,POINT (300854.9774376697 4697137.290952801),1774,36,101,961000,1400000US36101961000,36101961000,9610,Census Tract 9610,NY,Steuben County,New York,CT,250703538,675439
256,BROOME,725134,Store,A,DOLGEN NEW YORK LLC,DOLLAR GENERAL #17006,599,KENT STREET,,,WINDSOR,NY,13865,9200,POINT (446847.6206099099 4657856.364876285),3753,36,007,012502,1400000US36007012502,36007012502,125.02,Census Tract 125.02,NY,Broome County,New York,CT,68076590,235539
257,JEFFERSON,725026,Store,A,DOLGEN NEW YORK LLC,DOLLAR GENERAL STORE #17286,17953,COUNTY RT 75,,,SACKETS HARBOR,NY,13685,9400,POINT (411025.8752589581 4864418.106761526),2496,36,045,060402,1400000US36045060402,36045060402,604.02,Census Tract 604.02,NY,Jefferson County,New York,CT,60637804,6136963
258,TOMPKINS,725025,Store,A,DOLGEN NEW YORK LLC,DOLLAR GENERAL #16838,1989,EAST SHORE DRIVE,,,LANSING,NY,14882,0,POINT (376669.5926676601 4710017.642476671),2344,36,109,001500,1400000US36109001500,36109001500,15,Census Tract 15,NY,Tompkins County,New York,CT,44399339,3503437
259,OTSEGO,724830,Store,A,DOLGEN NEW YORK LLC,DOLLAR GENERAL #17787,318,MAIN ST,,,WORCESTER,NY,12197,9160,POINT (521789.8499000264 4715932.782175389),3781,36,077,590702,1400000US36077590702,36077590702,5907.02,Census Tract 5907.02,NY,Otsego County,New York,CT,120978821,422826
260,WASHINGTON,724826,Store,A,DOLGEN NEW YORK LLC,DOLLAR GENERAL #17062,11350,NYS RT 149,,,FORT ANN,NY,12827,9160,POINT (621897.9918380562 4807903.121771856),5316,36,115,081002,1400000US36115081002,36115081002,810.02,Census Tract 810.02,NY,Washington County,New York,CT,108096692,729976
261,SULLIVAN,724824,Store,A,DOLGEN NEW YORK LLC,DOLLAR GENERAL #16523,100,MAIN ST,,,LIVINGSTON MANOR,NY,12758,9217,POINT (513986.9229495093 4638551.52360358),4839,36,105,950201,1400000US36105950201,36105950201,9502.01,Census Tract 9502.01,NY,Sullivan County,New York,CT,66448171,270500
262,OTSEGO,724300,Store,A,DOLGEN NEW YORK LLC,DOLLAR GENERAL #17655,99,MAIN ST,,,MORRIS,NY,13808,0,POINT (479643.396245369 4710619.335094866),4797,36,077,591500,1400000US36077591500,36077591500,5915,Census Tract 5915,NY,Otsego County,New York,CT,240598029,430366
263,NIAGARA,724298,Store,A,DOLGEN NEW YORK LLC,DOLLAR GENERAL #17234,4835,MILITARY ROAD,,,NIAGARA FALLS,NY,14305,0,POINT (174079.5821881573 4783113.585629527),4649,36,063,022601,1400000US36063022601,36063022601,226.01,Census Tract 226.01,NY,Niagara County,New York,CT,9036817,0
264,CLINTON,724205,Store,A,DOLGEN NEW YORK LLC,DOLLAR GENERAL #17064,9775,RT 9,,,CHAZY,NY,12921,0,POINT (623381.0776478434 4972695.271083048),3169,36,019,100200,1400000US36019100200,36019100200,1002,Census Tract 1002,NY,Clinton County,New York,CT,140256207,18551716
265,ULSTER,724204,Store,A,DOLGEN NEW YORK LLC,DOLLAR GENERAL #17103,1280,RT 32,,,WALLKILL,NY,12589,9000,POINT (577037.5189638457 4607604.673649178),3805,36,111,954100,1400000US36111954100,36111954100,9541,Census Tract 9541,NY,Ulster County,New York,CT,48934593,965640
266,GENESEE,723753,Store,A,DOLGEN NEW YORK LLC,DOLLAR GENERAL #16948,9195,ALLEGHANY RD,,,CORFU,NY,14036,8000,POINT (222250.9375365405 4762797.768191964),903,36,037,950301,1400000US36037950301,36037950301,9503.01,Census Tract 9503.01,NY,Genesee County,New York,CT,67914893,78738
267,WASHINGTON,723014,Store,A,DOLGEN NEW YORK LLC,DOLLAR GENERAL #16472,1085,STATE RT 197,,,ARGYLE,NY,12809,7400,POINT (622392.5856430532 4788842.908830992),4444,36,115,087000,1400000US36115087000,36115087000,870,Census Tract 870,NY,Washington County,New York,CT,146426522,3264208
268,ST. LAWRENCE,723013,Store,A,DOLGEN NEW YORK LLC,DOLLAR GENERAL #16847,635,RT 11C,,,WINTHROP,NY,13697,0,POINT (516730.8308451319 4960023.105255859),2330,36,089,490700,1400000US36089490700,36089490700,4907,Census Tract 4907,NY,St. Lawrence County,New York,CT,479153508,3514799
269,CAYUGA,723012,Store,A,DOLGEN NEW YORK LLC,DOLLAR GENERAL #16610,2504,W MAIN ST,,,CATO,NY,13033,9200,POINT (372003.4219348315 4780644.816178331),3821,36,011,040201,1400000US36011040201,36011040201,402.01,Census Tract 402.01,NY,Cayuga County,New York,CT,87135854,6588322
270,WARREN,723011,Store,A,DOLGEN NEW YORK LLC,DOLLAR GENERAL #16739,6123,STATE RT 8,,,CHESTERTOWN,NY,12817,9111,POINT (597929.515016583 4835263.161793265),4788,36,113,075002,1400000US36113075002,36113075002,750.02,Census Tract 750.02,NY,Warren County,New York,CT,130270429,2228829
271,CHEMUNG,722844,Store,A,DOLGEN NEW YORK LLC,DOLLAR GENERAL#16566,656,MAIN STREET,,,BREESPORT,NY,14816,0,POINT (356696.3544788559 4670452.608850655),5021,36,015,010702,1400000US36015010702,36015010702,107.02,Census Tract 107.02,NY,Chemung County,New York,CT,59149965,625891
272,JEFFERSON,722843,Store,A,DOLGEN NEW YORK LLC,DOLLAR GENERAL #16606,27531,WILSON ROAD,,,THERESA,NY,13691,0,POINT (434390.607704338 4896947.355348404),4934,36,045,060101,1400000US36045060101,36045060101,601.01,Census Tract 601.01,NY,Jefferson County,New York,CT,159324050,13272533
273,LIVINGSTON,722825,Store,A,DOLGEN NEW YORK LLC,DOLLAR GENERAL #16318,8079,SOUTH MAIN STREET,,,SPRINGWATER,NY,14560,0,POINT (287043.0091780365 4723244.221367494),3780,36,051,031101,1400000US36051031101,36051031101,311.01,Census Tract 311.01,NY,Livingston County,New York,CT,126412574,17875
274,SULLIVAN,722689,Store,A,DOLGEN NEW YORK LLC,DOLLAR GENERAL #15950,585,STATE RT 55,,,ELDRED,NY,12732,8000,POINT (509640.0136965979 4597344.144730121),257,36,105,952400,1400000US36105952400,36105952400,9524,Census Tract 9524,NY,Sullivan County,New York,CT,129648268,4807606
275,ULSTER,722525,Store,A,DOLGEN NEW YORK LLC,DOLLAR GENERAL #17514,3110,ROUTE 28,,,SHOKAN,NY,12481,4000,POINT (565790.3212405852 4647232.954050465),1933,36,111,951000,1400000US36111951000,36111951000,9510,Census Tract 9510,NY,Ulster County,New York,CT,151384333,17465421
276,CLINTON,721056,Store,A,DOLGEN NEW YORK LLC,DOLLAR GENERAL #15842,6905,RT 22,,,PLATTSBURGH,NY,12901,0,POINT (619294.324583895 4958550.848329201),3168,36,019,100600,1400000US36019100600,36019100600,1006,Census Tract 1006,NY,Clinton County,New York,CT,156499991,23833049
277,NIAGARA,720933,Store,A,DOLGEN NEW YORK LLC,DOLLAR GENERAL #16268,3661,RANSOMVILLE ROAD,,,RANSOMVILLE,NY,14131,7272,POINT (182602.3793587717 4794481.963974989),3553,36,063,024502,1400000US36063024502,36063024502,245.02,Census Tract 245.02,NY,Niagara County,New York,CT,77600369,10786361
278,SCHENECTADY,719899,Store,A,DOLGEN NEW YORK LLC,DOLLAR GENERAL #16215,3985,STATE HWY 30,,,ESPERANCE,NY,12066,3000,POINT (561627.156450556 4734474.721991948),3375,36,093,033102,1400000US36093033102,36093033102,331.02,Census Tract 331.02,NY,Schenectady County,New York,CT,183329990,3232878
279,GENESEE,719896,Store,A,DOLGEN NEW YORK LLC,DOLLAR GENERAL #16178,7067,BIG TREE RD,,,PAVILION,NY,14525,6000,POINT (253865.3558612016 4750744.36602356),2679,36,037,951300,1400000US36037951300,36037951300,9513,Census Tract 9513,NY,Genesee County,New York,CT,185565527,368148
280,FRANKLIN,719892,Store,A,DOLGEN NEW YORK LLC,DOLLAR GENERAL #16269,884,STATE RT 11,,,MOIRA,NY,12957,3,POINT (535711.8046239307 4963160.473601187),3999,36,033,950301,1400000US36033950301,36033950301,9503.01,Census Tract 9503.01,NY,Franklin County,New York,CT,228815831,0
281,ST. LAWRENCE,719871,Store,A,DOLGEN NEW YORK LLC,DOLLAR GENERAL #16163,57,SOUTH MAIN STREET,,,NORWOOD,NY,13668,0,POINT (500563.5279486661 4954636.438434042),3354,36,089,491000,1400000US36089491000,36089491000,4910,Census Tract 4910,NY,St. Lawrence County,New York,CT,151010119,3385189
282,CHAUTAUQUA,719291,Store,A,DOLGEN NEW YORK LLC,DOLLAR GENERAL # 16085,8026,ROUTE 60 N,,,CASSADAGA,NY,14718,9100,POINT (144938.3439531852 4697708.322214977),3550,36,013,036000,1400000US36013036000,36013036000,360,Census Tract 360,NY,Chautauqua County,New York,CT,110043466,7899712
283,OSWEGO,719272,Store,A,DOLGEN NEW YORK LLC,DOLLAR GENERAL #16000,8,COLUMBIA AVENUE,,,OSWEGO,NY,13126,10000,POINT (380536.6353103284 4806328.016687006),2345,36,075,021402,1400000US36075021402,36075021402,214.02,Census Tract 214.02,NY,Oswego County,New York,CT,14923385,722709
284,FULTON,719162,Store,A,DOLGEN NEW YORK LLC,DOLLAR GENERAL #15744,2480,STATE HIGHWAY 30,,,MAYFIELD,NY,12117,7195,POINT (559504.8331563193 4773226.229870249),2407,36,035,970200,1400000US36035970200,36035970200,9702,Census Tract 9702,NY,Fulton County,New York,CT,97627724,11089889
285,SARATOGA,719075,Store,A,DOLGEN NEW YORK LLC,DOLLAR GENERAL #15734,162,W MILTON RD,,,BALLSTON SPA,NY,12020,0,POINT (587318.6064598362 4765466.216307893),5322,36,091,061401,1400000US36091061401,36091061401,614.01,Census Tract 614.01,NY,Saratoga County,New York,CT,60978894,58162
286,NIAGARA,719074,Store,A,DOLGEN NEW YORK LLC,DOLLAR GENERAL #15739,4201,CARMEN RD,,,MIDDLEPORT,NY,14105,0,POINT (216481.8826070129 4789604.112856383),4335,36,063,024001,1400000US36063024001,36063024001,240.01,Census Tract 240.01,NY,Niagara County,New York,CT,179317661,804615
287,STEUBEN,719073,Store,A,DOLGEN NEW YORK LLC,DOLLAR GENERAL #15759,4,W LAMOKA AVE,,,SAVONA,NY,14879,0,POINT (316988.6792485423 4684270.253374035),4279,36,101,961300,1400000US36101961300,36101961300,9613,Census Tract 9613,NY,Steuben County,New York,CT,130460119,1291435
288,ONEIDA,718996,Store,A,DOLGEN NEW YORK LLC,DOLLAR GENERAL STORE #15735,4120,STATE RTE 69,,,TABERG,NY,13471,0,POINT (450082.441831655 4793993.867871884),5270,36,065,024400,1400000US36065024400,36065024400,244,Census Tract 244,NY,Oneida County,New York,CT,298200298,1041317
289,ST. LAWRENCE,718995,Store,A,DOLGEN NEW YORK LLC,DOLLAR GENERAL #15824,11997,STATE HWY 37,,,WADDINGTON,NY,13694,0,POINT (482761.5792992951 4967193.377052037),4513,36,089,490500,1400000US36089490500,36089490500,4905,Census Tract 4905,NY,St. Lawrence County,New York,CT,270885766,18038515
290,TIOGA,718993,Store,A,DOLGEN NEW YORK LLC,DOLLAR GENERAL #16036,1140,OWEGO RD,,,CANDOR,NY,13743,0,POINT (391637.5005031142 4668972.9736542),3380,36,107,020200,1400000US36107020200,36107020200,202,Census Tract 202,NY,Tioga County,New York,CT,246029924,305736
291,WARREN,718991,Store,A,DOLGEN NEW YORK LLC,DOLLAR GENERAL #14999,61,MAIN ST,,,QUEENSBURY,NY,12804,0,POINT (607915.697860117 4795021.868656339),3747,36,113,070802,1400000US36113070802,36113070802,708.02,Census Tract 708.02,NY,Warren County,New York,CT,9343619,1261019
292,BROOME,718989,Store,A,DOLGEN NEW YORK LLC,DOLLAR GENERAL #15675,29,NORTH RD,,,WINDSOR,NY,13865,0,POINT (437345.0702649514 4660725.727811108),3753,36,007,012502,1400000US36007012502,36007012502,125.02,Census Tract 125.02,NY,Broome County,New York,CT,68076590,235539
293,ULSTER,718029,Store,A,DOLGEN NEW YORK LLC,DOLLAR GENERAL #14385,6280,RT 209,,,KERHONKSON,NY,12446,9300,POINT (558408.2072007328 4625243.807195815),4343,36,111,954500,1400000US36111954500,36111954500,9545,Census Tract 9545,NY,Ulster County,New York,CT,97022998,904454
294,FRANKLIN,717878,Store,A,DOLGEN NEW YORK LLC,DOLLAR GENERAL 15825,2301,STATE RT 37,,,FORT COVINGTON,NY,12937,0,POINT (538553.5777269036 4981241.133835429),3452,36,033,950200,1400000US36033950200,36033950200,9502,Census Tract 9502,NY,Franklin County,New York,CT,277936242,360340
295,CHAUTAUQUA,717606,Store,A,DOLGEN NEW YORK LLC,DOLLAR GENERAL #16063,54,W MAIN ST,,,BROCTON,NY,14716,9339,POINT (134205.1737298179 4702371.852980305),3551,36,013,036300,1400000US36013036300,36013036300,363,Census Tract 363,NY,Chautauqua County,New York,CT,88110654,16037025
296,GREENE,717599,Store,A,DOLGEN NEW YORK LLC,DOLLAR GENERAL #15881,729,RT 32A,,,PALENVILLE,NY,12463,0,POINT (580954.1121667557 4669587.343386687),3318,36,039,081101,1400000US36039081101,36039081101,811.01,Census Tract 811.01,NY,Greene County,New York,CT,77415526,241436
297,DUTCHESS,717457,Store,A,DOLGEN NEW YORK LLC,DOLLAR GENERAL #15147,1049,VIOLET AVE,,,HYDE PARK,NY,12538,0,POINT (590241.0545056084 4626381.811823633),4149,36,027,070301,1400000US36027070301,36027070301,703.01,Census Tract 703.01,NY,Dutchess County,New York,CT,22657792,134215
298,SULLIVAN,716799,Store,A,DOLGEN NEW YORK LLC,DOLLAR GENERAL #15815,4984,ST RT 52,,,JEFFERSONVILLE,NY,12748,0,POINT (504869.7657001681 4624836.999978295),4214,36,105,952100,1400000US36105952100,36105952100,9521,Census Tract 9521,NY,Sullivan County,New York,CT,90378322,1727602
299,ORANGE,716798,Store,A,DOLGEN NEW YORK LLC,DOLLAR GENERAL #15087,1170,ST RT 17K,,,MONTGOMERY,NY,12549,0,POINT (565313.4194118761 4597472.833325118),3429,36,071,010802,1400000US36071010802,36071010802,108.02,Census Tract 108.02,NY,Orange County,New York,CT,13608084,349880
300,WASHINGTON,716206,Store,A,DOLGEN NEW YORK LLC,DOLLAR GENERAL #16176,1251,RT 29,,,GREENWICH,NY,12834,11560,POINT (621394.2641395846 4772758.007519901),3382,36,115,089000,1400000US36115089000,36115089000,890,Census Tract 890,NY,Washington County,New York,CT,113087480,1547671
301,ONONDAGA,715868,Store,A,DOLGEN NEW YORK LLC,DOLLAR GENERAL #15408,6523,COLLAMER RD/ ROUTE 298,,,EAST SYRACUSE,NY,13057,9100,POINT (412960.0340459993 4772830.857674082),4218,36,067,014500,1400000US36067014500,36067014500,145,Census Tract 145,NY,Onondaga County,New York,CT,17120546,38783
302,ONTARIO,715563,Store,A,DOLGEN NEW YORK LLC,DOLLAR GENERAL 15283,7463,RT 5 & 20,,,BLOOMFIELD,NY,14469,0,POINT (300631.5070234453 4752242.196999272),4058,36,069,050501,1400000US36069050501,36069050501,505.01,Census Tract 505.01,NY,Ontario County,New York,CT,85973367,360310
303,SARATOGA,714399,Store,A,DOLGEN NEW YORK LLC,DOLLAR GENERAL #15552,1,DOMINIC DR,,,BALLSTON SPA,NY,12020,0,POINT (593652.6594667499 4759973.350272014),4204,36,091,061701,1400000US36091061701,36091061701,617.01,Census Tract 617.01,NY,Saratoga County,New York,CT,50925251,1193101
304,MADISON,714397,Store,A,DOLGEN NEW YORK LLC,DOLLAR GENERAL #15844,34,W MAIN ST RT 20,,,MORRISVILLE,NY,13408,0,POINT (446971.0665540533 4749871.227463792),4920,36,053,030701,1400000US36053030701,36053030701,307.01,Census Tract 307.01,NY,Madison County,New York,CT,115586283,2439864
305,ERIE,714395,Store,A,DOLGEN NEW YORK LLC,DOLLAR GENERAL #15900,244,FOREST AVE,,,BUFFALO,NY,14213,7000,POINT (182559.5567805108 4760159.87102709),2698,36,029,017100,1400000US36029017100,36029017100,171,Census Tract 171,NY,Erie County,New York,CT,2021092,379440
306,CLINTON,714319,Store,A,DOLGEN NEW YORK LLC,DOLLAR GENERAL #15350,5602,RT 11,,,ELLENBURG CENTER,NY,12934,7200,POINT (591327.9597441317 4971652.716641049),4015,36,019,103512,1400000US36019103512,36019103512,1035.12,Census Tract 1035.12,NY,Clinton County,New York,CT,675274313,19882444
307,SULLIVAN,714222,Store,A,DOLGEN NEW YORK LLC,DOLLAR GENERAL 15110,3282,ROUTE 209,,,WURTSBORO,NY,12790,91585,POINT (543510.1481603479 4603766.85800842),4755,36,105,951201,1400000US36105951201,36105951201,9512.01,Census Tract 9512.01,NY,Sullivan County,New York,CT,56881139,170745
308,ORLEANS,713654,Store,A,DOLGEN NEW YORK LLC,DOLLAR GENERAL #15417,11349,RIDGE RD,,,MEDINA,NY,14103,900,POINT (224937.5427501135 4796092.710073629),1197,36,073,040200,1400000US36073040200,36073040200,402,Census Tract 402,NY,Orleans County,New York,CT,124454956,210451
309,COLUMBIA,713653,Store,A,DOLGEN NEW YORK LLC,DOLLAR GENERAL #14942,3067,ST HWY 9,,,VALATIE,NY,12184,9300,POINT (607939.2657222803 4698878.288669482),5040,36,021,000402,1400000US36021000402,36021000402,4.02,Census Tract 4.02,NY,Columbia County,New York,CT,42294908,1437327
310,SCHOHARIE,713615,Store,A,DOLGEN NEW YORK LLC,DOLLAR GENERAL #14952,681,ROUTE 20,,,SHARON SPRINGS,NY,13459,9158,POINT (532050.9538159671 4737094.656990531),5139,36,095,740400,1400000US36095740400,36095740400,7404,Census Tract 7404,NY,Schoharie County,New York,CT,283750505,791779
311,SULLIVAN,713614,Store,A,DOLGEN NEW YORK LLC,DOLLAR GENERAL #14958,5687,STATE ROUTE 42,,,FALLSBURG,NY,12733,9339,POINT (532781.9310257531 4620046.156090944),4718,36,105,950802,1400000US36105950802,36105950802,9508.02,Census Tract 9508.02,NY,Sullivan County,New York,CT,47641268,198831
312,ONONDAGA,713613,Store,A,DOLGEN NEW YORK LLC,DOLLAR GENERAL #14963,922,STATE FAIR BLVD,,,GEDDES,NY,13209,7000,POINT (398743.5400910616 4772216.816495894),866,36,067,012800,1400000US36067012800,36067012800,128,Census Tract 128,NY,Onondaga County,New York,CT,13241862,6488803
313,OTSEGO,713612,Store,A,DOLGEN NEW YORK LLC,DOLLAR GENERAL #14992,91,MAIN ST,,,OTEGO,NY,13825,9158,POINT (484156.3555787144 4692726.599990263),4499,36,077,591401,1400000US36077591401,36077591401,5914.01,Census Tract 5914.01,NY,Otsego County,New York,CT,118188960,195723
314,ULSTER,713330,Store,A,DOLGEN NEW YORK LLC,DOLLAR GENERAL #14739,954,ROUTE 28,,,KINGSTON,NY,12401,6000,POINT (575766.4940978915 4648361.221613425),4458,36,111,951500,1400000US36111951500,36111951500,9515,Census Tract 9515,NY,Ulster County,New York,CT,48042049,756475
315,ONEIDA,712821,Store,A,DOLGEN NEW YORK LLC,DOLLAR GENERAL #15168,9501,US ROUTE 20,,,BRIDGEWATER,NY,13313,0,POINT (478966.6755367283 4747428.121978045),4056,36,065,025800,1400000US36065025800,36065025800,258,Census Tract 258,NY,Oneida County,New York,CT,61757811,29948
316,ERIE,712819,Store,A,DOLGEN NEW YORK LLC,DOLLAR GENERAL #14978,122,S MAIN ST,,,HOLLAND,NY,14080,9111,POINT (209918.5449867377 4726823.691100482),27,36,029,015003,1400000US36029015003,36029015003,150.03,Census Tract 150.03,NY,Erie County,New York,CT,92695544,94365
317,WAYNE,712243,Store,A,DOLGEN NEW YORK LLC,DOLLAR GENERAL #15522,1250,RT 104,,,ONTARIO,NY,14519,7798,POINT (311579.3258166129 4788481.937268424),920,36,117,020105,1400000US36117020105,36117020105,201.05,Census Tract 201.05,NY,Wayne County,New York,CT,15600577,0
318,ERIE,712222,Store,A,DOLGEN NEW YORK LLC,DOLLAR GENERAL #14886,663,E FERRY ST,,,BUFFALO,NY,14211,2500,POINT (186828.0223174901 4758435.676868622),1247,36,029,003400,1400000US36029003400,36029003400,34,Census Tract 34,NY,Erie County,New York,CT,1497695,0
319,OTSEGO,712219,Store,A,DOLGEN NEW YORK LLC,DOLLAR GENERAL #14993,4892,ST HWY 28,,,COOPERSTOWN,NY,13326,9158,POINT (503443.0637122179 4723069.635945965),2284,36,077,590201,1400000US36077590201,36077590201,5902.01,Census Tract 5902.01,NY,Otsego County,New York,CT,103820952,867068
320,GENESEE,712082,Store,A,DOLGEN NEW YORK LLC,DOLLAR GENERAL 14869,111,N MAIN ST,,,OAKFIELD,NY,14125,7200,POINT (233292.5213514245 4773773.576681264),4249,36,037,950200,1400000US36037950200,36037950200,9502,Census Tract 9502,NY,Genesee County,New York,CT,152701859,1725279
321,SARATOGA,711740,Store,A,DOLGEN NEW YORK LLC,DOLLAR GENERAL #14704,6367,RT 9N,,,HADLEY,NY,12835,10000,POINT (594602.823962677 4794764.546211266),4323,36,091,060501,1400000US36091060501,36091060501,605.01,Census Tract 605.01,NY,Saratoga County,New York,CT,102834353,3573939
322,ULSTER,711734,Store,A,DOLGEN NEW YORK LLC,DOLLAR GENERAL #14360,,2419 RT 52,,,PINE BUSH,NY,12566,9339,POINT (558354.3671691116 4606551.737756427),3413,36,071,010901,1400000US36071010901,36071010901,109.01,Census Tract 109.01,NY,Orange County,New York,CT,32098663,51093
323,ORANGE,710940,Store,A,DOLGEN NEW YORK LLC,DOLLAR GENERAL #14171,1065,STATE ROUTE 52,,,WALDEN,NY,12586,6000,POINT (568903.0152961854 4601561.964322128),3429,36,071,010802,1400000US36071010802,36071010802,108.02,Census Tract 108.02,NY,Orange County,New York,CT,13608084,349880
324,ONEIDA,710603,Store,A,DOLGEN NEW YORK LLC,DOLLAR GENERAL 14466,9070,RT 365,,,HOLLAND PATENT,NY,13354,5000,POINT (476724.4850890739 4786768.311566927),3350,36,065,026200,1400000US36065026200,36065026200,262,Census Tract 262,NY,Oneida County,New York,CT,82586606,1108720
325,STEUBEN,710490,Store,A,DOLGEN NEW YORK LLC,DOLLAR GENERAL #14692,75,S MAIN ST,,,PRATTSBURGH,NY,14873,8000,POINT (311972.8005500623 4709859.33481857),2671,36,101,960200,1400000US36101960200,36101960200,9602,Census Tract 9602,NY,Steuben County,New York,CT,253125463,286126
326,ERIE,710054,Store,A,DOLGEN NEW YORK LLC,DOLLAR GENERAL #8338,25,GARDENVILLE PKWY,,,W SENECA,NY,14224,9000,POINT (193234.911238306 4752647.10393761),401,36,029,010808,1400000US36029010808,36029010808,108.08,Census Tract 108.08,NY,Erie County,New York,CT,3229203,0
327,DUTCHESS,709396,Store,A,DOLGEN NEW YORK LLC,DOLLAR GENERAL #14980,534,MAIN ST,,,POUGHKEEPSIE,NY,12601,0,POINT (590102.6002782468 4617054.786305989),891,36,027,221100,1400000US36027221100,36027221100,2211,Census Tract 2211,NY,Dutchess County,New York,CT,847676,0
328,ONEIDA,709395,Store,A,DOLGEN NEW YORK LLC,DOLLAR GENERAL #14421,1700,ERIE ST,,,UTICA,NY,13502,0,POINT (479194.1545232523 4773056.36287908),1129,36,065,021402,1400000US36065021402,36065021402,214.02,Census Tract 214.02,NY,Oneida County,New York,CT,766655,0
329,ERIE,709110,Store,A,DOLGEN NEW YORK LLC,DOLLAR GENERAL #14652,1618,MAIN ST,,,BUFFALO,NY,14209,0,POINT (184709.0461050241 4758896.528354465),2699,36,029,016900,1400000US36029016900,36029016900,169,Census Tract 169,NY,Erie County,New York,CT,900018,0
330,NIAGARA,709067,Store,A,DOLGEN NEW YORK LLC,DOLLAR GENERAL #14797,686,LAKE ST RT 425,,,WILSON,NY,14172,9200,POINT (189704.3599072674 4800828.546499032),807,36,063,024301,1400000US36063024301,36063024301,243.01,Census Tract 243.01,NY,Niagara County,New York,CT,2105910,493375
331,SENECA,709066,Store,A,DOLGEN NEW YORK LLC,DOLLAR GENERAL #6429,2173,ROUTE 96A,,,OVID,NY,14521,0,POINT (350764.875764364 4726975.40453433),3729,36,099,950802,1400000US36099950802,36099950802,9508.02,Census Tract 9508.02,NY,Seneca County,New York,CT,178712104,70615278
332,ERIE,709063,Store,A,DOLGEN NEW YORK LLC,DOLLAR GENERAL #14802,10607,ERIE RD,,,FARNHAM,NY,14061,8704,POINT (164315.5462969709 4723807.869341201),3837,36,029,015600,1400000US36029015600,36029015600,156,Census Tract 156,NY,Erie County,New York,CT,62973620,314462
333,CATTARAUGUS,709062,Store,A,DOLGEN NEW YORK LLC,DOLLAR GENERAL #14922,24,NORTH 1ST STREET,,,ALLEGANY,NY,14706,2200,POINT (210636.5424759569 4666264.605777237),4374,36,009,961100,1400000US36009961100,36009961100,9611,Census Tract 9611,NY,Cattaraugus County,New York,CT,148273860,974609
334,OSWEGO,708998,Store,A,DOLGEN NEW YORK LLC,DOLLAR GENERAL #14586,3091,COUNTY ROUTE 26,,,PARISH,NY,13131,8500,POINT (409766.8903610731 4806303.999448714),4773,36,075,020502,1400000US36075020502,36075020502,205.02,Census Tract 205.02,NY,Oswego County,New York,CT,134398547,1077648
335,FULTON,708993,Store,A,DOLGEN NEW YORK LLC,DOLLAR GENERAL #14669,111,BELLEN RD,,,BROADALBIN,NY,12025,9000,POINT (564186.242794425 4766443.787838067),3385,36,035,970300,1400000US36035970300,36035970300,9703,Census Tract 9703,NY,Fulton County,New York,CT,53587989,5223685
336,WAYNE,708896,Store,A,DOLGEN NEW YORK LLC,DOLLAR GENERAL #14440,3838,WALWORTH MARION RD,,,MARION,NY,14505,10000,POINT (321342.6679136816 4779358.744110656),4911,36,117,020500,1400000US36117020500,36117020500,205,Census Tract 205,NY,Wayne County,New York,CT,75489208,266736
337,TOMPKINS,708891,Store,A,DOLGEN NEW YORK LLC,DOLLAR GENERAL #14064,169,NORTH ST,,,DRYDEN,NY,13053,0,POINT (393270.7636516873 4706371.81427782),4171,36,109,002000,1400000US36109002000,36109002000,20,Census Tract 20,NY,Tompkins County,New York,CT,55093990,586578
338,CLINTON,708232,Store,A,DOLGEN NEW YORK LLC,DOLLAR GENERAL #14201,4989,SOUTH CATHERINE ST,,,PLATTSBURGH,NY,12901,9339,POINT (622146.0575254295 4949524.460820116),1631,36,019,103100,1400000US36019103100,36019103100,1031,Census Tract 1031,NY,Clinton County,New York,CT,1063258,61360
339,ONTARIO,708231,Store,A,DOLGEN NEW YORK LLC,DOLLAR GENERAL #14405,194,NORTH EXCHANGE ST,,,GENEVA,NY,14456,0,POINT (338520.9665215843 4749713.629133296),1524,36,069,051700,1400000US36069051700,36069051700,517,Census Tract 517,NY,Ontario County,New York,CT,3686416,0
340,WYOMING,708209,Store,A,DOLGEN NEW YORK LLC,DOLLAR GENERAL #8085,80,SOUTH MAIN ST RT 19,,,WARSAW,NY,14569,6000,POINT (243594.6558503604 4736537.432605538),2677,36,121,970500,1400000US36121970500,36121970500,9705,Census Tract 9705,NY,Wyoming County,New York,CT,91725785,130550
341,SULLIVAN,707838,Store,A,DOLGEN NEW YORK LLC,DOLLAR GENERAL #14321,1334,ST RT 17B,,,WHITE LAKE,NY,12786,10000,POINT (515379.9020293981 4613741.395118457),3420,36,105,951900,1400000US36105951900,36105951900,9519,Census Tract 9519,NY,Sullivan County,New York,CT,69649455,1546326
342,ERIE,707428,Store,A,DOLGEN NEW YORK LLC,DOLLAR GENERAL #14742,437,TONAWANDA ST,,,BUFFALO,NY,14207,7500,POINT (181921.346141467 4761692.099544664),18,36,029,005900,1400000US36029005900,36029005900,59,Census Tract 59,NY,Erie County,New York,CT,1217883,297447
343,ULSTER,707426,Store,A,DOLGEN NEW YORK LLC,DOLLAR GENERAL #14176,1973,ULSTER AVE RT 9W,,,LAKE KATRINE,NY,12449,9300,POINT (583932.630383878 4649269.409717534),3807,36,111,951300,1400000US36111951300,36111951300,9513,Census Tract 9513,NY,Ulster County,New York,CT,17143631,2143979
344,ERIE,707425,Store,A,DOLGEN NEW YORK LLC,DOLLAR GENERAL #8362,804,WEHRLE DR,,,AMHERST,NY,14221,7300,POINT (193763.7321572619 4762094.370242512),4888,36,029,009504,1400000US36029009504,36029009504,95.04,Census Tract 95.04,NY,Erie County,New York,CT,2967097,0
345,RENSSELAER,704650,Store,A,DOLGEN NEW YORK LLC,DOLLAR GENERAL #13920,21428,ST ROUTE 22,,,HOOSICK FALLS,NY,12090,9340,POINT (633914.1105717829 4749939.312906805),2885,36,083,051701,1400000US36083051701,36083051701,517.01,Census Tract 517.01,NY,Rensselaer County,New York,CT,159118139,292505
346,ERIE,704163,Store,A,DOLGEN NEW YORK LLC,DOLLAR GENERAL #13797,7169,BOSTON ST RD,,,HAMBURG,NY,14075,4000,POINT (192119.314817809 4731910.681942671),2728,36,029,015202,1400000US36029015202,36029015202,152.02,Census Tract 152.02,NY,Erie County,New York,CT,44546968,0
347,SCHOHARIE,704152,Store,A,DOLGEN NEW YORK LLC,DOLLAR GENERAL #13422,4503,NY 30,,,MIDDLEBURGH,NY,12122,9200,POINT (554309.5559333969 4718021.692013741),4312,36,095,740700,1400000US36095740700,36095740700,7407,Census Tract 7407,NY,Schoharie County,New York,CT,201363200,466732
348,ULSTER,703903,Store,A,DOLGEN NEW YORK LLC,DOLLAR GENERAL #13782,1985,ROUTE 32,,,MODENA,NY,12548,7500,POINT (573824.5343274814 4612374.453841929),2889,36,111,954000,1400000US36111954000,36111954000,9540,Census Tract 9540,NY,Ulster County,New York,CT,42001615,660729
349,CHENANGO,703429,Store,A,DOLGEN NEW YORK LLC,DOLLAR GENERAL STORE # 13554,5013,SR 8,,,NEW BERLIN,NY,13411,0,POINT (472728.464659086 4720313.46171079),4129,36,017,970501,1400000US36017970501,36017970501,9705.01,Census Tract 9705.01,NY,Chenango County,New York,CT,110364978,129156
350,YATES,570125,Store,A,DOLGEN NEW YORK LLC,DOLLAR GENERAL #10301,16,SENECA ST,,,DUNDEE,NY,14837,8500,POINT (337716.3391932027 4709831.413496146),1758,36,123,150101,1400000US36123150101,36123150101,1501.01,Census Tract 1501.01,NY,Yates County,New York,CT,84315580,17735611
351,YATES,570107,Store,A,DOLGEN NEW YORK LLC,DOLLAR GENERAL 6948,252,LAKE ST PLAZA,,,PENN YAN,NY,14527,7400,POINT (331252.5849996628 4724390.390540289),3785,36,123,150501,1400000US36123150501,36123150501,1505.01,Census Tract 1505.01,NY,Yates County,New York,CT,25059592,34092
352,WYOMING,560080,Store,A,DOLGEN NEW YORK LLC,DOLLAR GENERAL 9726,201,S MAIN ST,,,PERRY,NY,14530,7000,POINT (253448.038597811 4733147.498916656),1808,36,121,970700,1400000US36121970700,36121970700,9707,Census Tract 9707,NY,Wyoming County,New York,CT,95778110,3665729
353,WESTCHESTER,552813,Store,A,DOLGEN NEW YORK LLC,DOLLAR GENERAL #12866,807,WASHINGTON ST,,,PEEKSKILL,NY,10566,9500,POINT (589872.9487289026 4570012.957475043),2363,36,119,014100,1400000US36119014100,36119014100,141,Census Tract 141,NY,Westchester County,New York,CT,3237002,2602749
354,WAYNE,540205,Store,A,DOLGEN NEW YORK LLC,DOLLAR GENERAL #11148,110,WAYNE AVE,,,CLYDE,NY,14433,7130,POINT (347942.0468489588 4772280.404334275),14,36,117,021800,1400000US36117021800,36117021800,218,Census Tract 218,NY,Wayne County,New York,CT,5693176,153212
355,WAYNE,540182,Store,A,DOLGEN NEW YORK LLC,DOLLAR GENERAL #10071,7269,RIDGE RD,,,SODUS,NY,14551,8000,POINT (334535.4040355345 4788386.012708848),1798,36,117,020900,1400000US36117020900,36117020900,209,Census Tract 209,NY,Wayne County,New York,CT,105844290,246311
356,WAYNE,540155,Store,A,DOLGEN NEW YORK LLC,DOLLAR GENERAL 6125,6010,NEW HARTFORD ST,,,WOLCOTT,NY,14590,0,POINT (352616.7163869212 4786797.062790838),5079,36,117,021502,1400000US36117021502,36117021502,215.02,Census Tract 215.02,NY,Wayne County,New York,CT,101139630,2333354
357,WAYNE,540140,Store,A,DOLGEN NEW YORK LLC,DOLLAR GENERAL 9109,3906,RT 104 PO BOX 181,,,WILLIAMSON,NY,14589,6100,POINT (321756.1544459617 4788983.194710938),3589,36,117,020402,1400000US36117020402,36117020402,204.02,Census Tract 204.02,NY,Wayne County,New York,CT,36862407,9553
358,WAYNE,540136,Store,A,DOLGEN NEW YORK LLC,DOLLAR GENERAL 8440,604,E MAIN ST,,,PALMYRA,NY,14522,6000,POINT (318963.7590330882 4770192.849839617),1797,36,117,020700,1400000US36117020700,36117020700,207,Census Tract 207,NY,Wayne County,New York,CT,5857740,0
359,WAYNE,540135,Store,A,DOLGEN NEW YORK LLC,DOLLAR GENERAL 8643,204,W MILLER ST,,,NEWARK,NY,14513,10000,POINT (329107.972072692 4768015.380542479),966,36,117,021100,1400000US36117021100,36117021100,211,Census Tract 211,NY,Wayne County,New York,CT,10987319,11970
360,WASHINGTON,530135,Store,A,DOLGEN NEW YORK LLC,DOLLAR GENERAL #10980,180,BROADWAY,,,WHITEHALL,NY,12887,3000,POINT (628759.3448988697 4822827.860194405),2260,36,115,082001,1400000US36115082001,36115082001,820.01,Census Tract 820.01,NY,Washington County,New York,CT,205648432,5195222
361,WASHINGTON,530126,Store,A,DOLGEN NEW YORK LLC,DOLLAR GENERAL #10882,1133,STATE RT 22,,,CAMBRIDGE,NY,12816,7000,POINT (632138.1134086815 4764167.219130103),3381,36,115,092000,1400000US36115092000,36115092000,920,Census Tract 920,NY,Washington County,New York,CT,124115622,137924
362,WASHINGTON,530085,Store,A,DOLGEN NEW YORK LLC,DOLLAR GENERAL 6184,87,QUAKER ST,,,GRANVILLE,NY,12832,3000,POINT (640338.0755653111 4806519.353755912),4544,36,115,084002,1400000US36115084002,36115084002,840.02,Census Tract 840.02,NY,Washington County,New York,CT,67246353,594659
363,WASHINGTON,530077,Store,A,DOLGEN NEW YORK LLC,DOLLAR GENERAL #9556,343,MAIN ST,,,HUDSON FALLS,NY,12839,5000,POINT (615277.9143443711 4796619.460094132),788,36,115,080200,1400000US36115080200,36115080200,802,Census Tract 802,NY,Washington County,New York,CT,1880301,0
364,ULSTER,510809,Store,A,DOLGEN NEW YORK LLC,DOLLAR GENERAL #12597,1155,RT 32,,,ROSENDALE,NY,12472,8000,POINT (576707.0049770758 4633417.07890356),2931,36,111,952700,1400000US36111952700,36111952700,9527,Census Tract 9527,NY,Ulster County,New York,CT,26519420,1147056
365,ULSTER,510776,Store,A,DOLGEN NEW YORK LLC,DOLLAR GENERAL #12050,130,BROADWAY US 9W,,,PORT EWEN,NY,12466,5000,POINT (584683.1318219558 4640266.522434633),4609,36,111,952500,1400000US36111952500,36111952500,9525,Census Tract 9525,NY,Ulster County,New York,CT,5177192,1691363
366,ULSTER,510571,Store,A,DOLGEN NEW YORK LLC,DOLLAR GENERAL # 7698,363,FOXHALL AVE,,,KINGSTON,NY,12401,5000,POINT (582868.2494924915 4643374.781131146),179,36,111,952000,1400000US36111952000,36111952000,9520,Census Tract 9520,NY,Ulster County,New York,CT,740496,0
367,ULSTER,510531,Store,A,DOLGEN NEW YORK LLC,DOLLAR GENERAL 5736,2,"RIVERVIEW DR, STE 4",,,MARLBORO,NY,12542,6000,POINT (586327.5209526548 4607651.969166531),2899,36,111,953800,1400000US36111953800,36111953800,9538,Census Tract 9538,NY,Ulster County,New York,CT,16213206,4633058
368,ULSTER,510500,Store,A,DOLGEN NEW YORK LLC,DOLLAR GENERAL #6514,3139,RT 9W,,,SAUGERTIES,NY,12477,7500,POINT (586494.0785777 4656692.994134968),4953,36,111,950300,1400000US36111950300,36111950300,9503,Census Tract 9503,NY,Ulster County,New York,CT,7113679,2318502
369,ULSTER,510493,Store,A,DOLGEN NEW YORK LLC,DOLLAR GENERAL STR 9531,114,S MAIN ST,,,ELLENVILLE,NY,12428,7000,POINT (550256.3584904397 4618466.601907315),2894,36,111,954800,1400000US36111954800,36111954800,9548,Census Tract 9548,NY,Ulster County,New York,CT,15882264,55886
370,TOMPKINS,500181,Store,A,DOLGEN NEW YORK LLC,DOLLAR GENERAL #10064,9814,RT 96,,,TRUMANSBURG,NY,14886,3000,POINT (362453.0726712977 4712074.200142111),2680,36,099,951000,1400000US36099951000,36099951000,9510,Census Tract 9510,NY,Seneca County,New York,CT,81287547,16045715
371,TIOGA,490078,Store,A,DOLGEN NEW YORK LLC,DOLLAR GENERAL # 10153,65,E RIVER RD,,,NICHOLS,NY,13812,0,POINT (386917.7976367364 4653025.631795802),4895,36,107,020600,1400000US36107020600,36107020600,206,Census Tract 206,NY,Tioga County,New York,CT,238874725,4512368
372,TIOGA,490064,Store,A,DOLGEN NEW YORK LLC,DOLLAR GENERAL 6065,575,BROAD ST,,,WAVERLY,NY,14892,0,POINT (373419.5262018581 4651179.444270687),5032,36,107,020703,1400000US36107020703,36107020703,207.03,Census Tract 207.03,NY,Tioga County,New York,CT,4210506,0
373,TIOGA,490056,Store,A,DOLGEN NEW YORK LLC,DOLLAR GENERAL 9051,1147,NYS RT 17C,,,OWEGO,NY,13827,3000,POINT (398170.3757069289 4661361.567148434),2252,36,107,020300,1400000US36107020300,36107020300,203,Census Tract 203,NY,Tioga County,New York,CT,130645770,1255418
374,SULLIVAN,480273,Store,A,DOLGEN NEW YORK LLC,DOLLAR GENERAL 6295,1860,ST RT 52,,,LIBERTY,NY,12754,2500,POINT (523818.9200738246 4625612.829772022),4693,36,105,950500,1400000US36105950500,36105950500,9505,Census Tract 9505,NY,Sullivan County,New York,CT,96038212,1184578
375,STEUBEN,460239,Store,A,DOLGEN NEW YORK LLC,DOLLAR GENERAL 7420,7078,STATE RTE 415,,,BATH,NY,14810,8700,POINT (307377.7260401173 4690643.182850889),3865,36,101,961100,1400000US36101961100,36101961100,9611,Census Tract 9611,NY,Steuben County,New York,CT,109797070,165306
376,STEUBEN,460207,Store,A,DOLGEN NEW YORK LLC,DOLLAR GENERAL #10186,187,MAIN ST,,,HORNELL,NY,14843,8000,POINT (280924.8021659873 4689436.440188324),2676,36,101,960900,1400000US36101960900,36101960900,9609,Census Tract 9609,NY,Steuben County,New York,CT,1403123,0
377,STEUBEN,460203,Store,A,DOLGEN NEW YORK LLC,DOLLAR GENERAL # 7505,7183,ST RT 54 STE 101,,,BATH,NY,14810,9100,POINT (309909.874559521 4691298.50654238),1573,36,101,961200,1400000US36101961200,36101961200,9612,Census Tract 9612,NY,Steuben County,New York,CT,6608541,0
378,STEUBEN,460181,Store,A,DOLGEN NEW YORK LLC,DOLLAR GENERAL 6795,82,VICTORY HWY,,,PAINTED POST,NY,14870,6600,POINT (326457.9614231522 4670825.256316579),1390,36,101,962302,1400000US36101962302,36101962302,9623.02,Census Tract 9623.02,NY,Steuben County,New York,CT,11666860,49288
379,STEUBEN,460164,Store,A,DOLGEN NEW YORK LLC,DOLLAR GENERAL 9732,303,N LACKAWANNA ST,,,WAYLAND,NY,14572,7100,POINT (287428.3191926476 4716741.977026832),2673,36,101,960400,1400000US36101960400,36101960400,9604,Census Tract 9604,NY,Steuben County,New York,CT,100353492,1530990
380,STEUBEN,460153,Store,A,DOLGEN NEW YORK LLC,DOLLAR GENERAL 9419,20,TUSCARORA ST,,,ADDISON,NY,14801,8500,POINT (315144.5589302762 4663712.188734667),1756,36,101,962200,1400000US36101962200,36101962200,9622,Census Tract 9622,NY,Steuben County,New York,CT,66161312,368524
381,STEUBEN,460131,Store,A,DOLGEN NEW YORK LLC,DOLLAR GENERAL 8446,54B,W MAIN ST,,,CANISTEO,NY,14823,6600,POINT (285051.0563365978 4683595.192598185),4611,36,101,961900,1400000US36101961900,36101961900,9619,Census Tract 9619,NY,Steuben County,New York,CT,140768140,24435
382,STEUBEN,460120,Store,A,DOLGEN NEW YORK LLC,DOLLAR GENERAL 8149,7451,SENECA RD N,,,HORNELL,NY,14843,8900,POINT (280428.0244899561 4693318.771794165),2674,36,101,960600,1400000US36101960600,36101960600,9606,Census Tract 9606,NY,Steuben County,New York,CT,112874616,560252
383,SENECA,450094,Store,A,DOLGEN NEW YORK LLC,DOLLAR GENERAL #6841,1328,WATERLOO GENEVA RD,,,WATERLOO,NY,13165,6900,POINT (346785.3182747646 4751773.203621311),2683,36,099,950600,1400000US36099950600,36099950600,9506,Census Tract 9506,NY,Seneca County,New York,CT,32772263,336343
384,SCHUYLER,440061,Store,A,DOLGEN NEW YORK LLC,DOLLAR GENERAL 6915,142,N CATHERINE ST,,,MONTOUR FALLS,NY,14865,0,POINT (347960.3483470171 4690276.70981747),4884,36,097,950500,1400000US36097950500,36097950500,9505,Census Tract 9505,NY,Schuyler County,New York,CT,184505223,1579047
385,SCHOHARIE,430064,Store,A,DOLGEN NEW YORK LLC,DOLLAR GENERAL 7491,813,E MAIN ST,,,COBLESKILL,NY,12043,4000,POINT (543155.6528816087 4725516.167381094),3341,36,095,740200,1400000US36095740200,36095740200,7402,Census Tract 7402,NY,Schoharie County,New York,CT,78698060,463379
386,SCHENECTADY,420277,Store,A,DOLGEN NEW YORK LLC,DOLLAR GENERAL #6270,154,SAGANDAGA RD,,,SCOTIA,NY,12302,7200,POINT (584117.1506530958 4742939.124190154),2249,36,093,032200,1400000US36093032200,36093032200,322,Census Tract 322,NY,Schenectady County,New York,CT,3438827,378715
387,SCHENECTADY,420203,Store,A,DOLGEN NEW YORK LLC,DOLLAR GENERAL 8895,1008,STATE ST,,,SCHENECTADY,NY,12307,6000,POINT (587542.6822461121 4739467.02759709),261,36,093,020900,1400000US36093020900,36093020900,209,Census Tract 209,NY,Schenectady County,New York,CT,737486,0
388,SARATOGA,410486,Store,A,DOLGEN NEW YORK LLC,DOLLAR GENERAL #12932,104,SARATOGA AVE,,,S GLENS FALLS,NY,12803,9000,POINT (610500.6189205148 4794068.013554902),1600,36,091,060200,1400000US36091060200,36091060200,602,Census Tract 602,NY,Saratoga County,New York,CT,3518293,341616
389,SARATOGA,410438,Store,A,DOLGEN NEW YORK LLC,DOLLAR GENERAL #11706,1,PRICE CHOPPER PLAZA,,,MECHANICVILLE,NY,12118,8900,POINT (607399.1326505656 4751673.772433748),2256,36,091,062200,1400000US36091062200,36091062200,622,Census Tract 622,NY,Saratoga County,New York,CT,1429179,204368
390,SARATOGA,410291,Store,A,DOLGEN NEW YORK LLC,DOLLAR GENERAL 6872,417,PALMER AVE,,,CORINTH,NY,12822,7000,POINT (595813.028069097 4788813.765987893),4205,36,091,060400,1400000US36091060400,36091060400,604,Census Tract 604,NY,Saratoga County,New York,CT,2762585,102299
391,SARATOGA,410206,Store,A,DOLGEN NEW YORK LLC,DOLLAR GENERAL 8576,772,SARATOGA RD,,,BURNT HILLS,NY,12027,1500,POINT (589566.7817515536 4750816.907010603),3307,36,091,061702,1400000US36091061702,36091061702,617.02,Census Tract 617.02,NY,Saratoga County,New York,CT,24664223,3242
392,ST. LAWRENCE,400309,Store,A,DOLGEN NEW YORK LLC,DOLLAR GENERAL #10656,124,W MAIN ST,,,GOVERNEUR,NY,13642,0,POINT (462146.6434590693 4909076.169810913),5034,36,089,492700,1400000US36089492700,36089492700,4927,Census Tract 4927,NY,St. Lawrence County,New York,CT,184410078,2824347
393,ST. LAWRENCE,400230,Store,A,DOLGEN NEW YORK LLC,DOLLAR GENERAL 6066,232,N MAIN ST,,,MASSENA,NY,13662,0,POINT (507875.2019279479 4976609.754785907),4588,36,089,490200,1400000US36089490200,36089490200,4902,Census Tract 4902,NY,St. Lawrence County,New York,CT,7799011,347101
394,ST. LAWRENCE,400215,Store,A,DOLGEN NEW YORK LLC,DOLLAR GENERAL 9559,2,MALBY AVE,,,MASSENA,NY,13662,9300,POINT (509726.2672437598 4974848.252653885),3347,36,089,490300,1400000US36089490300,36089490300,4903,Census Tract 4903,NY,St. Lawrence County,New York,CT,61612753,4026884
395,ST. LAWRENCE,400213,Store,A,DOLGEN NEW YORK LLC,DOLLAR GENERAL 9582,5933,NYS HWY 11,,,CANTON,NY,13617,6500,POINT (488485.8478516909 4938358.949080889),4152,36,089,492000,1400000US36089492000,36089492000,4920,Census Tract 4920,NY,St. Lawrence County,New York,CT,130945655,898144
396,ST. LAWRENCE,400212,Store,A,DOLGEN NEW YORK LLC,DOLLAR GENERAL 9558,7669,STATE HWY 68,,,OGDENSBURG,NY,13669,6161,POINT (462425.3227821618 4948548.016921846),3352,36,089,491700,1400000US36089491700,36089491700,4917,Census Tract 4917,NY,St. Lawrence County,New York,CT,169642767,14771516
397,OTSEGO,360170,Store,A,DOLGEN NEW YORK LLC,DOLLAR GENERAL #10942,188,E MAIN ST,,,RICHFIELD SPRINGS,NY,13439,8000,POINT (501543.7482093686 4744414.076502214),3782,36,077,590301,1400000US36077590301,36077590301,5903.01,Census Tract 5903.01,NY,Otsego County,New York,CT,79921675,4139033
398,OTSEGO,360161,Store,A,DOLGEN NEW YORK LLC,DOLLAR GENERAL #10652,76,CHESTNUT ST,,,ONEONTA,NY,13820,2500,POINT (494602.1581839646 4700241.59812125),3410,36,077,591100,1400000US36077591100,36077591100,5911,Census Tract 5911,NY,Otsego County,New York,CT,4220210,9943
399,OSWEGO,350252,Store,A,DOLGEN NEW YORK LLC,DOLLAR GENERAL #11152,952,CAYUGA ST,,,HANNIBAL,NY,13074,8000,POINT (372003.7626090381 4797485.242296891),222,36,075,021300,1400000US36075021300,36075021300,213,Census Tract 213,NY,Oswego County,New York,CT,115655205,443349
400,OSWEGO,350227,Store,A,DOLGEN NEW YORK LLC,DOLLAR GENERAL #10640,6124,N MAIN ST,,,SANDY CREEK,NY,13145,7000,POINT (412531.7713672747 4833296.127451947),322,36,075,020202,1400000US36075020202,36075020202,202.02,Census Tract 202.02,NY,Oswego County,New York,CT,6374602,7749
401,OSWEGO,350209,Store,A,DOLGEN NEW YORK LLC,DOLLAR GENERAL STR 6437,3391,MAIN ST,,,MEXICO,NY,13114,7400,POINT (399633.8010824939 4812614.410628636),3477,36,075,020400,1400000US36075020400,36075020400,204,Census Tract 204,NY,Oswego County,New York,CT,119842855,1855903
402,OSWEGO,350164,Store,A,DOLGEN NEW YORK LLC,DOLLAR GENERAL #6029,1573,STATE RT 49,,,CONSTANTIA,NY,13044,7100,POINT (417802.9951968265 4789242.447719434),4154,36,075,020600,1400000US36075020600,36075020600,206,Census Tract 206,NY,Oswego County,New York,CT,147023939,111128639
403,OSWEGO,350132,Store,A,DOLGEN NEW YORK LLC,DOLLAR GENERAL 8596,126,CAYUGA ST,,,FULTON,NY,13069,5700,POINT (385155.3867649141 4797772.364110783),3492,36,075,021101,1400000US36075021101,36075021101,211.01,Census Tract 211.01,NY,Oswego County,New York,CT,2637107,259417
404,OSWEGO,350124,Store,A,DOLGEN NEW YORK LLC,DOLLAR GENERAL 8443,4913,N JEFFERSON ST,,,PULASKI,NY,13142,8000,POINT (409046.2856103815 4824747.146941564),4497,36,075,020301,1400000US36075020301,36075020301,203.01,Census Tract 203.01,NY,Oswego County,New York,CT,9032161,265483
405,ORLEANS,340098,Store,A,DOLGEN NEW YORK LLC,DOLLAR GENERAL 5729,16684,RT 31,,,HOLLEY,NY,14470,7500,POINT (253150.0464640505 4790408.45870567),3856,36,073,040802,1400000US36073040802,36073040802,408.02,Census Tract 408.02,NY,Orleans County,New York,CT,80444171,102380
406,ORANGE,331387,Store,A,DOLGEN NEW YORK LLC,DOLLAR GENERAL #13753,16,RT 17K,,,NEWBURGH,NY,12550,7200,POINT (579151.0158517067 4595078.25866776),3432,36,071,010400,1400000US36071010400,36071010400,104,Census Tract 104,NY,Orange County,New York,CT,9450099,109436
407,ORANGE,331381,Store,A,DOLGEN NEW YORK LLC,DOLLAR GENERAL #13706,191,JERSEY AVE,,,PORT JERVIS,NY,12771,7200,POINT (526224.5274688225 4579447.497980661),4571,36,071,002200,1400000US36071002200,36071002200,22,Census Tract 22,NY,Orange County,New York,CT,1266294,34426
408,ORANGE,331374,Store,A,DOLGEN NEW YORK LLC,DOLLAR GENERAL #13496,280,RT 211 E,,,MIDDLETOWN,NY,10940,9043,POINT (550135.9288123872 4589373.676874392),3448,36,071,011200,1400000US36071011200,36071011200,112,Census Tract 112,NY,Orange County,New York,CT,9648286,57335
409,ORANGE,331344,Store,A,DOLGEN NEW YORK LLC,DOLLAR GENERAL #13281,436,BLOOMING GROVE TPK,,,NEW WINDSOR,NY,12553,0,POINT (580282.1370970228 4590822.560947222),4308,36,071,012800,1400000US36071012800,36071012800,128,Census Tract 128,NY,Orange County,New York,CT,5950276,3990356
410,ORANGE,331337,Store,A,DOLGEN NEW YORK LLC,DOLLAR GENERAL #13210,65,DOLSON AVE,,,MIDDLETOWN,NY,10940,9677,POINT (548273.8683072532 4587107.807765786),4731,36,071,001500,1400000US36071001500,36071001500,15,Census Tract 15,NY,Orange County,New York,CT,2935837,17085
411,ORANGE,331233,Store,A,DOLGEN NEW YORK LLC,DOLLAR GENERAL #12222,2,LAKES RD,,,MONROE,NY,10950,9500,POINT (567666.103446875 4575494.859736157),4208,36,071,014101,1400000US36071014101,36071014101,141.01,Census Tract 141.01,NY,Orange County,New York,CT,6074339,189671
412,ONTARIO,320247,Store,A,DOLGEN NEW YORK LLC,DOLLAR GENERAL #11107,86,S MAIN ST,,,MANCHESTER,NY,14504,7200,POINT (318010.4859585278 4759210.990801084),1196,36,069,050302,1400000US36069050302,36069050302,503.02,Census Tract 503.02,NY,Ontario County,New York,CT,19541074,0
413,ONTARIO,320243,Store,A,DOLGEN NEW YORK LLC,DOLLAR GENERAL ST 10552,187,STATE RT 21,,,NAPLES,NY,14512,8250,POINT (303520.1185273618 4721903.371376665),1834,36,069,052200,1400000US36069052200,36069052200,522,Census Tract 522,NY,Ontario County,New York,CT,102827942,174
414,ONTARIO,320187,Store,A,DOLGEN NEW YORK LLC,DOLLAR GENERAL STR 8308,74,WEST AVE,,,CANANDAIGUA,NY,14424,4000,POINT (313389.2985474205 4750848.07728206),2732,36,069,050800,1400000US36069050800,36069050800,508,Census Tract 508,NY,Ontario County,New York,CT,2989427,0
415,ONONDAGA,311271,Store,A,DOLGEN NEW YORK LLC,DOLLAR GENERAL 13168,606,BUTTERNUT ST,,,SYRACUSE,NY,13208,10000,POINT (406677.4854672726 4768091.224695344),1231,36,067,001500,1400000US36067001500,36067001500,15,Census Tract 15,NY,Onondaga County,New York,CT,511989,0
416,ONONDAGA,311181,Store,A,DOLGEN NEW YORK LLC,DOLLAR GENERAL #8840,7999,STATE ROUTE 31,,,BRIDGEPORT,NY,13030,6000,POINT (420790.7759909811 4778518.612436828),2389,36,067,010100,1400000US36067010100,36067010100,101,Census Tract 101,NY,Onondaga County,New York,CT,13012500,127225
417,ONONDAGA,310974,Store,A,DOLGEN NEW YORK LLC,DOLLAR GENERAL #10893,1160,STATE ROUTE 5,,,ELBRIDGE,NY,13060,7160,POINT (384024.422822102 4766080.637865384),3690,36,067,012000,1400000US36067012000,36067012000,120,Census Tract 120,NY,Onondaga County,New York,CT,97273813,1915949
418,ONONDAGA,310955,Store,A,DOLGEN NEW YORK LLC,DOLLAR GENERAL #11033,7031,MANLIUS CENTER RD,,,EAST SYRACUSE,NY,13057,3000,POINT (415696.0809018468 4768368.797117086),4541,36,067,015400,1400000US36067015400,36067015400,154,Census Tract 154,NY,Onondaga County,New York,CT,13758133,29268
419,ONONDAGA,310925,Store,A,DOLGEN NEW YORK LLC,DOLLAR GENERAL #11009,3535,JAMES ST,,,SYRACUSE,NY,13206,9300,POINT (410627.7849774513 4769157.758406154),4785,36,067,014400,1400000US36067014400,36067014400,144,Census Tract 144,NY,Onondaga County,New York,CT,16966984,0
420,ONONDAGA,310891,Store,A,DOLGEN NEW YORK LLC,DOLLAR GENERAL #10784,2512,RTE 11,,,LAFAYETTE,NY,13084,5000,POINT (409770.577422622 4749544.131381044),4328,36,067,015800,1400000US36067015800,36067015800,158,Census Tract 158,NY,Onondaga County,New York,CT,101719105,1027096
421,ONONDAGA,310819,Store,A,DOLGEN NEW YORK LLC,DOLLAR GENERAL #10325,602,OLD LIVERPOOL RD,,,LIVERPOOL,NY,13088,6400,POINT (403137.3357535914 4771519.645869716),4786,36,067,013701,1400000US36067013701,36067013701,137.01,Census Tract 137.01,NY,Onondaga County,New York,CT,3956049,3564937
422,ONONDAGA,310752,Store,A,DOLGEN NEW YORK LLC,DOLLAR GENERAL 6404,475,ST RT 281,,,TULLY,NY,13159,7100,POINT (408231.0856039615 4738578.331455313),3684,36,067,016901,1400000US36067016901,36067016901,169.01,Census Tract 169.01,NY,Onondaga County,New York,CT,67012616,1358725
423,ONONDAGA,310707,Store,A,DOLGEN NEW YORK LLC,DOLLAR GENERAL 9576,7252,STATE FAIR BLVD,,,SYRACUSE,NY,13209,5900,POINT (395370.5702517988 4775066.243332576),4784,36,067,011800,1400000US36067011800,36067011800,118,Census Tract 118,NY,Onondaga County,New York,CT,7781523,259382
424,ONONDAGA,310593,Store,A,DOLGEN NEW YORK LLC,DOLLAR GENERAL 7940,709-729,N MAIN ST #721,,,NORTH SYRACUSE,NY,13212,6516,POINT (408249.7556679727 4777432.283525378),844,36,067,010700,1400000US36067010700,36067010700,107,Census Tract 107,NY,Onondaga County,New York,CT,2342843,0
425,ONONDAGA,310592,Store,A,DOLGEN NEW YORK LLC,DOLLAR GENERAL 9030,6320,S SALINA ST,,,NEDROW,NY,13120,8250,POINT (406806.7691905666 4759117.756896948),868,36,067,016200,1400000US36067016200,36067016200,162,Census Tract 162,NY,Onondaga County,New York,CT,3889244,0
426,ONONDAGA,310585,Store,A,DOLGEN NEW YORK LLC,DOLLAR GENERAL 8991,2909,MILTON AVE,,,SOLVAY,NY,13209,6000,POINT (400144.8501308031 4768179.34409993),4324,36,067,013000,1400000US36067013000,36067013000,130,Census Tract 130,NY,Onondaga County,New York,CT,2389160,0
427,ONONDAGA,310526,Store,A,DOLGEN NEW YORK LLC,DOLLAR GENERAL 8537,5501,BARTELL RD,,,BREWERTON,NY,13029,12000,POINT (407734.4673355526 4787295.715308932),3620,36,067,010200,1400000US36067010200,36067010200,102,Census Tract 102,NY,Onondaga County,New York,CT,25298959,94133
428,ONEIDA,300731,Store,A,DOLGEN NEW YORK LLC,DOLLAR GENERAL #8903,13194,RT 12,,,BOONVILLE,NY,13309,8000,POINT (474179.6402030964 4813885.793153086),4302,36,065,024200,1400000US36065024200,36065024200,242,Census Tract 242,NY,Oneida County,New York,CT,186046509,1978970
429,ONEIDA,300577,Store,A,DOLGEN NEW YORK LLC,DOLLAR GENERAL #11111,103,W MAIN ST,,,WATERVILLE,NY,13480,16500,POINT (468960.7718026482 4753216.215637596),5321,36,065,025700,1400000US36065025700,36065025700,257,Census Tract 257,NY,Oneida County,New York,CT,79776708,464777
430,ONEIDA,300531,Store,A,DOLGEN NEW YORK LLC,DOLLAR GENERAL #10537,95,STATE ST E,,,SHERRILL,NY,13461,8630,POINT (451806.7242858415 4769274.930282244),4514,36,065,024800,1400000US36065024800,36065024800,248,Census Tract 248,NY,Oneida County,New York,CT,5986679,0
431,ONEIDA,300419,Store,A,DOLGEN NEW YORK LLC,DOLLAR GENERAL STR 9763,35,MAIN ST,,,CAMDEN,NY,13316,0,POINT (439375.2844374987 4798185.263977154),1713,36,065,024500,1400000US36065024500,36065024500,245,Census Tract 245,NY,Oneida County,New York,CT,139893779,363942
432,ONEIDA,300408,Store,A,DOLGEN NEW YORK LLC,DOLLAR GENERAL #6469,131,ORISKANY BLVD SUITE 7,,,WHITESBORO,NY,13492,6800,POINT (476094.2727662657 4774090.808934188),4947,36,065,023200,1400000US36065023200,36065023200,232,Census Tract 232,NY,Oneida County,New York,CT,8346395,4308
433,ONEIDA,300405,Store,A,DOLGEN NEW YORK LLC,DOLLAR GENERAL #6343,34,CHENANGO AVE,,,CLINTON,NY,13323,2000,POINT (469038.2520903182 4766351.122825059),4309,36,065,025002,1400000US36065025002,36065025002,250.02,Census Tract 250.02,NY,Oneida County,New York,CT,22334898,0
434,ONEIDA,300365,Store,A,DOLGEN NEW YORK LLC,DOLLAR GENERAL 9428,8220,TURIN RD,,,ROME,NY,13440,6000,POINT (462561.4959154148 4789491.374121297),3360,36,065,022702,1400000US36065022702,36065022702,227.02,Census Tract 227.02,NY,Oneida County,New York,CT,68088737,637558
435,ONEIDA,300353,Store,A,DOLGEN NEW YORK LLC,DOLLAR GENERAL 9112,4464,PETERBORO ST S,,,VERNON,NY,13476,7800,POINT (456135.8342871444 4769751.368202363),2352,36,065,024900,1400000US36065024900,36065024900,249,Census Tract 249,NY,Oneida County,New York,CT,97970866,28029
436,ONEIDA,300321,Store,A,DOLGEN NEW YORK LLC,DOLLAR GENERAL 8559,801,BLACK RIVER BLVD N,,,ROME,NY,13440,7989,POINT (463609.7978019321 4785303.222060452),243,36,065,022200,1400000US36065022200,36065022200,222,Census Tract 222,NY,Oneida County,New York,CT,1564814,0
437,ONEIDA,300315,Store,A,DOLGEN NEW YORK LLC,DOLLAR GENERAL 8493,1,NEW HARTFORD SHOPPING CTR,STE F4,,NEW HARTFORD,NY,13413,7300,POINT (475920.5201014264 4769266.878048563),4656,36,065,025100,1400000US36065025100,36065025100,251,Census Tract 251,NY,Oneida County,New York,CT,1603840,0
438,NIAGARA,290552,Store,A,DOLGEN NEW YORK LLC,DOLLAR GENERAL #8306,384,TWIN CITY MEMORIAL HWY,,,NORTH TONAWANDA,NY,14120,9000,POINT (185379.9246587356 4771830.961239254),3560,36,063,023100,1400000US36063023100,36063023100,231,Census Tract 231,NY,Niagara County,New York,CT,1110687,51577
439,NIAGARA,290547,Store,A,DOLGEN NEW YORK LLC,DOLLAR GENERAL 12623,1385,NASH RD,,,NORTH TONAWANDA,NY,14120,10000,POINT (185314.9142648209 4774829.994452435),303,36,063,022803,1400000US36063022803,36063022803,228.03,Census Tract 228.03,NY,Niagara County,New York,CT,2278114,0
440,NIAGARA,290428,Store,A,DOLGEN NEW YORK LLC,DOLLAR GENERAL STR#8360,6181,MCKEE ST,,,NEWFANE,NY,14108,9100,POINT (199896.408008848 4798181.404208833),4521,36,063,024201,1400000US36063024201,36063024201,242.01,Census Tract 242.01,NY,Niagara County,New York,CT,74609168,0
441,NIAGARA,290362,Store,A,DOLGEN NEW YORK LLC,DOLLAR GENERAL 6717,8735,NIAGARA FALLS BLVD,,,NIAGARA FALLS,NY,14304,8500,POINT (177500.4806011957 4778579.628306358),206,36,063,022300,1400000US36063022300,36063022300,223,Census Tract 223,NY,Niagara County,New York,CT,1272654,0
442,NIAGARA,290358,Store,A,DOLGEN NEW YORK LLC,DOLLAR GENERAL 6955,4015,LAKE AVE,,,LOCKPORT,NY,14094,7000,POINT (201405.4715046919 4791598.662297943),3554,36,063,023401,1400000US36063023401,36063023401,234.01,Census Tract 234.01,NY,Niagara County,New York,CT,57430586,80995
443,NIAGARA,290334,Store,A,DOLGEN NEW YORK LLC,DOLLAR GENERAL 6050,8405,ROCHESTER RD,,,GASPORT,NY,14067,2000,POINT (209685.5159228362 4788779.395427673),4335,36,063,024001,1400000US36063024001,36063024001,240.01,Census Tract 240.01,NY,Niagara County,New York,CT,179317661,804615
444,NIAGARA,290279,Store,A,DOLGEN NEW YORK LLC,DOLLAR GENERAL 8183,5921,S TRANSIT RD,,,LOCKPORT,NY,14094,3000,POINT (199487.02844719 4782480.841087149),3554,36,063,023401,1400000US36063023401,36063023401,234.01,Census Tract 234.01,NY,Niagara County,New York,CT,57430586,80995
445,NIAGARA,290278,Store,A,DOLGEN NEW YORK LLC,DOLLAR GENERAL 8417,1802,PINE AVE,,,NIAGARA FALLS,NY,14301,7980,POINT (171212.5988790156 4779583.78182724),805,36,063,020900,1400000US36063020900,36063020900,209,Census Tract 209,NY,Niagara County,New York,CT,723849,0
446,NIAGARA,290275,Store,A,DOLGEN NEW YORK LLC,DOLLAR GENERAL 8370,735,CENTER ST,,,LEWISTON,NY,14092,5500,POINT (171779.6972009598 4787813.895309929),5035,36,063,024401,1400000US36063024401,36063024401,244.01,Census Tract 244.01,NY,Niagara County,New York,CT,2840234,360474
447,NIAGARA,290273,Store,A,DOLGEN NEW YORK LLC,DOLLAR GENERAL 8333,1201,LINCOLN AVE,,,LOCKPORT,NY,14094,5800,POINT (201997.6645383863 4784430.322819673),2238,36,063,023902,1400000US36063023902,36063023902,239.02,Census Tract 239.02,NY,Niagara County,New York,CT,3452062,0
448,MONTGOMERY,270123,Store,A,DOLGEN NEW YORK LLC,DOLLAR GENERAL #7422,41,W MAIN ST,,,FONDA,NY,12068,6556,POINT (550760.7919746201 4755900.130526182),3475,36,057,072200,1400000US36057072200,36057072200,722,Census Tract 722,NY,Montgomery County,New York,CT,89823021,1845430
449,MONTGOMERY,270086,Store,A,DOLGEN NEW YORK LLC,DOLLAR GENERAL 9357,140,GUY PARK AVE,,,AMSTERDAM,NY,12010,10000,POINT (565404.1675018971 4754869.379568722),3715,36,057,070200,1400000US36057070200,36057070200,702,Census Tract 702,NY,Montgomery County,New York,CT,4263700,471984
450,MONROE,261716,Store,A,DOLGEN NEW YORK LLC,DOLLAR GENERAL #10927,1315,CHILI AVE,,,ROCHESTER,NY,14624,5000,POINT (282778.6820672996 4779606.098302118),4903,36,055,014400,1400000US36055014400,36055014400,144,Census Tract 144,NY,Monroe County,New York,CT,8862089,48116
451,MONROE,261619,Store,A,DOLGEN NEW YORK LLC,DOLLAR GENERAL #5730,7135,W BUFFALO RD,,,CHURCHVILLE,NY,14428,0,POINT (264094.8549371315 4776040.457352655),1777,36,055,015000,1400000US36055015000,36055015000,150,Census Tract 150,NY,Monroe County,New York,CT,90548786,689230
452,MONROE,261610,Store,A,DOLGEN NEW YORK LLC,DOLLAR GENERAL #9897,5103,RIDGE RD W,,,SPENCERPORT,NY,14559,0,POINT (272595.4668057439 4788736.764297371),1782,36,055,014802,1400000US36055014802,36055014802,148.02,Census Tract 148.02,NY,Monroe County,New York,CT,66899350,0
453,MONROE,261312,Store,A,DOLGEN NEW YORK LLC,DOLLAR GENERAL STR 9355,1816,LAKE RD,,,HAMLIN,NY,14464,0,POINT (263140.4611860162 4797335.433461046),4902,36,055,015101,1400000US36055015101,36055015101,151.01,Census Tract 151.01,NY,Monroe County,New York,CT,52362502,1639036
454,MONROE,261285,Store,A,DOLGEN NEW YORK LLC,DOLLAR GENERAL 6386,50,MAIN ST,,,BROCKPORT,NY,14420,0,POINT (261304.0877612476 4788957.285603893),4043,36,055,015304,1400000US36055015304,36055015304,153.04,Census Tract 153.04,NY,Monroe County,New York,CT,4852228,144675
455,MONROE,261222,Store,A,DOLGEN NEW YORK LLC,DOLLAR GENERAL 9742,3892,SCOTTSVILLE RD,,,SCOTTSVILLE,NY,14546,7100,POINT (276596.7373333928 4767682.974376674),4224,36,055,014700,1400000US36055014700,36055014700,147,Census Tract 147,NY,Monroe County,New York,CT,78763778,676603
456,MONROE,261180,Store,A,DOLGEN NEW YORK LLC,DOLLAR GENERAL 7434,2873,DEWEY AVE,,,GREECE,NY,14616,6468,POINT (285448.9422829655 4788871.84628523),3858,36,055,013901,1400000US36055013901,36055013901,139.01,Census Tract 139.01,NY,Monroe County,New York,CT,2258111,0
457,MONROE,261161,Store,A,DOLGEN NEW YORK LLC,DOLLAR GENERAL 9079,1900,S CLINTON AVE,,,ROCHESTER,NY,14618,2500,POINT (288917.3904368859 4777518.624548392),434,36,055,012900,1400000US36055012900,36055012900,129,Census Tract 129,NY,Monroe County,New York,CT,4394069,5620
458,MONROE,261144,Store,A,DOLGEN NEW YORK LLC,DOLLAR GENERAL 9233,453,W COMMERCIAL ST,,,EAST ROCHESTER,NY,14445,7000,POINT (296951.1152849406 4776792.841974822),3860,36,055,012100,1400000US36055012100,36055012100,121,Census Tract 121,NY,Monroe County,New York,CT,2202703,0
459,MONROE,261110,Store,A,DOLGEN NEW YORK LLC,DOLLAR GENERAL 8814,525,TITUS AVE,,,IRONDEQUOIT,NY,14617,8000,POINT (288380.4078266353 4787127.041103086),2770,36,055,010400,1400000US36055010400,36055010400,104,Census Tract 104,NY,Monroe County,New York,CT,2364892,0
460,MONROE,261037,Store,A,DOLGEN NEW YORK LLC,DOLLAR GENERAL 8558,822,LAKE AVE,,,ROCHESTER,NY,14613,8600,POINT (286170.9640141018 4784178.38646515),1520,36,055,002300,1400000US36055002300,36055002300,23,Census Tract 23,NY,Monroe County,New York,CT,1131240,82079
461,MONROE,260979,Store,A,DOLGEN NEW YORK LLC,DOLLAR GENERAL 8211,3240,CHILI AVE,,,ROCHESTER,NY,14624,1000,POINT (276055.5219020753 4776091.899398573),2423,36,055,014601,1400000US36055014601,36055014601,146.01,Census Tract 146.01,NY,Monroe County,New York,CT,26334540,114145
462,MADISON,250107,Store,A,DOLGEN NEW YORK LLC,DOLLAR GENERAL #10521,300,TUSCARORA RD,,,CHITTENANGO,NY,13037,5000,POINT (429272.9276939961 4767228.231631337),2300,36,053,030401,1400000US36053030401,36053030401,304.01,Census Tract 304.01,NY,Madison County,New York,CT,8864610,10324
463,MADISON,250094,Store,A,DOLGEN NEW YORK LLC,DOLLAR GENERAL #6958,113,UTICA ST,,,HAMILTON,NY,13346,7000,POINT (455020.274697002 4742442.564930229),2298,36,053,030900,1400000US36053030900,36053030900,309,Census Tract 309,NY,Madison County,New York,CT,10589411,93115
464,MADISON,250084,Store,A,DOLGEN NEW YORK LLC,DOLLAR GENERAL STR 9723,431,N MAIN ST,,,ONEIDA,NY,13421,5000,POINT (446326.1639626699 4772469.821807212),4427,36,053,030102,1400000US36053030102,36053030102,301.02,Census Tract 301.02,NY,Madison County,New York,CT,6232906,0
465,MADISON,250066,Store,A,DOLGEN NEW YORK LLC,DOLLAR GENERAL 8656,419,S PETERBORO ST,,,CANASTOTA,NY,13032,7950,POINT (438714.7760133761 4768935.91829583),2299,36,053,030300,1400000US36053030300,36053030300,303,Census Tract 303,NY,Madison County,New York,CT,14494802,13771
466,LIVINGSTON,240174,Store,A,DOLGEN NEW YORK LLC,DOLLAR GENERAL #6160,3707,RETSOF RD,,,RETSOF,NY,14533,7150,POINT (264479.2351647747 4745970.501875143),1771,36,051,030201,1400000US36051030201,36051030201,302.01,Census Tract 302.01,NY,Livingston County,New York,CT,160206066,31218
467,LIVINGSTON,240140,Store,A,DOLGEN NEW YORK LLC,DOLLAR GENERAL #6318,3337,CALEDONIA-AVON RD,,,CALEDONIA,NY,14423,8300,POINT (268204.8499002617 4760827.969812734),2751,36,051,030100,1400000US36051030100,36051030100,301,Census Tract 301,NY,Livingston County,New York,CT,113634935,650302
468,LIVINGSTON,240136,Store,A,DOLGEN NEW YORK LLC,DOLLAR GENERAL ST# 5897,1464,ROCHESTER ST,,,LIMA,NY,14485,8100,POINT (286800.5147370741 4755348.184510835),4898,36,051,030600,1400000US36051030600,36051030600,306,Census Tract 306,NY,Livingston County,New York,CT,82596677,137228
469,LIVINGSTON,240120,Store,A,DOLGEN NEW YORK LLC,DOLLAR GENERAL 6959,7,MAIN ST,,,LIVONIA,NY,14487,8200,POINT (281659.7640071642 4744566.461055444),930,36,051,030702,1400000US36051030702,36051030702,307.02,Census Tract 307.02,NY,Livingston County,New York,CT,37138512,6113709
470,LIVINGSTON,240116,Store,A,DOLGEN NEW YORK LLC,DOLLAR GENERAL 6456,116,N MAIN ST,,,MOUNT MORRIS,NY,14510,7000,POINT (264303.9481285071 4735557.524259605),1554,36,051,030900,1400000US36051030900,36051030900,309,Census Tract 309,NY,Livingston County,New York,CT,5303317,0
471,LIVINGSTON,240115,Store,A,DOLGEN NEW YORK LLC,DOLLAR GENERAL 6217,27,OSSIAN STREET,,,DANSVILLE,NY,14437,7800,POINT (278404.5171432442 4715491.688160799),4721,36,051,031400,1400000US36051031400,36051031400,314,Census Tract 314,NY,Livingston County,New York,CT,6199428,0
472,LIVINGSTON,240087,Store,A,DOLGEN NEW YORK LLC,DOLLAR GENERAL 8393,9033,ST RT 408,,,NUNDA,NY,14517,7200,POINT (258844.3774980337 4719400.03115574),4280,36,051,031200,1400000US36051031200,36051031200,312,Census Tract 312,NY,Livingston County,New York,CT,164445832,680153
473,LIVINGSTON,240076,Store,A,DOLGEN NEW YORK LLC,DOLLAR GENERAL 8191,275,E MAIN ST  STE 1,,,AVON,NY,14414,8000,POINT (276767.2044457622 4754272.307772104),897,36,051,030300,1400000US36051030300,36051030300,303,Census Tract 303,NY,Livingston County,New York,CT,8148997,0
474,LEWIS,230085,Store,A,DOLGEN NEW YORK LLC,DOLLAR GENERAL #11550,6804,MCALPINE ST,,,LYONS FALLS,NY,13368,3000,POINT (470383.0362451775 4829595.394192133),4344,36,049,950700,1400000US36049950700,36049950700,9507,Census Tract 9507,NY,Lewis County,New York,CT,961691870,3743715
475,LEWIS,230078,Store,A,DOLGEN NEW YORK LLC,DOLLAR GENERAL #11150,7623,N STATE ST,,,LOWVILLE,NY,13367,7530,POINT (460333.5832323603 4848348.22590751),2561,36,049,950302,1400000US36049950302,36049950302,9503.02,Census Tract 9503.02,NY,Lewis County,New York,CT,321420783,1403432
476,JEFFERSON,220347,Store,A,DOLGEN NEW YORK LLC,DOLLAR GENERAL #9496,144,EASTERN BLVD STE 14,,,WATERTOWN,NY,13601,10300,POINT (429520.639266344 4868777.381397041),2189,36,045,061200,1400000US36045061200,36045061200,612,Census Tract 612,NY,Jefferson County,New York,CT,2286196,551010
477,JEFFERSON,220342,Store,A,DOLGEN NEW YORK LLC,DOLLAR GENERAL #12614,22075,STATE RT 11,,,WATERTOWN,NY,13601,6000,POINT (427470.2629747415 4871665.138486788),4790,36,045,060500,1400000US36045060500,36045060500,605,Census Tract 605,NY,Jefferson County,New York,CT,222628993,5211796
478,JEFFERSON,220313,Store,A,DOLGEN NEW YORK LLC,DOLLAR GENERAL #11222,12644,ST RT 12,,,CHAUMONT,NY,13622,8000,POINT (418467.6729467929 4884289.887758801),3787,36,045,060401,1400000US36045060401,36045060401,604.01,Census Tract 604.01,NY,Jefferson County,New York,CT,140000840,3957381
479,JEFFERSON,220251,Store,A,DOLGEN NEW YORK LLC,DOLLAR GENERAL #6904,28525,NY STATE RT 3,,,BLACK RIVER,NY,13612,6936,POINT (435881.8126054759 4872888.93126376),936,36,045,061102,1400000US36045061102,36045061102,611.02,Census Tract 611.02,NY,Jefferson County,New York,CT,32839141,692534
480,JEFFERSON,220229,Store,A,DOLGEN NEW YORK LLC,DOLLAR GENERAL 6375,10757,US RT 11,,,ADAMS,NY,13605,8500,POINT (417806.006248033 4852820.015154901),4847,36,045,061801,1400000US36045061801,36045061801,618.01,Census Tract 618.01,NY,Jefferson County,New York,CT,119082451,43831
481,JEFFERSON,220169,Store,A,DOLGEN NEW YORK LLC,DOLLAR GENERAL 9086,2,S MAIN ST PO BOX 28,,,PHILADELPHIA,NY,13673,7500,POINT (443270.7865590893 4888382.119203581),309,36,045,060601,1400000US36045060601,36045060601,606.01,Census Tract 606.01,NY,Jefferson County,New York,CT,120882084,74520
482,JEFFERSON,220153,Store,A,DOLGEN NEW YORK LLC,DOLLAR GENERAL 8700,700,WEST END AVE,,,CARTHAGE,NY,13619,8000,POINT (450343.1521404609 4870540.389062006),4943,36,045,060902,1400000US36045060902,36045060902,609.02,Census Tract 609.02,NY,Jefferson County,New York,CT,18426311,1369290
483,JEFFERSON,220152,Store,A,DOLGEN NEW YORK LLC,DOLLAR GENERAL 8676,1222,ARSENAL ST,,,WATERTOWN,NY,13601,6000,POINT (424267.0849333884 4869883.302355568),2190,36,045,061500,1400000US36045061500,36045061500,615,Census Tract 615,NY,Jefferson County,New York,CT,6070159,97739
484,HERKIMER,210131,Store,A,DOLGEN NEW YORK LLC,DOLLAR GENERAL #11102,1,STEWART ST,,,DOLGEVILLE,NY,13329,0,POINT (517819.5318440073 4771247.279459284),733,36,043,011001,1400000US36043011001,36043011001,110.01,Census Tract 110.01,NY,Herkimer County,New York,CT,3932474,42974
485,HERKIMER,210083,Store,A,DOLGEN NEW YORK LLC,DOLLAR GENERAL 9098,110,E STATE ST,,,HERKIMER,NY,13350,5000,POINT (501235.319523124 4763648.793804362),4304,36,043,011100,1400000US36043011100,36043011100,111,Census Tract 111,NY,Herkimer County,New York,CT,2228218,230517
486,HERKIMER,210070,Store,A,DOLGEN NEW YORK LLC,DOLLAR GENERAL 8373,522,ALBANY ST,,,LITTLE FALLS,NY,13365,6000,POINT (511510.3492706572 4765517.404880987),2338,36,043,010702,1400000US36043010702,36043010702,107.02,Census Tract 107.02,NY,Herkimer County,New York,CT,5239706,345853
487,GREENE,190140,Store,A,DOLGEN NEW YORK LLC,DOLLAR GENERAL #10430,4,COUNTRY ESTATES RD,,,GREENVILLE,NY,12083,7100,POINT (580780.1601638217 4697454.75093649),730,36,039,080201,1400000US36039080201,36039080201,802.01,Census Tract 802.01,NY,Greene County,New York,CT,100460849,766062
488,GREENE,190121,Store,A,DOLGEN NEW YORK LLC,DOLLAR GENERAL 6540,11776,RT 9W,,,COXSACKIE,NY,12051,9000,POINT (596034.210823896 4690336.166456151),4294,36,039,080600,1400000US36039080600,36039080600,806,Census Tract 806,NY,Greene County,New York,CT,85535951,2597572
489,GENESEE,180147,Store,A,DOLGEN NEW YORK LLC,DOLLAR GENERAL #10405,11281,ALEXANDER RD,,,ATTICA,NY,14011,8000,POINT (231845.591091976 4751662.863550539),4870,36,037,951400,1400000US36037951400,36037951400,9514,Census Tract 9514,NY,Genesee County,New York,CT,214550652,816869
490,GENESEE,180107,Store,A,DOLGEN NEW YORK LLC,DOLLAR GENERAL #6107,3,WEST AVE,,,LEROY,NY,14482,6000,POINT (255104.8054591693 4762885.711103218),5259,36,037,951200,1400000US36037951200,36037951200,9512,Census Tract 9512,NY,Genesee County,New York,CT,16870319,78111
491,GENESEE,180086,Store,A,DOLGEN NEW YORK LLC,DOLLAR GENERAL 8105,412,E MAIN ST,,,BATAVIA,NY,14020,4000,POINT (241158.996645788 4765210.505141101),30,36,037,951000,1400000US36037951000,36037951000,9510,Census Tract 9510,NY,Genesee County,New York,CT,2965234,209531
492,FULTON,170123,Store,A,DOLGEN NEW YORK LLC,DOLLAR GENERAL #10752,37,ARTERIAL PLAZA,,,GLOVERSVILLE,NY,12078,6000,POINT (554940.5011519931 4767471.965679867),4856,36,035,970601,1400000US36035970601,36035970601,9706.01,Census Tract 9706.01,NY,Fulton County,New York,CT,66158891,438439
493,FULTON,170121,Store,A,DOLGEN NEW YORK LLC,DOLLAR GENERAL #10237,372,N MAIN ST,,,GLOVERSVILLE,NY,12078,8500,POINT (553715.7746702096 4768048.047130314),1195,36,035,971100,1400000US36035971100,36035971100,9711,Census Tract 9711,NY,Fulton County,New York,CT,1382762,0
494,FRANKLIN,160129,Store,A,DOLGEN NEW YORK LLC,DOLLAR GENERAL #7325,3321,STATE RT 11,,,MALONE,NY,12953,8400,POINT (553814.8461100616 4966293.002111888),2419,36,033,950502,1400000US36033950502,36033950502,9505.02,Census Tract 9505.02,NY,Franklin County,New York,CT,114073486,1379600
495,FRANKLIN,160114,Store,A,DOLGENCORP OF NEW YORK INC,DOLLAR GENERAL 6014,16,"DEMARS BLVD, STE 5",,,TUPPER LAKE,NY,12986,0,POINT (542931.634902872 4897261.768586033),3450,36,033,951100,1400000US36033951100,36033951100,9511,Census Tract 9511,NY,Franklin County,New York,CT,184989012,21201815
496,ESSEX,150209,Store,A,DOLGEN NEW YORK LLC,DOLLAR GENERAL #18555,4375,MAIN ST,,,PORT HENRY,NY,12974,7232,POINT (623539.8802870577 4878813.582017158),3796,36,031,961002,1400000US36031961002,36031961002,9610.02,Census Tract 9610.02,NY,Essex County,New York,CT,58858955,15910765
497,ESSEX,150197,Store,A,DOLGEN NEW YORK LLC,DOLLAR GENERAL #10970,925,US RT 9,,,SCHROON LAKE,NY,12870,7100,POINT (598716.4257186693 4853650.465057209),1217,36,031,961300,1400000US36031961300,36031961300,9613,Census Tract 9613,NY,Essex County,New York,CT,343635540,22600340
498,ERIE,143008,Store,A,DOLGEN NEW YORK LLC,DOLLAR GENERAL #13366,2137,SENECA ST,,,BUFFALO,NY,14210,9300,POINT (188835.1765239927 4751624.139340799),4501,36,029,001000,1400000US36029001000,36029001000,10,Census Tract 10,NY,Erie County,New York,CT,2059348,29431
499,ERIE,142938,Store,A,DOLGEN NEW YORK LLC,DOLLAR GENERAL # 11797,3170,DELAWARE AVE,,,BUFFALO,NY,14217,0,POINT (184298.6519587096 4764793.995612165),1826,36,029,008700,1400000US36029008700,36029008700,87,Census Tract 87,NY,Erie County,New York,CT,1086552,0
500,ERIE,142934,Store,A,DOLGEN NEW YORK LLC,DOLLAR GENERAL #13305,2750,HARLEM RD,,,CHEEKTOWAGA,NY,14225,11500,POINT (191117.3781714995 4758729.285881451),20,36,029,010500,1400000US36029010500,36029010500,105,Census Tract 105,NY,Erie County,New York,CT,1065665,0
501,ERIE,142913,Store,A,DOLGEN NEW YORK LLC,DOLLAR GENERAL 12975,1055,GENESEE ST,,,BUFFALO,NY,14211,11000,POINT (186560.9907147028 4757121.901236233),4802,36,029,002703,1400000US36029002703,36029002703,27.03,Census Tract 27.03,NY,Erie County,New York,CT,408064,0
502,ERIE,142818,Store,A,DOLGEN NEW YORK LLC,DOLLAR GENERAL #9052,4190,UNION RD,,,CHEEKTOWAGA,NY,14225,10000,POINT (193626.1814945148 4759762.555740905),5256,36,029,010102,1400000US36029010102,36029010102,101.02,Census Tract 101.02,NY,Erie County,New York,CT,2216540,0
503,ERIE,142489,Store,A,DOLGEN NEW YORK LLC,DOLLAR GENERAL #8207,1833,ELMWOOD AVE,,,BUFFALO,NY,14207,0,POINT (183615.4510914168 4762223.995110637),4502,36,029,005000,1400000US36029005000,36029005000,50,Census Tract 50,NY,Erie County,New York,CT,1296226,0
504,ERIE,142203,Store,A,DOLGEN NEW YORK LLC,DOLLAR GENERAL #10547,4257,LAKE AVE,,,BLASDELL,NY,14219,0,POINT (187585.8944013415 4745311.204453434),3750,36,029,012904,1400000US36029012904,36029012904,129.04,Census Tract 129.04,NY,Erie County,New York,CT,5118114,0
505,ERIE,142146,Store,A,DOLGEN NEW YORK LLC,DOLLAR GENERAL #8363,13475,BROADWAY,,,ALDEN,NY,14004,8000,POINT (215469.847907144 4755602.82034252),3838,36,029,014901,1400000US36029014901,36029014901,149.01,Census Tract 149.01,NY,Erie County,New York,CT,7040219,0
506,ERIE,142119,Store,A,DOLGEN NEW YORK LLC,DOLLAR GENERAL #10433,2920,WILLIAM ST,,,CHEEKTOWAGA,NY,14227,5000,POINT (192710.7571447672 4754804.283446371),4511,36,029,010902,1400000US36029010902,36029010902,109.02,Census Tract 109.02,NY,Erie County,New York,CT,4101862,0
507,ERIE,142033,Store,A,DOLGEN NEW YORK LLC,DOLLAR GENERAL #10256,12968,MAIN RD,,,AKRON,NY,14001,1500,POINT (214372.6209453482 4766588.36814864),2532,36,029,014804,1400000US36029014804,36029014804,148.04,Census Tract 148.04,NY,Erie County,New York,CT,68369788,515713
508,ERIE,141827,Store,A,DOLGEN NEW YORK LLC,DOLLAR GENERAL 5701,5150,BROADWAY,,,DEPEW,NY,14043,7500,POINT (199260.1357533039 4756458.943011807),5053,36,029,014502,1400000US36029014502,36029014502,145.02,Census Tract 145.02,NY,Erie County,New York,CT,2139770,0
509,ERIE,141826,Store,A,DOLGEN NEW YORK LLC,DOLLAR GENERAL 6977,8790,ERIE RD,,,ANGOLA,NY,14006,8000,POINT (168455.0993216307 4729447.724728933),1829,36,029,015503,1400000US36029015503,36029015503,155.03,Census Tract 155.03,NY,Erie County,New York,CT,43794655,387270
510,ERIE,141615,Store,A,DOLGEN NEW YORK LLC,DOLLAR GENERAL #9631,8229,N MAIN ST,,,EDEN,NY,14057,10000,POINT (181168.1851895745 4730731.900168139),2722,36,029,015301,1400000US36029015301,36029015301,153.01,Census Tract 153.01,NY,Erie County,New York,CT,55510529,107190
511,ERIE,141506,Store,A,DOLGEN NEW YORK LLC,DOLLAR GENERAL 9229,3531,SENECA ST,,,WEST SENECA,NY,14224,5000,POINT (191681.0397425175 4748783.894337009),2695,36,029,012002,1400000US36029012002,36029012002,120.02,Census Tract 120.02,NY,Erie County,New York,CT,4113882,0
512,ERIE,141494,Store,A,DOLGEN NEW YORK LLC,DOLLAR GENERAL 8926,5783,CAMP RD,,,HAMBURG,NY,14075,6000,POINT (186028.8399691001 4737915.735688357),407,36,029,013400,1400000US36029013400,36029013400,134,Census Tract 134,NY,Erie County,New York,CT,5605341,0
513,ERIE,141493,Store,A,DOLGEN NEW YORK LLC,DOLLAR GENERAL 9228,6000,SOUTH PARK,,,HAMBURG,NY,14075,6000,POINT (186836.4001487224 4738259.731441841),3853,36,029,013202,1400000US36029013202,36029013202,132.02,Census Tract 132.02,NY,Erie County,New York,CT,16270151,0
514,ERIE,141491,Store,A,DOLGEN NEW YORK LLC,DOLLAR GENERAL 8136,93,S ROSSLER AVE,,,BUFFALO,NY,14206,5100,POINT (190056.7883285265 4754110.836071583),4599,36,029,011100,1400000US36029011100,36029011100,111,Census Tract 111,NY,Erie County,New York,CT,1105597,0
515,ERIE,141469,Store,A,DOLGEN NEW YORK LLC,DOLLAR GENERAL 8177,942,MCKINLEY PKWY,,,BUFFALO,NY,14220,8000,POINT (187546.8861857117 4752094.389577746),1362,36,029,000200,1400000US36029000200,36029000200,2,Census Tract 2,NY,Erie County,New York,CT,1217601,0
516,ERIE,141468,Store,A,DOLGEN NEW YORK LLC,DOLLAR GENERAL 8960,230,HOLDEN ST,,,BUFFALO,NY,14214,1500,POINT (187090.6803241667 4761188.631585704),5313,36,029,004003,1400000US36029004003,36029004003,40.03,Census Tract 40.03,NY,Erie County,New York,CT,890101,0
517,ERIE,141460,Store,A,DOLGEN NEW YORK LLC,DOLLAR GENERAL 9029,1233,ABBOTT RD,,,LACKAWANNA,NY,14218,1000,POINT (188932.5179130223 4749079.462942714),973,36,029,012501,1400000US36029012501,36029012501,125.01,Census Tract 125.01,NY,Erie County,New York,CT,2458427,0
518,ERIE,141459,Store,A,DOLGEN NEW YORK LLC,DOLLAR GENERAL 9028,338,KENMORE AVE,,,BUFFALO,NY,14223,5600,POINT (187567.8048016599 4763296.700643773),3826,36,029,004601,1400000US36029004601,36029004601,46.01,Census Tract 46.01,NY,Erie County,New York,CT,818023,0
519,ERIE,141394,Store,A,DOLGEN NEW YORK LLC,DOLLAR GENERAL 8896,1336,HERTEL AVE,,,BUFFALO,NY,14216,5600,POINT (185223.1334333649 4762265.989764221),4049,36,029,004902,1400000US36029004902,36029004902,49.02,Census Tract 49.02,NY,Erie County,New York,CT,862945,0
520,ERIE,141382,Store,A,DOLGEN NEW YORK LLC,DOLLAR GENERAL 8488,29,NIAGARA ST ECKERD PLAZA,,,TONAWANDA,NY,14150,6000,POINT (183897.0455533337 4770420.820852877),24,36,029,007700,1400000US36029007700,36029007700,77,Census Tract 77,NY,Erie County,New York,CT,1821872,182025
521,ERIE,141338,Store,A,DOLGEN NEW YORK LLC,DOLLAR GENERAL 8366,3372,SHERIDAN DR,,,AMHERST,NY,14226,4000,POINT (189405.0647203233 4765653.687817998),2725,36,029,009200,1400000US36029009200,36029009200,92,Census Tract 92,NY,Erie County,New York,CT,5323344,0
522,ERIE,141306,Store,A,DOLGEN NEW YORK LLC,DOLLAR GENERAL 8427,315,W FERRY ST,,,BUFFALO,NY,14213,6000,POINT (182545.7961352547 4758746.428241594),397,36,029,006100,1400000US36029006100,36029006100,61,Census Tract 61,NY,Erie County,New York,CT,1077219,237518
523,ERIE,141292,Store,A,DOLGEN NEW YORK LLC,DOLLAR GENERAL 8245,2329,MILLERS PORT HWY,,,GETZVILLE,NY,14068,6000,POINT (192821.4091635968 4769237.812073601),16,36,029,009112,1400000US36029009112,36029009112,91.12,Census Tract 91.12,NY,Erie County,New York,CT,3333368,78723
524,DUTCHESS,131156,Store,A,DOLGEN NEW YORK LLC,DOLLAR GENERAL #13879,3338,E MAIN ST NY 343,,,AMENIA,NY,12501,7600,POINT (620428.7754274922 4634283.857111413),2179,36,027,010000,1400000US36027010000,36027010000,100,Census Tract 100,NY,Dutchess County,New York,CT,112132696,1025070
525,DUTCHESS,131135,Store,A,DOLGEN NEW YORK LLC,DOLLAR GENERAL #13402,1475,"ROUTE 9D, STE A1-5",,,WAPPINGERS FALLS,NY,12590,9090,POINT (586336.9809545409 4597849.630074065),2432,36,027,060100,1400000US36027060100,36027060100,601,Census Tract 601,NY,Dutchess County,New York,CT,7717813,2087884
526,DUTCHESS,131116,Store,A,DOLGEN NEW YORK LLC,DOLLAR GENERAL 13147,31,RT 22,,,PAWLING,NY,12564,9000,POINT (617787.8507303373 4598162.725962591),5043,36,027,110004,1400000US36027110004,36027110004,1100.04,Census Tract 1100.04,NY,Dutchess County,New York,CT,54269239,561005
527,DUTCHESS,131083,Store,A,DOLGEN NEW YORK LLC,DOLLAR GENERAL #12739,3,MAGGIOCOMO LN UNIT 1A,,,PLEASANT VALLEY,NY,12569,6000,POINT (597829.4424680321 4621976.203865681),3594,36,027,130003,1400000US36027130003,36027130003,1300.03,Census Tract 1300.03,NY,Dutchess County,New York,CT,32959798,667398
528,DUTCHESS,131067,Store,A,DOLGEN NEW YORK LLC,DOLLAR GENERAL #12419,1671,RT 9,,,WAPPINGERS FALLS,NY,12590,10000,POINT (590570.9222199363 4606338.643266022),2186,36,027,300000,1400000US36027300000,36027300000,3000,Census Tract 3000,NY,Dutchess County,New York,CT,2925869,239637
529,DELAWARE,120157,Store,A,DOLGEN NEW YORK LLC,DOLLAR GENERAL #11789,355,MAIN ST,,,MARGARETVILLE,NY,12455,5000,POINT (528541.7446716444 4665894.254720315),2271,36,025,971200,1400000US36025971200,36025971200,9712,Census Tract 9712,NY,Delaware County,New York,CT,250395928,1593642
530,DELAWARE,120139,Store,A,DOLGEN NEW YORK LLC,DOLLAR GENERAL 11022,3,MANG DR,,,SIDNEY,NY,13838,8200,POINT (466342.4478033247 4683092.303778123),5303,36,025,970402,1400000US36025970402,36025970402,9704.02,Census Tract 9704.02,NY,Delaware County,New York,CT,6791576,111771
531,CORTLAND,110100,Store,A,DOLGEN NEW YORK LLC,DOLLAR GENERAL #11177,14,W MAIN ST,,,MARATHON,NY,13803,7500,POINT (414693.1150669146 4699264.901030142),3311,36,023,971100,1400000US36023971100,36023971100,9711,Census Tract 9711,NY,Cortland County,New York,CT,262915283,1878767
532,CORTLAND,110069,Store,A,DOLGEN NEW YORK LLC,DOLLAR GENERAL 6365,186,HOMER AVE,,,CORTLAND,NY,13045,8000,POINT (402686.2247636109 4718502.455810242),735,36,023,970700,1400000US36023970700,36023970700,9707,Census Tract 9707,NY,Cortland County,New York,CT,2082176,0
533,COLUMBIA,100331,Store,A,DOLGEN NEW YORK LLC,DOLLAR GENERAL #12546,70,"FAIRVIEW AVE, STE 100",,,HUDSON,NY,12534,7700,POINT (601513.9043526603 4678337.758507359),4420,36,021,001100,1400000US36021001100,36021001100,11,Census Tract 11,NY,Columbia County,New York,CT,48192050,4868947
534,CLINTON,90342,Store,A,DOLGEN NEW YORK LLC,DOLLAR GENERAL #12931,1840,N AUSABLE ST,,,KEESEVILLE,NY,12944,9100,POINT (620541.9784558748 4928865.738158029),5057,36,019,102800,1400000US36019102800,36019102800,1028,Census Tract 1028,NY,Clinton County,New York,CT,110584377,46683734
535,CLINTON,90246,Store,A,DOLGEN NEW YORK LLC,DOLLAR GENERAL #10763,64,LAKE ST,,,ROUSES POINT,NY,12979,9841,POINT (628794.2013292566 4983641.78436254),1034,36,019,100102,1400000US36019100102,36019100102,1001.02,Census Tract 1001.02,NY,Clinton County,New York,CT,43864471,18852375
536,CLINTON,90240,Store,A,DOLGEN NEW YORK LLC,DOLLAR GENERAL #10345,3073,MAIN ST,,,PERU,NY,12972,7100,POINT (617371.7987280269 4937795.721793721),4016,36,019,101901,1400000US36019101901,36019101901,1019.01,Census Tract 1019.01,NY,Clinton County,New York,CT,80353066,187757
537,CHENANGO,80144,Store,A,DOLGEN NEW YORK LLC,DOLLAR GENERAL #12070,148,S CHENANGO ST,,,GREENE,NY,13778,0,POINT (435968.7072063683 4685821.981837513),2263,36,017,971000,1400000US36017971000,36017971000,9710,Census Tract 9710,NY,Chenango County,New York,CT,153140704,1172476
538,CHENANGO,80125,Store,A,DOLGEN NEW YORK LLC,DOLLAR GENERAL #11151,1,NORTH WASHINGTON AVE,,,OXFORD,NY,13830,5000,POINT (450767.9166223434 4699153.413188827),5245,36,017,970700,1400000US36017970700,36017970700,9707,Census Tract 9707,NY,Chenango County,New York,CT,184327310,1029454
539,CHENANGO,80084,Store,A,DOLGEN NEW YORK LLC,DOLLAR GENERAL 9497,5640,ST HWY 12,,,NORWICH,NY,13815,6000,POINT (457051.3907683694 4707076.258792599),4301,36,017,970601,1400000US36017970601,36017970601,9706.01,Census Tract 9706.01,NY,Chenango County,New York,CT,138498926,382745
540,CHENANGO,80079,Store,A,DOLGEN NEW YORK LLC,DOLLAR GENERAL 8994,51,N MAIN ST,,,SHERBURNE,NY,13460,9000,POINT (458968.1742437544 4725904.734220617),4238,36,017,970102,1400000US36017970102,36017970102,9701.02,Census Tract 9701.02,NY,Chenango County,New York,CT,118583232,248000
541,CHEMUNG,70234,Store,A,DOLGEN NEW YORK LLC,DOLLAR GENERAL 9657,1371,"COLLEGE AVE, SUITE A",,,ELMIRA,NY,14901,0,POINT (349337.1785674802 4664114.257700521),835,36,015,000200,1400000US36015000200,36015000200,2,Census Tract 2,NY,Chemung County,New York,CT,1503301,0
542,CHEMUNG,70229,Store,A,DOLGEN NEW YORK LLC,DOLLAR GENERAL #8106,1146,BROADWAY,,,ELMIRA,NY,14904,0,POINT (349403.7084886671 4657671.390943193),2499,36,015,011102,1400000US36015011102,36015011102,111.02,Census Tract 111.02,NY,Chemung County,New York,CT,10395145,232004
543,CHEMUNG,70196,Store,A,DOLGEN NEW YORK LLC,DOLLAR GENERAL #11195,3695,FRONT ST,,,WELLSBURG,NY,14894,7232,POINT (357084.7040318571 4653053.411014535),3868,36,015,011200,1400000US36015011200,36015011200,112,Census Tract 112,NY,Chemung County,New York,CT,140600139,1482813
544,CHEMUNG,70185,Store,A,DOLGEN NEW YORK LLC,DOLLAR GENERAL #10705,3164,LAKE RD,,,HORSEHEADS,NY,14845,4000,POINT (350056.6542546755 4667478.048695858),0,36,015,010800,1400000US36015010800,36015010800,108,Census Tract 108,NY,Chemung County,New York,CT,4939014,87501
545,CHEMUNG,70182,Store,A,DOLGEN NEW YORK LLC,DOLLAR GENERAL #10820,1808,W WATER ST,,,ELMIRA,NY,14905,2800,POINT (346348.8782623411 4660533.867100847),4701,36,015,010900,1400000US36015010900,36015010900,109,Census Tract 109,NY,Chemung County,New York,CT,11631369,397726
546,CHEMUNG,70112,Store,A,DOLGEN NEW YORK LLC,DOLLAR GENERAL 8958,363,COLLEGE AVE,,,ELMIRA,NY,14901,9500,POINT (350172.4948341541 4661419.639924776),1493,36,015,000700,1400000US36015000700,36015000700,7,Census Tract 7,NY,Chemung County,New York,CT,2441946,226127
547,CHEMUNG,70104,Store,A,DOLGEN NEW YORK LLC,DOLLAR GENERAL 8364,801,LAKE ST,,,ELMIRA,NY,14901,10000,POINT (350702.0884625254 4662555.831189536),1,36,015,000100,1400000US36015000100,36015000100,1,Census Tract 1,NY,Chemung County,New York,CT,4167032,118779
548,CHAUTAUQUA,60399,Store,A,DOLGEN NEW YORK LLC,DOLLAR GENERAL #12852,141,W MAIN ST,,,FREWSBURG,NY,14738,9014,POINT (154952.2634599234 4663989.957738214),4281,36,013,037500,1400000US36013037500,36013037500,375,Census Tract 375,NY,Chautauqua County,New York,CT,134198092,346169
549,CHAUTAUQUA,60383,Store,A,DOLGEN NEW YORK LLC,DOLLAR GENERAL #12399,460,W MAIN ST,,,FALCONER,NY,14733,13000,POINT (152196.9667751564 4671013.19766005),3545,36,013,037300,1400000US36013037300,36013037300,373,Census Tract 373,NY,Chautauqua County,New York,CT,70499694,0
550,CHAUTAUQUA,60236,Store,A,DOLGEN NEW YORK LLC,DOLLAR GENERAL 6849,601,W 3RD ST,,,JAMESTOWN,NY,14701,8000,POINT (148141.9999856327 4668947.90193419),1409,36,013,030400,1400000US36013030400,36013030400,304,Census Tract 304,NY,Chautauqua County,New York,CT,2109906,35208
551,CHAUTAUQUA,60215,Store,A,DOLGEN NEW YORK LLC,DOLLAR GENERAL # 9394,199,W LAKE RD,,,MAYVILLE,NY,14757,6795,POINT (129383.2981213898 4685554.407010286),4907,36,013,036401,1400000US36013036401,36013036401,364.01,Census Tract 364.01,NY,Chautauqua County,New York,CT,106479622,18483956
552,CHAUTAUQUA,60204,Store,A,DOLGEN NEW YORK LLC,DOLLAR GENERAL #6079,7612,E RT 20,,,WESTFIELD,NY,14787,7000,POINT (124673.3988086554 4697110.683712431),4391,36,013,036500,1400000US36013036500,36013036500,365,Census Tract 365,NY,Chautauqua County,New York,CT,121792826,10314213
553,CHAUTAUQUA,60203,Store,A,DOLGEN NEW YORK LLC,DOLLAR GENERAL 09488,1356,WASHINGTON ST,,,JAMESTOWN,NY,14701,5000,POINT (149002.0166563094 4670210.512253368),2230,36,013,030300,1400000US36013030300,36013030300,303,Census Tract 303,NY,Chautauqua County,New York,CT,4199508,327253
554,CHAUTAUQUA,60202,Store,A,DOLGEN NEW YORK LLC,DOLLAR GENERAL 8379,164-180,E FOURTH ST,,,DUNKIRK,NY,14048,5000,POINT (144209.2412358053 4712613.668817415),802,36,013,035700,1400000US36013035700,36013035700,357,Census Tract 357,NY,Chautauqua County,New York,CT,2891496,0
555,CHAUTAUQUA,60177,Store,A,DOLGEN NEW YORK LLC,DOLLAR GENERAL 8240,260,E MAIN ST,,,FREDONIA,NY,14063,9000,POINT (144728.7563088097 4708456.030034125),2232,36,013,035800,1400000US36013035800,36013035800,358,Census Tract 358,NY,Chautauqua County,New York,CT,6855007,0
556,CHAUTAUQUA,60175,Store,A,DOLGEN NEW YORK LLC,DOLLAR GENERAL 8865,167,W FAIRMOUNT AVE,,,LAKEWOOD,NY,14750,7500,POINT (140944.3336376903 4669759.592653356),800,36,013,037100,1400000US36013037100,36013037100,371,Census Tract 371,NY,Chautauqua County,New York,CT,9777018,6936456
557,CHAUTAUQUA,60165,Store,A,DOLGEN NEW YORK LLC,DOLLAR GENERAL 8402,1360,RT 5,,,SILVER CREEK,NY,14136,10000,POINT (159176.476413423 4719136.341318534),3548,36,013,035100,1400000US36013035100,36013035100,351,Census Tract 351,NY,Chautauqua County,New York,CT,21800163,5250903
558,CHAUTAUQUA,60163,Store,A,DOLGEN NEW YORK LLC,DOLLAR GENERAL 8439,760,FOOTE AVE,,,JAMESTOWN,NY,14701,5000,POINT (150144.2373174195 4667281.987101981),4640,36,013,030700,1400000US36013030700,36013030700,307,Census Tract 307,NY,Chautauqua County,New York,CT,3581600,0
559,CAYUGA,50182,Store,A,DOLGEN NEW YORK LLC,DOLLAR GENERAL #13235,133,MAIN ST,,,MORAVIA,NY,13118,0,POINT (383538.407199481 4729813.969745392),3165,36,011,040800,1400000US36011040800,36011040800,408,Census Tract 408,NY,Cayuga County,New York,CT,175757156,13279293
560,CAYUGA,50105,Store,A,DOLGEN NEW YORK LLC,DOLLAR GENERAL 6337,343,W GENESEE ST,,,AUBURN,NY,13021,0,POINT (370264.9488967591 4753343.645348256),4210,36,011,042100,1400000US36011042100,36011042100,421,Census Tract 421,NY,Cayuga County,New York,CT,2495958,36656
561,CAYUGA,50090,Store,A,DOLGEN NEW YORK LLC,DOLLAR GENERAL 8827,8881,S SENECA ST,PO BOX 365,,WEEDSPORT,NY,13166,5000,POINT (372633.6532381466 4767279.620297542),3164,36,011,040400,1400000US36011040400,36011040400,404,Census Tract 404,NY,Cayuga County,New York,CT,57255062,1019677
562,CATTARAUGUS,40207,Store,A,DOLGEN NEW YORK LLC,DOLLAR GENERAL #11658,216,S MAIN ST,,,CATTARAUGUS,NY,14719,8500,POINT (181250.2834973605 4692794.193447925),4553,36,009,960500,1400000US36009960500,36009960500,9605,Census Tract 9605,NY,Cattaraugus County,New York,CT,292692599,2078216
563,CATTARAUGUS,40168,Store,A,DOLGEN NEW YORK LLC,DOLLAR GENERAL #10097,95,S MAIN ST,,,FRANKLINVILLE,NY,14737,8300,POINT (214808.7912136127 4692062.942684952),3541,36,009,960800,1400000US36009960800,36009960800,9608,Census Tract 9608,NY,Cattaraugus County,New York,CT,286113428,1139527
564,CATTARAUGUS,40154,Store,A,DOLGEN NEW YORK LLC,DOLLAR GENERAL 6724,61,MAIN ST,,,RANDOLPH,NY,14772,7000,POINT (171830.0359872141 4675456.189594558),2227,36,009,961400,1400000US36009961400,36009961400,9614,Census Tract 9614,NY,Cattaraugus County,New York,CT,322528118,1396514
565,CATTARAUGUS,40145,Store,A,DOLGEN NEW YORK LLC,DOLLAR GENERAL 6175,169,S MAIN ST,,,PORTVILLE,NY,14770,7000,POINT (223677.7952873395 4658310.433484841),4422,36,009,961200,1400000US36009961200,36009961200,9612,Census Tract 9612,NY,Cattaraugus County,New York,CT,112850140,1212821
566,CATTARAUGUS,40134,Store,A,DOLGEN NEW YORK LLC,DOLLAR GENERAL #6383,5785,RT 219,,,GREAT VALLEY,NY,14741,7000,POINT (199222.2606094742 4683812.181339253),3726,36,009,960703,1400000US36009960703,36009960703,9607.03,Census Tract 9607.03,NY,Cattaraugus County,New York,CT,134666014,17424
567,CATTARAUGUS,40107,Store,A,DOLGEN NEW YORK LLC,DOLLAR GENERAL 8627,12189,RT 16,,,CHAFFEE,NY,14030,11500,POINT (214283.810315981 4714309.741926899),3542,36,009,960200,1400000US36009960200,36009960200,9602,Census Tract 9602,NY,Cattaraugus County,New York,CT,68448630,1461870
568,CATTARAUGUS,40099,Store,A,DOLGEN NEW YORK LLC,DOLLAR GENERAL 8104,502,N UNION ST,,,OLEAN,NY,14760,4800,POINT (216322.790269075 4664932.688182457),798,36,009,961800,1400000US36009961800,36009961800,9618,Census Tract 9618,NY,Cattaraugus County,New York,CT,5925686,379709
569,BROOME,30416,Store,A,DOLGEN NEW YORK LLC,DOLLAR GENERAL #08494,3226,WATSON BLVD,,,ENDWELL,NY,13760,8100,POINT (415624.34414821 4662542.877622247),1151,36,007,013100,1400000US36007013100,36007013100,131,Census Tract 131,NY,Broome County,New York,CT,2138011,79575
570,BROOME,30319,Store,A,DOLGEN NEW YORK LLC,DOLLAR GENERAL #10141,2658,ST RT 26,,,MAINE,NY,13802,7800,POINT (412644.9615163392 4672374.398210412),3423,36,007,010200,1400000US36007010200,36007010200,102,Census Tract 102,NY,Broome County,New York,CT,117946363,304276
571,BROOME,30312,Store,A,DOLGEN NEW YORK LLC,DOLLAR GENERAL 6766,310,EXCHANGE AVE,,,ENDICOTT,NY,13760,9800,POINT (411879.642595003 4660827.35947257),778,36,007,013700,1400000US36007013700,36007013700,137,Census Tract 137,NY,Broome County,New York,CT,3444143,431745
572,BROOME,30298,Store,A,DOLGEN NEW YORK LLC,DOLLAR GENERAL 9951,357,COURT ST,,,BINGHAMTON,NY,13904,10000,POINT (426484.2591857137 4661779.575877283),2304,36,007,000600,1400000US36007000600,36007000600,6,Census Tract 6,NY,Broome County,New York,CT,1629137,12657
573,BROOME,30277,Store,A,DOLGEN NEW YORK LLC,DOLLAR GENERAL 6436,2649,MAIN ST,,,WHITNEY POINT,NY,13862,5000,POINT (420201.8457959875 4686720.834411239),3424,36,007,011901,1400000US36007011901,36007011901,119.01,Census Tract 119.01,NY,Broome County,New York,CT,98095765,4938032
574,BROOME,30268,Store,A,DOLGEN NEW YORK LLC,DOLLAR GENERAL #6294,225,HARRISON AVE,,,ENDICOTT,NY,13760,13000,POINT (412926.5786333052 4661265.470252886),1747,36,007,013500,1400000US36007013500,36007013500,135,Census Tract 135,NY,Broome County,New York,CT,972050,0
575,BROOME,30244,Store,A,DOLGEN NEW YORK LLC,DOLLAR GENERAL 9622,325,CLINTON ST,,,BINGHAMTON,NY,13905,7000,POINT (422519.0862357836 4662428.40053726),3468,36,007,000200,1400000US36007000200,36007000200,2,Census Tract 2,NY,Broome County,New York,CT,1406903,0
576,ALLEGANY,20144,Store,A,DOLGEN NEW YORK LLC,DOLLAR GENERAL 8875,25,W DYKE ST,,,WELLSVILLE,NY,14895,6500,POINT (256908.9790112334 4666883.627382995),3828,36,003,950700,1400000US36003950700,36003950700,9507,Census Tract 9507,NY,Allegany County,New York,CT,92723534,88581
577,ALLEGANY,20115,Store,A,DOLGEN NEW YORK LLC,DOLLAR GENERAL #11056,7981,RT 19,,,BELFAST,NY,14711,9250,POINT (243004.5472776638 4692963.692969747),3731,36,003,950402,1400000US36003950402,36003950402,9504.02,Census Tract 9504.02,NY,Allegany County,New York,CT,106358388,2639765
578,ALLEGANY,20104,Store,A,DOLGEN NEW YORK LLC,DOLLAR GENERAL #10600,303,MAIN ST,,,BOLIVAR,NY,14715,8100,POINT (237909.6059567271 4662088.253204294),2540,36,003,951202,1400000US36003951202,36003951202,9512.02,Census Tract 9512.02,NY,Allegany County,New York,CT,140584523,186027
579,ALLEGANY,20092,Store,A,DOLGEN NEW YORK LLC,DOLLAR GENERAL 9839,98,BOLIVAR RD,,,WELLSVILLE,NY,14895,8400,POINT (255143.2981847188 4668268.937075927),5056,36,003,951100,1400000US36003951100,36003951100,9511,Census Tract 9511,NY,Allegany County,New York,CT,154152645,92806
580,ALLEGANY,20090,Store,A,DOLGEN NEW YORK LLC,DOLLAR GENERAL 11284,5240,RT 305,,,CUBA,NY,14727,9000,POINT (229626.5572278654 4680252.154576601),4048,36,003,950401,1400000US36003950401,36003950401,9504.01,Census Tract 9504.01,NY,Allegany County,New York,CT,180985769,385893
581,ALLEGANY,20083,Store,A,DOLGEN NEW YORK LLC,DOLLAR GENERAL 6067,4836,STATE ROUTE 19 S,PO BOX 51,,BELMONT,NY,14813,8000,POINT (251211.6798276302 4677459.762758006),5089,36,003,950600,1400000US36003950600,36003950600,9506,Census Tract 9506,NY,Allegany County,New York,CT,155813033,235822
582,ALLEGANY,20078,Store,A,DOLGEN NEW YORK LLC,DOLLAR GENERAL 9592,46,S GENESEE ST PO BOX 274,,,FILLMORE,NY,14735,6300,POINT (244046.4307400128 4705822.893092662),3829,36,003,950300,1400000US36003950300,36003950300,9503,Census Tract 9503,NY,Allegany County,New York,CT,232017438,2013702
583,ALLEGANY,20066,Store,A,DOLGEN NEW YORK LLC,DOLLAR GENERAL 8319,820,NY RT 244,,,ALFRED STATION,NY,14803,1400,POINT (271445.3018120576 4683264.442193184),5069,36,003,950800,1400000US36003950800,36003950800,9508,Census Tract 9508,NY,Allegany County,New York,CT,201673166,602203
584,ALBANY,10440,Store,A,DOLGEN NEW YORK LLC,DOLLAR GENERAL #25518,638,COLUMBIA ST EXT,,,LATHAM,NY,12110,3000,POINT (602048.6136650195 4735152.960885303),2296,36,001,013503,1400000US36001013503,36001013503,135.03,Census Tract 135.03,NY,Albany County,New York,CT,11558461,1212130
