County,License Number,Operation Type,Establishment Type,Entity Name,DBA Name,Street Number,Street Name,Address Line 2,Address Line 3,City,State,Zip Code,Square Footage,Georeference
ONONDAGA,760190,Store,A,DOLGEN NEW YORK LLC,DOLLAR GENERAL #30401,2711,S SALINA ST,,,SYRACUSE,NY,13205,0,POINT (-76.142482076 43.021158703)
QUEENS,759990,Store,A,DOLGEN NEW YORK LLC,DOLLAR GENERAL #19222,71-24,MYRTLE AVE,,,GLENDALE,NY,11385,0,POINT (-73.879274126 40.70201234)
JEFFERSON,759988,Store,A,DOLGEN NEW YORK LLC,DOLLAR GENERAL #30022,29,N BROAD ST,,,CARTHAGE,NY,13619,0,POINT (-75.627283117 43.971536604)
SUFFOLK,759935,Store,A,DOLGEN NEW YORK LLC,DOLLAR GENERAL #30610,200,MIDDLE COUNTRY RD,,,MIDDLE ISLAND,NY,11953,0,POINT (-72.966230024 40.877298792)
LEWIS,759933,Store,A,DOLGEN NEW YORK LLC,DOLLAR GENERAL #30025,6163,SOLOMAN RD,,,GLENFIELD,NY,13343,0,POINT (-75.40992294 43.720003726)
MONROE,759932,Store,A,DOLGEN NEW YORK LLC,DOLLAR GENERAL #30675,3750,MT READ BLVD,,,ROCHESTER,NY,14616,0,POINT (-77.658354797 43.227259853)
ONONDAGA,758863,Store,A,DOLGEN NEW YORK LLC,DOLLAR GENERAL #25200,3905,NEW COURT AVE,,,SYRACUSE,NY,13206,0,POINT (-76.113882855 43.080913165)
ESSEX,758857,Store,A,DOLGEN NEW YORK LLC,DOLLAR GENERAL #25167,3192,PLANK RD,,,MORIAH,NY,12960,10000,POINT (-73.514584607 44.086774026)
COLUMBIA,758587,Store,A,DOLGEN NEW YORK LLC,DOLLAR GENERAL #25025,1475,ROUTE 20,,,NEW LEBANON,NY,12125,0,POINT (-73.471324722 42.485524535)
GENESEE,758545,Store,A,DOLGEN NEW YORK LLC,DOLLAR GENERAL #25187,6329,ROUTE 262,,,BYRON,NY,14422,0,POINT (-78.063553096 43.079727286)
ONONDAGA,758544,Store,A,DOLGEN NEW YORK LLC,DOLLAR GENERAL #30177,101,LAWRENCE RD E,,,SYRACUSE,NY,13212,0,POINT (-76.144695317 43.115405912)
BROOME,758330,Store,A,DOLGEN NEW YORK LLC,DOLLAR GENERAL #24536,6946,STATE RT 17C,,,ENDICOTT,NY,13760,0,POINT (-76.145215954 42.07772877)
ALLEGANY,758294,Store,A,DOLGEN NEW YORK LLC,DOLLAR GENERAL #24752,4,MAIL ST,,,CANASERAGA,NY,14822,0,POINT (-77.776465117 42.462848054)
CHEMUNG,758293,Store,A,DOLGEN NEW YORK LLC,DOLLAR GENERAL #24584,165,DANIEL ZENKER DR,,,BIG FLATS,NY,14814,0,POINT (-76.935027487 42.144945054)
CHAUTAUQUA,757921,Store,A,DOLGEN NEW YORK LLC,DOLLAR GENERAL #24271,4041,ROUTE 60,,,GERRY,NY,14740,10658,POINT (-79.255417483 42.175323)
BROOME,757920,Store,A,DOLGEN NEW YORK LLC,DOLLAR GENERAL #9335,185,MAIN ST,,,JOHNSON CITY,NY,13790,0,POINT (-75.952957941 42.114623227)
ERIE,757896,Store,A,DOLGEN NEW YORK LLC,DOLLAR GENERAL #23550,1853,LOVE RD,,,GRAND ISLAND,NY,14072,6000,POINT (-78.959705445 42.996155573)
GENESEE,757481,Store,A,DOLGEN NEW YORK LLC,DOLLAR GENERAL #24659,1658,BROADWAY RD,,,DARIEN CENTER,NY,14040,8500,POINT (-78.368256985 42.901325106)
SCHENECTADY,757293,Store,A,DOLGEN NEW YORK LLC,DOLLAR GENERAL #24494,6250,DUANESBURG RD,,,DUANESBURG,NY,12056,0,POINT (-74.122102226 42.763709927)
NIAGARA,757292,Store,A,DOLGEN NEW YORK LLC,DOLLAR GENERAL #24374,3929,RIDGE RD,,,LOCKPORT,NY,14094,6000,POINT (-78.827157754 43.202369574)
ERIE,755862,Store,A,DOLGEN NEW YORK LLC,DOLLAR GENERAL #21443,10344,MAIN ST,,,CLARENCE,NY,14031,7820,POINT (-78.602219121 42.980064537)
MADISON,755861,Store,A,DOLGEN NEW YORK LLC,DOLLAR GENERAL #23829,1414,ROUTE 5 W,,,CHITTENANGO,NY,13037,0,POINT (-75.898784301 43.047969955)
SENECA,755860,Store,A,DOLGEN NEW YORK LLC,DOLLAR GENERAL #24131,8530,NY-414,,,LODI,NY,14860,0,POINT (-76.823063914 42.614491566)
WAYNE,755859,Store,A,DOLGEN NEW YORK LLC,DOLLAR GENERAL #24328,7,ROUTE 31,,,LYONS,NY,14489,0,POINT (-76.998487816 43.060765161)
CHEMUNG,755582,Store,A,DOLGEN NEW YORK INC,DOLLAR GENERAL #25090,424,S MAIN ST,,,ELMIRA,NY,14904,4000,POINT (-76.803795545 42.078122553)
SCHUYLER,754830,Store,A,DOLGEN NEW YORK LLC,DOLLAR GENERAL #24002,6339,STATE RT 13,,,CAYUTA,NY,14824,0,POINT (-76.69517069 42.294889508)
NIAGARA,754829,Store,A,DOLGEN NEW YORK LLC,DOLLAR GENERAL #22399,2300,NIAGARA FALLS BLVD,,,NIAGARA FALLS,NY,14304,9000,POINT (-78.923697546 43.098053235)
ERIE,754805,Store,A,DOLGEN NEW YORK LLC,DOLLAR GENERAL #23338,650,TWO ROD RD,,,MARILLA,NY,14102,10642,POINT (-78.556738914 42.856119574)
WARREN,754704,Store,A,DOLGEN NEW YORK LLC,DOLLAR GENERAL #21795,3254,STATE RTE 28,,,NORTH CREEK,NY,12853,9360,POINT (-73.977609087 43.683678914)
ERIE,754703,Store,A,DOLGEN NEW YORK LLC,DOLLAR GENERAL #23945,5807,BROADWAY ST,,,LANCASTER,NY,14086,9100,POINT (-78.644594668 42.894847846)
JEFFERSON,754448,Store,A,DOLGEN NEW YORK LLC,DOLLAR GENERAL #23538,12301,STATE RT 193,,,ELLISBURG,NY,13636,10000,POINT (-76.126317274 43.737350769)
ESSEX,754447,Store,A,DOLGEN NEW YORK LLC,DOLLAR GENERAL #24203,3954,NYS RT 22,,,WILLSBORO,NY,12996,9160,POINT (-73.399956465 44.372076241)
WARREN,754163,Store,A,DOLGEN NEW YORK LLC,DOLLAR GENERAL #23797,3760,MAIN ST,,,WARRENSBURG,NY,12885,10642,POINT (-73.767776756 43.492480495)
CLINTON,753874,Store,A,DOLGEN NEW YORK LLC,DOLLAR GENERAL #23449,7598,ROUTE 22,,,WEST CHAZY,NY,12992,0,POINT (-73.506933019 44.813463071)
ORANGE,753669,Store,A,DOLGEN NEW YORK LLC,DOLLAR GENERAL #21171,5280,US ROUTE 9W,,,NEWBURGH,NY,12550,10000,POINT (-74.005010394 41.552460707)
TOMPKINS,753583,Store,A,DOLGEN NEW YORK LLC,DOLLAR GENERAL #23670,1124,RIDGE RD,,,LANSING,NY,14882,0,POINT (-76.584501321 42.581380109)
HERKIMER,753265,Store,A,DOLGEN NEW YORK LLC,DOLLAR GENERAL #23760,8290,STATE RT 28,,,NEWPORT,NY,13416,10770,POINT (-75.038669721 43.203430394)
HERKIMER,753211,Store,A,DOLGEN NEW YORK LLC,DOLLAR GENERAL #23909,4225,ACME RD,,,FRANKFORT,NY,13340,8519,POINT (-75.06048754 43.029757682)
ST. LAWRENCE,753209,Store,A,DOLGEN NEW YORK LLC,DOLLAR GENERAL #23623,8740,ROUTE 56,,,NORFOLK,NY,13667,0,POINT (-74.977481856 44.836112147)
SCHENECTADY,753207,Store,A,DOLGEN NEW YORK LLC,DOLLAR GENERAL #20977,1225,MAIN ST,,,ROTTERDAM JUNCTION,NY,12150,0,POINT (-74.039714781 42.870158885)
WAYNE,752251,Store,A,DOLGEN NEW YORK LLC,DOLLAR GENERAL #23061,6466,RTE 104A,,,RED CREEK,NY,13143,0,POINT (-76.730855877 43.235451878)
FRANKLIN,752250,Store,A,DOLGEN NEW YORK LLC,DOLLAR GENERAL #23337,1329,STATE RT 122,,,CONSTABLE,NY,12926,0,POINT (-74.279069162 44.930688681)
JEFFERSON,752249,Store,A,DOLGEN NEW YORK LLC,DOLLAR GENERAL #22995,32270,STATE RT 3,,,CARTHAGE,NY,13619,0,POINT (-75.728600379 44.027942789)
MADISON,752095,Store,A,DOLGEN NEW YORK LLC,DOLLAR GENERAL #23298,3199,STATE RT 31,,,CANASTOTA,NY,13032,0,POINT (-75.78395273 43.158807008)
MONROE,751290,Store,A,DOLGEN NEW YORK LLC,DOLLAR GENERAL #22585,252,E MAIN ST,,,ROCHESTER,NY,14604,0,POINT (-77.605359125 43.157634024)
ERIE,751065,Store,A,DOLGEN NEW YORK LLC,DOLLAR GENERAL #22725,4030,SOUTHWESTERN BLVD,,,ORCHARD PARK,NY,14127,0,POINT (-78.799434238 42.774952954)
ONEIDA,751062,Store,A,DOLGEN NEW YORK LLC,DOLLAR GENERAL #6714,1600,MAIN ST,,,SYLVAN BEACH,NY,13157,0,POINT (-75.728008112 43.203984794)
ERIE,751042,Store,A,DOLGEN NEW YORK LLC,DOLLAR GENERAL #21764,12220,WALDEN AVE,,,ALDEN,NY,14004,9160,POINT (-78.533274531 42.939099703)
ERIE,750455,Store,A,DOLGEN NEW YORK LLC,DOLLAR GENERAL 22699,8680,STATE RD,,,COLDEN,NY,14033,9400,POINT (-78.687051357 42.646966364)
CATTARAUGUS,750401,Store,A,DOLGEN NEW YORK LLC,DOLLAR GENERAL #20622,244,BUFFALO ST,,,GOWANDA,NY,14070,9160,POINT (-78.935731612 42.470863793)
OSWEGO,750399,Store,A,DOLGEN NEW YORK LLC,DOLLAR GENERAL #23128,1896,ROUTE 11,,,HASTINGS,NY,13076,10765,POINT (-76.1525244 43.369403066)
ST. LAWRENCE,750135,Store,A,DOLGEN NEW YORK LLC,DOLLAR GENERAL #22686,3712,ST HWY 37,,,OGDENSBURG,NY,13669,0,POINT (-75.633468807 44.595355435)
ULSTER,750134,Store,A,DOLGEN NEW YORK LLC,DOLLAR GENERAL #22620,1984,ROUTE 9W,,,MARLBORO,NY,12542,0,POINT (-73.959854522 41.669643327)
ORLEANS,750132,Store,A,DOLGEN NEW YORK LLC,DOLLAR GENERAL #22562,30,N MAIN ST,,,LYNDONVILLE,NY,14098,7520,POINT (-78.38844614 43.322112487)
CLINTON,750130,Store,A,DOLGEN NEW YORK LLC,DOLLAR GENERAL #21753,901,MILITARY TPKE,,,PLATTSBURGH,NY,12901,0,POINT (-73.511945649 44.653471943)
ORANGE,750128,Store,A,DOLGEN NEW YORK LLC,DOLLAR GENERAL #19908,748,ROUTE 284,,,WESTTOWN,NY,10998,0,POINT (-74.541546784 41.334868186)
TOMPKINS,750127,Store,A,DOLGEN NEW YORK LLC,DOLLAR GENERAL #22623,1188,AUBURN RD,,,LOCKE,NY,13092,0,POINT (-76.498001086 42.613062571)
ONONDAGA,749812,Store,JAC,DOLGEN NEW YORK LLC,DOLLAR GENERAL #23195,301,S SALINA ST,,,SYRACUSE,NY,13202,0,POINT (-76.151937785 43.048480648)
ST. LAWRENCE,749811,Store,A,DOLGEN NEW YORK LLC,DOLLAR GENERAL #22958,4149,STATE HWY 3,,,STAR LAKE,NY,13690,0,POINT (-75.040212271 44.162667298)
ERIE,749810,Store,A,DOLGEN NEW YORK LLC,DOLLAR GENERAL #21444,6401,OLEAN RD,,,SOUTH WALES,NY,14139,9000,POINT (-78.577850246 42.710679012)
ERIE,749809,Store,A,DOLGEN NEW YORK LLC,DOLLAR GENERAL #22710,5203,SENECA ST,,,W SENECA,NY,14224,0,POINT (-78.712152978 42.834416103)
LIVINGSTON,749808,Store,A,DOLGEN NEW YORK LLC,DOLLAR GENERAL #22852,4797,S MAIN ST,,,HEMLOCK,NY,14466,0,POINT (-77.605025274 42.789581554)
BROOME,749792,Store,A,DOLGEN NEW YORK LLC,DOLLAR GENERAL #22475,2301,VESTAL PKWY,,,VESTAL,NY,13850,0,POINT (-76.099377384 42.068854851)
ESSEX,749790,Store,A,DOLGEN NEW YORK LLC,DOLLAR GENERAL #22214,1790,E MAIN ST,,,BLOOMINGDALE,NY,12913,0,POINT (-74.078839464 44.410446349)
ONTARIO,749775,Store,A,DOLGEN NEW YORK LLC,DOLLAR GENERAL #10079,8673,MAIN ST,,,HONEOYE,NY,14471,0,POINT (-77.512349085 42.789221468)
STEUBEN,749774,Store,A,DOLGEN NEW YORK LLC,DOLLAR GENERAL #22186,8569,MAIN ST,,,CAMPBELL,NY,14821,0,POINT (-77.190749625 42.229736975)
FRANKLIN,749773,Store,A,DOLGEN NEW YORK LLC,DOLLAR GENERAL #22010,94,W MAIN ST,,,CHATEAUGAY,NY,12920,0,POINT (-74.084716548 44.926036599)
DUTCHESS,749772,Store,A,DOLGEN NEW YORK LLC,DOLLAR GENERAL #22142,2555,STATE RT 55,,,POUGHQUAG,NY,12570,0,POINT (-73.686911926 41.625217354)
STEUBEN,749771,Store,A,DOLGEN NEW YORK LLC,DOLLAR GENERAL #20710,1084,CATON RD,,,CORNING,NY,14830,0,POINT (-77.027712221 42.056320301)
JEFFERSON,749744,Store,A,DOLGEN NEW YORK LLC,DOLLAR GENERAL #22520,16234,FOSTER PARK RD,,,DEXTER,NY,13634,9346,POINT (-76.046991525 44.00121284)
CHAUTAUQUA,749728,Store,A,DOLGEN NEW YORK LLC,DOLLAR GENERAL #8294,1190,CENTRAL AVE A,,,DUNKIRK,NY,14048,7240,POINT (-79.333489714 42.457444995)
DUTCHESS,749726,Store,A,DOLGEN NEW YORK LLC,DOLLAR GENERAL #20475,1,E DORSEY LN,,,POUGHKEEPSIE,NY,12601,7500,POINT (-73.911382562 41.745516817)
STEUBEN,749592,Store,A,DOLGEN NEW YORK LLC,DOLLAR GENERAL #22635,6758,RT 415,,,BATH,NY,14810,3,POINT (-77.298201685 42.328972589)
WYOMING,749574,Store,A,DOLGEN NEW YORK LLC,DOLLAR GENERAL 22210,3644,RT 78,,,STRYKERSVILLE,NY,14145,9300,POINT (-78.454997446 42.709532493)
WYOMING,749486,Store,A,DOLGEN NEW YORK LLC,DOLLAR GENERAL #22357,7862,RT 98,,,ARCADE,NY,14009,4000,POINT (-78.412544699 42.525450141)
CHENANGO,748405,Store,A,DOLGEN NEW YORK LLC,DOLLAR GENERAL #22374,6192,HWY 12,,,NORWICH,NY,13815,0,POINT (-75.525712433 42.553844184)
SCHOHARIE,748402,Store,A,DOLGEN NEW YORK LLC,DOLLAR GENERAL #21746,1273,STATE RD 10,,,JEFFERSON,NY,12093,0,POINT (-74.601643039 42.481730008)
WAYNE,746908,Store,A,DOLGEN NEW YORK LLC,DOLLAR GENERAL #22258,4802,RT 414,,,NORTH ROSE,NY,14516,0,POINT (-76.887401867 43.178197022)
LEWIS,746906,Store,A,DOLGEN NEW YORK LLC,DOLLAR GENERAL #21446,10024,STATE RT 12,,,COPENHAGEN,NY,13626,9160,POINT (-75.6802979 43.897704316)
CHENANGO,746905,Store,A,DOLGEN NEW YORK LLC,DOLLAR GENERAL #21398,5294,STATE HWY 41,,,SMITHVILLE FLATS,NY,13841,0,POINT (-75.807794358 42.399020154)
WASHINGTON,746615,Store,A,DOLGEN NEW YORK LLC,DOLLAR GENERAL #21449,123,ROWE HILL RD,,,HARTFORD,NY,12838,0,POINT (-73.393788055 43.359055809)
MADISON,746439,Store,A,DOLGEN NEW YORK LLC,DOLLAR GENERAL #21799,7578,RT 20,,,MADISON,NY,13402,0,POINT (-75.496293081 42.903562697)
DELAWARE,746355,Store,A,DOLGEN NEW YORK LLC,DOLLAR GENERAL #21723,15276,STATE HWY 30,,,DOWNSVILLE,NY,13755,9160,POINT (-74.993337101 42.078199442)
COLUMBIA,746084,Store,A,DOLGEN NEW YORK LLC,DOLLAR GENERAL #16022,4311,ROUTE 9G,,,GERMANTOWN,NY,12526,0,POINT (-73.891124257 42.136330806)
ALBANY,746076,Store,A,DOLGEN NEW YORK LLC,DOLLAR GENERAL # 22495,310,S PEARL ST,,,ALBANY,NY,12202,0,POINT (-73.757487132 42.64013989)
ERIE,745207,Store,A,DOLGEN NEW YORK LLC,DOLLAR GENERAL #21384,2250,NIAGARA FALLS BLVD,,,TONAWANDA,NY,14150,8000,POINT (-78.822767781 43.015713525)
CHENANGO,745206,Store,A,DOLGEN NEW YORK LLC,DOLLAR GENERAL #21772,478,COUNTY ROAD 16,,,PLYMOUTH,NY,13832,6500,POINT (-75.602154003 42.617619267)
ERIE,745205,Store,A,DOLGEN NEW YORK LLC,DOLLAR GENERAL #21543,1107,SHERIDAN DR,,,TONAWANDA,NY,14150,8000,POINT (-78.893453795 42.980318467)
CAYUGA,745204,Store,A,DOLGEN NEW YORK LLC,DOLLAR GENERAL #21994,293,CAYUGA ST,,,UNION SPRINGS,NY,13160,0,POINT (-76.692092603 42.856263576)
ALLEGANY,745203,Store,A,DOLGEN NEW YORK LLC,DOLLAR GENERAL #21722,135,E MAIN ST,,,ANGELICA,NY,14709,0,POINT (-78.009042227 42.303960194)
WASHINGTON,745202,Store,A,DOLGEN NEW YORK LLC,DOLLAR GENERAL #21459,2033,CTY RD 23,,,GRANVILLE,NY,12832,0,POINT (-73.293554487 43.431160726)
CHAUTAUQUA,745198,Store,A,DOLGEN NEW YORK LLC,DOLLAR GENERAL #21766,226,WINSOR ST,,,JAMESTOWN,NY,14701,9160,POINT (-79.229651093 42.099600761)
TOMPKINS,745194,Store,A,DOLGEN NEW YORK LLC,DOLLAR GENERAL #22567,178,MAIN ST,,,GROTON,NY,13073,0,POINT (-76.367681686 42.588397522)
OTSEGO,745192,Store,A,DOLGEN NEW YORK LLC,DOLLAR GENERAL #21671,1735,ST HWY 205,,,LAURENS,NY,13796,0,POINT (-75.074145484 42.540027906)
TOMPKINS,745190,Store,A,DOLGEN NEW YORK LLC,DOLLAR GENERAL #21094,1408,DRYDEN RD,,,FREEVILLE,NY,13068,0,POINT (-76.401920336 42.471571184)
BROOME,745189,Store,A,DOLGEN NEW YORK LLC,DOLLAR GENERAL #20396,1749,NY STREET RTE 12,,,BINGHAMTON,NY,13901,9160,POINT (-75.875806378 42.193831206)
ORANGE,745164,Store,A,DOLGEN NEW YORK LLC,DOLLAR GENERAL #21504,1650,RTE 211,,,OTISVILLE,NY,10963,0,POINT (-74.5237774 41.4699172)
OSWEGO,745163,Store,A,DOLGEN NEW YORK LLC,DOLLAR GENERAL #21707,4296,STATE ROUTE 104,,,MEXICO,NY,13114,9160,POINT (-76.318950558 43.479901186)
SCHUYLER,745162,Store,A,DOLGEN NEW YORK LLC,DOLLAR GENERAL #21908,365,COUNTY RD 23,,,DUNDEE,NY,14837,4000,POINT (-77.083303601 42.423096123)
ONEIDA,745160,Store,A,DOLGEN NEW YORK LLC,DOLLAR GENERAL #21145,9127,TURIN RD,,,ROME,NY,13440,9160,POINT (-75.473416688 43.302482322)
CHENANGO,745159,Store,A,DOLGEN NEW YORK LLC,DOLLAR GENERAL #21789,6286,STATE HWY 23,,,SOUTH NEW BERLIN,NY,13843,0,POINT (-75.389956716 42.531355018)
OSWEGO,745121,Store,A,DOLGEN NEW YORK LLC,DOLLAR GENERAL #21343,1668,RT 45,,,FULTON,NY,13069,9100,POINT (-76.282698911 43.364959351)
RENSSELAER,744482,Store,A,DOLGEN NEW YORK LLC,DOLLAR GENERAL #21200,324,NY RTE 43,,,STEPHENTOWN,NY,12168,4000,POINT (-73.367560326 42.547990714)
OSWEGO,744479,Store,A,DOLGEN NEW YORK LLC,DOLLAR GENERAL #21401,2340,STATE RTE 13,,,ALTMAR,NY,13302,9346,POINT (-76.007136227 43.511347236)
ONONDAGA,744235,Store,A,DOLGEN NEW YORK LLC,DOLLAR GENERAL #22429,7386,OSWEGO RD,,,LIVERPOOL,NY,13090,0,POINT (-76.218293959 43.128768258)
SENECA,744234,Store,A,DOLGEN NEW YORK LLC,DOLLAR GENERAL #20950,8453,MAIN ST,,,INTERLAKEN,NY,14847,0,POINT (-76.723972753 42.614534559)
ERIE,744233,Store,A,DOLGEN NEW YORK LLC,DOLLAR GENERAL #21270,3230,WALDEN AVE,,,DEPEW,NY,14043,0,POINT (-78.700404818 42.911678181)
FULTON,744230,Store,A,DOLGEN NEW YORK LLC,DOLLAR GENERAL #20951,3237,RTE 29A,,,CAROGA LAKE,NY,12032,0,POINT (-74.480333074 43.137548889)
CORTLAND,744229,Store,A,DOLGEN NEW YORK LLC,DOLLAR GENERAL #21716,2717,ROUTE 26,,,CINCINNATUS,NY,13040,9100,POINT (-75.903218219 42.53826934)
NIAGARA,744228,Store,A,DOLGEN NEW YORK LLC,DOLLAR GENERAL #20328,5970,E LAKE RD,,,OLCOTT,NY,14126,7542,POINT (-78.7131376 43.335329659)
SCHENECTADY,744226,Store,A,DOLGEN NEW YORK LLC,DOLLAR GENERAL #21982,1936,VAN VRANKEN AVE,,,SCHENECTADY,NY,12308,0,POINT (-73.921238172 42.827798758)
SUFFOLK,744191,Store,A,DOLGEN NEW YORK LLC,DOLLAR GENERAL 21988,3395,GREAT NECK RD,,,AMITYVILLE,NY,11701,5000,POINT (-73.410562171 40.698404168)
CORTLAND,744043,Store,A,DOLGEN NEW YORK LLC,DOLLAR GENERAL 21374,5795,ROUTE 13,,,CUYLER,NY,13158,0,POINT (-75.892960781 42.755864636)
MONTGOMERY,742191,Store,A,DOLGEN NEW YORK LLC,DOLLAR GENERAL #8623,174,W GRAND ST,,,PALATINE BRIDGE,NY,13428,0,POINT (-74.583586303 42.914140449)
SULLIVAN,742029,Store,A,DOLGEN NEW YORK LLC,DOLLAR GENERAL #20891,3357,STATE RT 52,,,WHITE SULPHER SPRING,NY,12787,9346,POINT (-74.831260645 41.799331862)
CHEMUNG,741440,Store,A,DOLGEN NEW YORK LLC,DOLLAR GENERAL #20645,113,OLD ITHICA RD,,,HORSEHEADS,NY,14845,0,POINT (-76.817970433 42.17516387)
CLINTON,741149,Store,A,DOLGEN NEW YORK LLC,DOLLAR GENERAL STORE #19573,2593,STATE ROUTE 11,,,MOOERS,NY,12958,0,POINT (-73.597621691 44.959628584)
ONEIDA,741148,Store,A,DOLGEN NEW YORK LLC,DOLLAR GENERAL #20688,5354,STATE ROUTE 233,,,WESTMORELAND,NY,13490,0,POINT (-75.405701136 43.121728926)
WASHINGTON,740970,Store,A,DOLGEN NEW YORK LLC,DOLLAR GENERAL STORE #20719,290,BROADWAY,,,FORT EDWARD,NY,12828,0,POINT (-73.585910077 43.279272077)
SULLIVAN,740749,Store,A,DOLGEN NEW YORK LLC,DOLLAR GENERAL #20156,882,BLOOMBURG RD,,,BLOOMINGBURG,NY,12721,8300,POINT (-74.4254702 41.5707368)
MADISON,740748,Store,A,DOLGEN NEW YORK LLC,DOLLAR GENERAL #20391,5114,BEAR PATH RD,,,MUNNSVILLE,NY,13409,0,POINT (-75.586449921 42.969722987)
TIOGA,740747,Store,A,DOLGEN NEW YORK LLC,DOLLAR GENERAL #6172,91,W TIOGA ST,,,SPENCER,NY,14883,0,POINT (-76.499709904 42.208313165)
ONTARIO,740602,Store,A,DOLGEN NEW YORK LLC,DOLLAR GENERAL STORE #20442,9212,ROUTE 5 & 20,,,W BLOOMFIELD,NY,14469,0,POINT (-77.548640965 42.90709085)
NIAGARA,740535,Store,A,DOLGEN NEW YORK LLC,DOLLAR GENERAL #19988,3622,HYDE PARK BLVD,,,NIAGARA FALLS,NY,14305,6000,POINT (-79.036526428 43.120832859)
ERIE,740534,Store,A,DOLGEN NEW YORK LLC,DOLLAR GENERAL #19760,11184,BIG TREE RD,,,EAST AURORA,NY,14052,9200,POINT (-78.569655008 42.767853482)
ONEIDA,740533,Store,A,DOLGEN NEW YORK LLC,DOLLAR GENERAL #20510,10372,PRITCHARD RD,,,REMSEN,NY,13438,9750,POINT (-75.20126811 43.337443114)
CHEMUNG,740439,Store,A,DOLGEN NEW YORK LLC,DOLLAR GENERAL STORE #20329,1817,PENNSYLVANIA AVE,,,PINE CITY,NY,14871,0,POINT (-76.897414195 42.005190357)
ERIE,740375,Store,A,DOLGEN NEW YORK LLC,DOLLAR GENERAL STORE #20621,6889,ERIE ROAD,,,DERBY,NY,14047,3000,POINT (-78.984109275 42.699097191)
JEFFERSON,740226,Store,A,DOLGEN NEW YORK LLC,DOLLAR GENERAL #19591,43450,STATE RT 12,,,ALEXANDRIA BAY,NY,13607,9160,POINT (-75.965844195 44.297375378)
OTSEGO,740186,Store,A,DOLGEN NEW YORK LLC,DOLLAR GENERAL #20258,6373,ST HWY 7,,,MARYLAND,NY,12116,9200,POINT (-74.965550636 42.493116321)
CHAUTAUQUA,739928,Store,A,DOLGEN NEW YORK LLC,DOLLAR GENERAL STORE #17957,3032,ROUTE 430,,,BEMUS POINT,NY,14712,7520,POINT (-79.308917913 42.123757783)
ST. LAWRENCE,739764,Store,A,DOLGEN NEW YORK LLC,DOLLAR GENERAL #19569,1809,STATE HWY 345,,,MADRID,NY,13660,0,POINT (-75.12681376 44.744158143)
JEFFERSON,739761,Store,A,DOLGEN NEW YORK LLC,DOLLAR GENERAL #19585,2137,S JAMES ST,,,CAPE VINCENT,NY,13618,9200,POINT (-76.327723729 44.118191076)
ALLEGANY,739757,Store,A,DOLGEN NEW YORK LLC,DOLLAR GENERAL #20432,7259,COUNTY RD 20,,,FRIENDSHIP,NY,14739,0,POINT (-78.147222008 42.20221311)
ONONDAGA,739443,Store,A,DOLGEN NEW YORK LLC,DOLLAR GENERAL #21162,4975,BEAR RD,,,LIVERPOOL,NY,13088,10100,POINT (-76.171846313 43.136800133)
ALLEGANY,739282,Store,A,DOLGEN NEW YORK LLC,DOLLAR GENERAL #20345,46,E CHESTNUT ST,,,ANDOVER,NY,14806,7500,POINT (-77.791524895 42.154600432)
STEUBEN,739169,Store,A,DOLGEN NEW YORK LLC,DOLLAR GENERAL STORE #19743,19,N DANSVILLE STREET,,,COHOCTON,NY,14826,2500,POINT (-77.509253229 42.505484532)
RENSSELAER,739168,Store,A,DOLGEN NEW YORK LLC,DOLLAR GENERAL STORE #19865,396,2ND AVENUE,,,TROY,NY,12182,0,POINT (-73.680295777 42.76770724)
ALBANY,739167,Store,A,DOLGEN NEW YORK LLC,DOLLAR GENERAL STORE #19911,805,HELDERBERG TRAIL,,,EAST BERNE,NY,12059,0,POINT (-74.068605189 42.613957591)
SCHUYLER,739166,Store,A,DOLGEN NEW YORK LLC,DOLLAR GENERAL STORE #19976,391,STATE ROUTE 414,,,BEAVER DAMS,NY,14812,0,POINT (-76.957609922 42.251553476)
ULSTER,739165,Store,A,DOLGEN NEW YORK LLC,DOLLAR GENERAL STORE #20389,1162,BROADWAY,,,ESOPUS,NY,12429,0,POINT (-73.966635063 41.82605796)
ERIE,738953,Store,A,DOLGEN NEW YORK LLC,DOLLAR GENERAL #21065,1971,COLVIN BLVD,,,TONAWANDA,NY,14150,4000,POINT (-78.852171329 42.991592713)
HERKIMER,738952,Store,A,DOLGEN NEW YORK LLC,DOLLAR GENERAL #20834,166,SOUTH ST,,,WEST WINFIELD,NY,13491,0,POINT (-75.192193862 42.883658946)
HERKIMER,738951,Store,A,DOLGEN NEW YORK LLC,DOLLAR GENERAL #19944,2102,STATE RT 5,,,UTICA,NY,13502,0,POINT (-75.162297792 43.103695723)
CHENANGO,738725,Store,A,DOLGEN NEW YORK LLC,DOLLAR GENERAL #19913,109,STATE RT 12,,,CHENANGO FORKS,NY,13746,9700,POINT (-75.835997367 42.246117267)
DELAWARE,738724,Store,A,DOLGEN NEW YORK LLC,DOLLAR GENERAL #19989,2232,NYS RT 206,,,MASONVILLE,NY,13804,7263,POINT (-75.37455214 42.241982767)
SCHENECTADY,738700,Store,A,DOLGEN NEW YORK LLC,DOLLAR GENERAL #8749,2001,BROADWAY,,,SCHENECTADY,NY,12306,5000,POINT (-73.964635605 42.798107006)
WARREN,738513,Store,A,DOLGEN NEW YORK LLC,DOLLAR GENERAL #19808,1858,RTE 9,,,LAKE GEORGE,NY,12845,0,POINT (-73.703813364 43.392143414)
ONONDAGA,738512,Store,A,DOLGEN NEW YORK LLC,DOLLAR GENERAL #19518,7344,RTE 20,,,POMPEY,NY,13138,9346,POINT (-76.013929414 42.897599266)
ULSTER,738470,Store,A,DOLGEN NEW YORK LLC,DOLLAR GENERAL #17899,3592,RT 9W,,,HIGHLAND,NY,12528,9200,POINT (-73.964134667 41.71256417)
CHENANGO,738117,Store,A,DOLGEN NEW YORK LLC,DOLLAR GENERAL #19842,1615,STATE HWY 8,,,MOUNT UPTON,NY,13809,9160,POINT (-75.381079631 42.41958859)
SARATOGA,737245,Store,A,DOLGEN NEW YORK LLC,DOLLAR GENERAL #19431,1800,NYS RT 29,,,GALWAY,NY,12074,9100,POINT (-74.050096999 43.054797465)
ST. LAWRENCE,736973,Store,A,DOLGEN NEW YORK LLC,DOLLAR GENERAL #19679,109,NYS RT 3,,,HARRISVILLE,NY,13648,0,POINT (-75.309659278 44.164913606)
CHAUTAUQUA,736375,Store,A,DOLGEN NEW YORK LLC,DOLLAR GENERAL #19335,5360,ROUUTE 474,,,ASHVILLE,NY,14710,91609,POINT (-79.41050295 42.081422817)
NIAGARA,736208,Store,A,DOLGEN NEW YORK LLC,DOLLAR GENERAL #19579,1895,QUAKER RD,,,BARKER,NY,14012,8000,POINT (-78.553807092 43.323078124)
BROOME,736205,Store,A,DOLGEN NEW YORK LLC,DOLLAR GENERAL #19634,16,PINE ST,,,DEPOSIT,NY,13754,7500,POINT (-75.417862104 42.062287713)
TIOGA,736200,Store,A,DOLGEN NEW YORK LLC,DOLLAR GENERAL STORE #19746,97,OWEGO RD,,,CANDOR,NY,13743,0,POINT (-76.333987357 42.232595204)
DELAWARE,735996,Store,A,DOLGEN NEW YORK LLC,DOLLAR GENERAL #19338,550,W MAIN ST,,,HANCOCK,NY,13783,8777,POINT (-75.292472604 41.956612743)
CHENANGO,735106,Store,A,DOLGEN NEW YORK LLC,DOLLAR GENERAL #18530,311,MAIN ST,,,AFTON,NY,13730,9217,POINT (-75.517192518 42.234620271)
WAYNE,735105,Store,A,DOLGEN NEW YORK LLC,DOLLAR GENERAL #18565,2080,WALWORTH-PENFIELD RD,,,WALWORTH,NY,14568,0,POINT (-77.27966871 43.138076488)
CATTARAUGUS,735100,Store,A,DOLGEN NEW YORK LLC,DOLLAR GENERAL #18976,1511,E STATE ST,,,OLEAN,NY,14760,9160,POINT (-78.40192751 42.073104434)
GENESEE,735099,Store,A,DOLGEN NEW YORK LLC,DOLLAR GENERAL #19400,2666,W MAIN ST,,,BATAVIA,NY,14036,3200,POINT (-78.304856605 42.996036505)
WASHINGTON,735097,Store,A,DOLGEN NEW YORK LLC,DOLLAR GENERAL #18239,32,S MAIN ST,,,SALEM,NY,12865,3500,POINT (-73.331954919 43.162982765)
ERIE,735095,Store,A,DOLGEN NEW YORK LLC,DOLLAR GENERAL #18657,2737,SOUTHWESTERN BLVD,,,ORCHARD PARK,NY,14127,3000,POINT (-78.724601954 42.810973958)
STEUBEN,735094,Store,A,DOLGEN NEW YORK LLC,DOLLAR GENERAL #18917,3851,STATE RT 417,,,JASPER,NY,14855,0,POINT (-77.500996635 42.121158807)
CHAUTAUQUA,735092,Store,A,DOLGEN NEW YORK LLC,DOLLAR GENERAL #18952,2864,ROUTE 426,,,FINDLEY LAKE,NY,14736,7263,POINT (-79.73825383 42.122736281)
TIOGA,734633,Store,A,DOLGEN NEW YORK LLC,DOLLAR GENERAL STORE #18509,7146,STATE ROUTE 434,,,APALACHIN,NY,13732,0,POINT (-76.149737239 42.068257837)
WYOMING,734632,Store,A,DOLGEN NEW YORK LLC,DOLLAR GENERAL STORE #18900,2480,SR 20A,,,VARYSBURG,NY,14167,7512,POINT (-78.313440764 42.761311365)
TIOGA,734631,Store,A,DOLGEN NEW YORK LLC,DOLLAR GENERAL STORE #19035,12343,STATE ROUTE 38,,,BERKSHIRE,NY,13736,0,POINT (-76.18716969 42.295124495)
ONEIDA,734527,Store,A,DOLGEN NEW YORK LLC,DOLLAR GENERAL STORE #16137,8420,STATE ROUTE 69,,,ORISKANY,NY,13424,0,POINT (-75.332144539 43.159012324)
GREENE,734526,Store,A,DOLGEN NEW YORK LLC,DOLLAR GENERAL STORE #16748,9718,ROUTE 9W,,,ATHENS,NY,12015,8000,POINT (-73.852992884 42.289878932)
DELAWARE,734524,Store,A,DOLGEN NEW YORK LLC,DOLLAR GENERAL STORE #18914,11160,STATE HIGHWAY 23,,,DAVENPORT CENTER,NY,13751,7220,POINT (-74.92284375 42.443502621)
CHENANGO,734523,Store,A,DOLGEN NEW YORK LLC,DOLLAR GENERAL STORE #19410,72,S MAIN STREET,,,EARLVILLE,NY,13332,9160,POINT (-75.542909454 42.732184838)
SULLIVAN,734522,Store,A,DOLGEN NEW YORK LLC,DOLLAR GENERAL STORE #18717,7899,STATE ROUTE 55,,,NEVERSINK,NY,12765,7542,POINT (-74.583674229 41.857869901)
ST. LAWRENCE,733234,Store,A,DOLGEN NEW YORK LLC,DOLLAR GENERAL #18388,52,S MAIN ST,,,HAMMOND,NY,13646,0,POINT (-75.695746837 44.444620355)
ORLEANS,733232,Store,A,DOLGEN NEW YORK LLC,DOLLAR GENERAL #18377,16669,ROOSEVELT HWY,,,KENDALL,NY,14476,9160,POINT (-78.037529298 43.318603026)
BROOME,733229,Store,A,DOLGEN NEW YORK LLC,DOLLAR GENERAL #18570,2225,AIRPORT RD,,,BINGHAMTON,NY,13905,13500,POINT (-75.985408396 42.192716162)
SARATOGA,733226,Store,A,DOLGEN NEW YORK LLC,DOLLAR GENERAL #16997,51,LEONARD ST,,,GANSEVOORT,NY,12831,3000,POINT (-73.646538059 43.201958241)
NIAGARA,732351,Store,A,DOLGEN NEW YORK LLC,DOLLAR GENERAL #18480,3887,MAPLETON RD,,,NORTH TONAWANDA,NY,14120,7500,POINT (-78.833801886 43.122396126)
MONTGOMERY,732158,Store,A,DOLGEN NEW YORK LLC,DOLLAR GENERAL #18503,201,E MAIN ST,,,AMSTERDAM,NY,12010,9160,POINT (-74.18610011 42.933488103)
CHAUTAUQUA,731678,Store,A,DOLGEN NEW YORK LLC,DOLLAR GENERAL #18496,4884,RTE 430,,,BEMUS POINT,NY,14712,9160,POINT (-79.420735938 42.204041328)
ALLEGANY,731485,Store,A,DOLGEN NEW YORK LLC,DOLLAR GENERAL #17999,8874,ST ROUTE 243,,,RUSHFORD,NY,14777,9217,POINT (-78.243933329 42.389218985)
BROOME,731469,Store,A,DOLGEN NEW YORK LLC,DOLLAR GENERAL #18376,1538,CONKLIN RD,,,CONKLIN,NY,13748,0,POINT (-75.798111416 42.022524677)
CHAUTAUQUA,731468,Store,A,DOLGEN NEW YORK LLC,DOLLAR GENERAL #22154,5817,JAMESTOWN ST,,,SINCLAIRVILLE,NY,14782,9346,POINT (-79.266411103 42.253387814)
CHAUTAUQUA,731467,Store,A,DOLGEN NEW YORK LLC,DOLLAR GENERAL #18261,50,E MAIN ST,,,RIPLEY,NY,14775,7520,POINT (-79.706042008 42.268333795)
CATTARAUGUS,731466,Store,A,DOLGEN NEW YORK LLC,DOLLAR GENERAL #18458,529,PINE ST,,,SOUTH DAYTON,NY,14138,9346,POINT (-79.058207394 42.364727274)
WYOMING,731379,Store,A,DOLGEN NEW YORK LLC,DOLLAR GENERAL #17666,5720,RT 19A,,,CASTILE,NY,14427,3000,POINT (-78.064104877 42.622800708)
KINGS,730633,Store,A,DOLGEN NEW YORK LLC,DOLLAR GENERAL #19215,2027,UTICA AVE,,,BROOKLYN,NY,11234,8000,POINT (-73.927028642 40.622350131)
ONEIDA,730580,Store,A,DOLGEN NEW YORK LLC,DOLLAR GENERAL # 12183,1112,MOHAWK ST,,,UTICA,NY,13501,3000,POINT (-75.222035028 43.091109026)
ORANGE,730579,Store,A,DOLGEN NEW YORK LLC,DOLLAR GENERAL # 17793,1035,ROUTE 209,,,CUDDEBACKVILLE,NY,12729,8000,POINT (-74.593565677 41.463220619)
CATTARAUGUS,730578,Store,A,DOLGEN NEW YORK LLC,DOLLAR GENERAL # 17913,10011,ROUTE 16,,,MACHIAS,NY,14101,9200,POINT (-78.480158746 42.435588177)
FRANKLIN,730577,Store,A,DOLGEN NEW YORK LLC,DOLLAR GENERAL # 17932,116,COUNTY ROUTE 5,,,DICKINSON CENTER,NY,12930,0,POINT (-74.546338215 44.680628974)
NIAGARA,730576,Store,A,DOLGEN NEW YORK LLC,DOLLAR GENERAL # 18375,6408,CAMPBELL BLVD,,,LOCKPORT,NY,14094,0,POINT (-78.769241617 43.116274445)
WESTCHESTER,730575,Store,A,DOLGEN NEW YORK LLC,DOLLAR GENERAL # 19009,205,E 3RD ST,,,MOUNT VERNON,NY,10553,5000,POINT (-73.828032045 40.908516659)
QUEENS,730574,Store,A,DOLGENCORP OF NEW YORK LLC,DOLLAR GENERAL # 19203,3527,31ST ST,,,ASTORIA,NY,11106,0,POINT (-73.928917085 40.757347262)
KINGS,730573,Store,A,DOLGEN NEW YORK LLC,DOLLAR GENERAL # 19212,112,E 98TH ST #126,,,BROOKLYN,NY,11212,2000,POINT (-73.92200059 40.663981703)
KINGS,730571,Store,A,DOLGENCORP OF NEW YORK LLC,DOLLAR GENERAL # 19213,1192,MYRTLE AVE,,,BROOKLYN,NY,11221,15000,POINT (-73.93119889 40.697325836)
KINGS,730570,Store,A,DOLGEN NEW YORK LLC,DOLLAR GENERAL # 19214,1450,ROCKAWAY PARKWAY,,,BROOKLYN,NY,11236,1500,POINT (-73.901879979 40.644685105)
KINGS,730568,Store,A,DOLGENCORP OF NEW YORK LLC,DOLLAR GENERAL # 19216,226,MOTHER GASTON BLVD,,,BROOKLYN,NY,11233,0,POINT (-73.908552916 40.673632333)
QUEENS,730566,Store,A,DOLGEN NEW YORK LLC,DOLLAR GENERAL # 19221,1479,BEACH CHANNEL DR,,,FAR ROCKAWAY,NY,11691,0,POINT (-73.753812338 40.609879829)
ERIE,730565,Store,A,DOLGEN NEW YORK LLC,DOLLAR GENERAL # 19220,41,BUFFALO RD,,,EAST AURORA,NY,14052,11100,POINT (-78.630644166 42.768473617)
FULTON,730564,Store,A,DOLGEN NEW YORK LLC,DOLLAR GENERAL # 19226,200,N COMRIE AVE,,,JOHNSTOWN,NY,12095,5500,POINT (-74.359825614 43.013914643)
MONROE,730563,Store,A,DOLGEN NEW YORK LLC,DOLLAR GENERAL # 19237,529,MONROE AVE,,,ROCHESTER,NY,14607,0,POINT (-77.593129425 43.145948268)
MONROE,730562,Store,A,DOLGEN NEW YORK LLC,DOLLAR GENERAL #19236,2390,LYELL AVE,,,ROCHESTER,NY,14606,0,POINT (-77.690884963 43.165909938)
MONROE,730560,Store,A,DOLGEN NEW YORK LLC,DOLLAR GENERAL # 19235,1004,CULVER RD,,,ROCHESTER,NY,14609,9785,POINT (-77.563792261 43.163451442)
QUEENS,730559,Store,A,DOLGEN NEW YORK LLC,DOLLAR GENERAL # 19234,1815,GATES AVE,,,RIDGEWOOD,NY,11385,2000,POINT (-73.908136 40.703705303)
ONONDAGA,730554,Store,A,DOLGEN NEW YORK LLC,DOLLAR GENERAL # 19245,4141,S SALINA ST,,,SYRACUSE,NY,13205,7000,POINT (-76.141282877 43.008193156)
QUEENS,730553,Store,JAC,DOLGENCORP OF NEWYORK INC,DOLLAR GENERAL # 19222,7134,MYRTLE AVE,,,GLENDALE,NY,11385,5500,POINT (-73.878575961 40.702017984)
ERIE,730551,Store,A,DOLGEN NEW YORK LLC,DOLLAR GENERAL #19223,2391,GRAND ISLAND BLVD,,,GRAND ISLAND,NY,14072,0,POINT (-78.96760575 43.026950995)
MONROE,730549,Store,A,DOLGEN NEW YORK LLC,DOLLAR GENERAL # 19224,4419,DEWEY AVE,,,ROCHESTER,NY,14616,0,POINT (-77.648140778 43.252007171)
QUEENS,730548,Store,A,DOLGEN NEW YORK LLC,DOLLAR GENERAL # 19219,13217,14TH AVE,,,COLLEGE POINT,NY,11356,7000,POINT (-73.83561351 40.787381968)
KINGS,730547,Store,A,DOLGEN NEW YORK LLC,DOLLAR GENERAL # 19218,4602,AVENUE D,,,BROOKLYN,NY,11203,0,POINT (-73.932964622 40.641795895)
KINGS,730545,Store,A,DOLGEN NEW YORK LLC,DOLLAR GENERAL #19217,4118,FARRAGUT RD,,,BROOKLYN,NY,11210,6400,POINT (-73.936950552 40.636773082)
ONONDAGA,730532,Store,A,DOLGEN NEW YORK LLC,DOLLAR GENERAL # 19244,220,S GEDDES ST,,,SYRACUSE,NY,13204,0,POINT (-76.171170229 43.044831545)
RICHMOND,730531,Store,A,DOLGEN NEW YORK LLC,DOLLAR GENERAL # 19243,2264,FOREST AVE,,,STATEN ISLAND,NY,10303,0,POINT (-74.165531087 40.62665931)
RICHMOND,730529,Store,A,DOLGEN NEW YORK LLC,DOLLAR GENERAL # 19242,135,CANAL ST,,,STATEN ISLAND,NY,10304,5000,POINT (-74.078111357 40.626853979)
SUFFOLK,730527,Store,A,DOLGEN NEW YORK LLC,DOLLAR GENERAL # 19238,29,ROCKY POINT YAPHUNK RD,,,ROCKY POINT,NY,11778,0,POINT (-72.94065981 40.942072556)
SUFFOLK,730526,Store,A,DOLGEN NEW YORK LLC,DOLLAR GENERAL # 19240,441,WILLIAM FLOYD PKWY,,,SHIRLEY,NY,11967,13000,POINT (-72.864289834 40.782803646)
FRANKLIN,730525,Store,A,DOLGEN NEW YORK LLC,DOLLAR GENERAL # 19239,245,BROADWAY STE 2,,,SARANAC LAKE,NY,12983,0,POINT (-74.139125074 44.332840636)
QUEENS,730523,Store,A,DOLGEN NEW YORK LLC,DOLLAR GENERAL # 19232,168-42,JAMAICA AVE,,,JAMAICA,NY,11432,8600,POINT (-73.790696903 40.70674412)
QUEENS,730522,Store,A,DOLGEN NEW YORK LLC,DOLLAR GENERAL #19233,11335,SPRINGFIELD BLVD,,,QUEENS VILLAGE,NY,11429,4500,POINT (-73.740380338 40.703161946)
ONONDAGA,730521,Store,A,DOLGEN NEW YORK LLC,DOLLAR GENERAL # 19228,2202,BREWERTON RD,,,MATTYDALE,NY,13211,9994,POINT (-76.144455176 43.0979954)
SUFFOLK,730519,Store,A,DOLGEN NEW YORK LLC,DOLLAR GENERAL #19227,660,N WELLWOOD AVE,,,LINDENHURST,NY,11757,2200,POINT (-73.384956631 40.702887229)
QUEENS,730518,Store,A,DOLGEN NEW YORK LLC,DOLLAR GENERAL # 19225,11205,SUTPHIN BLVD,,,JAMAICA,NY,11435,5000,POINT (-73.794300786 40.68741587)
DUTCHESS,730514,Store,A,DOLGEN NEW YORK LLC,DOLLAR GENERAL # 19230,258,HOOKER AVE,,,POUGHKEEPSIE,NY,12603,2000,POINT (-73.910327868 41.686435715)
QUEENS,730513,Store,A,DOLGEN NEW YORK LLC,DOLLAR GENERAL # 19231,112-12,JAMAICA AVE,,,RICHMOND HILL,NY,11418,0,POINT (-73.835807803 40.697615724)
TOMPKINS,730512,Store,A,DOLGEN NEW YORK LLC,DOLLAR GENERAL # 17711,2124,MECKLENBURG RD,,,ITHACA,NY,14850,0,POINT (-76.633340659 42.451419454)
CHAUTAUQUA,730511,Store,A,DOLGEN NEW YORK LLC,DOLLAR GENERAL # 17678,112,OSBORNE ST,,,SHERMAN,NY,14781,9160,POINT (-79.5943477 42.156296038)
GREENE,730510,Store,A,DOLGEN NEW YORK LLC,DOLLAR GENERAL #17472,3647,RTE 145,,,EAST DURHAM,NY,12423,8000,POINT (-74.143712658 42.393195863)
BRONX,730509,Store,A,DOLGEN NEW YORK LLC,DOLLAR GENERAL # 19211,900,SOUTHERN BLVD,,,BRONX,NY,10459,1500,POINT (-73.892725787 40.81945993)
ST. LAWRENCE,730508,Store,A,DOLGEN NEW YORK LLC,DOLLAR GENERAL # 17684,6,MCLIWEE RD,,,HEUVELTON,NY,13654,10000,POINT (-75.411408374 44.623276095)
BRONX,730507,Store,A,DOLGEN NEW YORK LLC,DOLLAR GENERAL # 19204,1041,PROSPECT AVE,,,BRONX,NY,10459,0,POINT (-73.900141508 40.824936121)
BRONX,730506,Store,A,DOLGEN NEW YORK LLC,DOLLAR GENERAL # 19205,1312,SOUTHER BLVD,,,BRONX,NY,10459,1500,POINT (-73.891233138 40.831187931)
BRONX,730505,Store,A,DOLGEN NEW YORK LLC,DOLLAR GENERAL # 19206,1412,JEROME AVE,,,BRONX,NY,10452,0,POINT (-73.917036911 40.840831646)
BRONX,730503,Store,A,DOLGEN NEW YORK LLC,DOLLAR GENERAL # 19207,2500,WHITE PLAINS RD,,,BRONX,NY,10467,7800,POINT (-73.867221416 40.863405914)
BRONX,730500,Store,A,DOLGEN NEW YORK LLC,DOLLAR GENERAL # 19208,3555,WHITE PLAINS RD,,,BRONX,NY,10467,7500,POINT (-73.865889196 40.878846469)
BRONX,730494,Store,A,DOLGEN NEW YORK LLC,DOLLAR GENERAL STORE #19210,528,JACKSON AVE,,,BRONX,NY,10455,0,POINT (-73.909164795 40.812613634)
ST. LAWRENCE,729527,Store,A,DOLGEN NEW YORK LLC,DOLLAR GENERAL #17768,2776,NYS RT 11B,,,NICHOLVILLE,NY,12965,0,POINT (-74.709946762 44.688978523)
CATTARAUGUS,729525,Store,A,DOLGEN NEW YORK LLC,DOLLAR GENERAL #17674,3545,RT 16,,,HINSDALE,NY,14743,9200,POINT (-78.398945815 42.15228249)
CLINTON,729524,Store,A,DOLGEN NEW YORK LLC,DOLLAR GENERAL #17480,1945,STATE RT 3,,,CADYVILLE,NY,12918,9346,POINT (-73.620060297 44.703682142)
SULLIVAN,729523,Store,A,DOLGEN NEW YORK LLC,DOLLAR GENERAL #16890,37,GLEN WILD RD,,,ROCK HILL,NY,12775,7263,POINT (-74.598206018 41.628714912)
ST. LAWRENCE,729522,Store,A,DOLGEN NEW YORK LLC,DOLLAR GENERAL #17784,4906,NYS RT 56,,,COLTON,NY,13625,0,POINT (-74.944700401 44.557501122)
LEWIS,729489,Store,A,DOLGEN NEW YORK LLC,DOLLAR GENERAL #17843,9680,STATE RT 812,,,CROGHAN,NY,13327,9160,POINT (-75.390342472 43.888920836)
SARATOGA,729106,Store,A,DOLGEN NEW YORK LLC,DOLLAR GENERAL #16423,44,SPRING ST,,,SCHUYLERVILLE,NY,12871,5000,POINT (-73.585658704 43.104849659)
OTSEGO,728903,Store,A,DOLGEN NEW YORK LLC,DOLLAR GENERAL #17580,1975,STATE ROUTE 80,,,EDMESTON,NY,13335,0,POINT (-75.221189547 42.700528988)
RENSSELAER,728902,Store,A,DOLGEN NEW YORK LLC,DOLLAR GENERAL #17476,18322,NYS ROUTE 22,,,BERLIN,NY,12022,0,POINT (-73.374177419 42.697026316)
CLINTON,728901,Store,A,DOLGEN NEW YORK LLC,DOLLAR GENERAL #17063,7143,ROUTE 9,,,PLATTSBURGH,NY,12901,9160,POINT (-73.436096801 44.727135755)
SCHOHARIE,728900,Store,A,DOLGEN NEW YORK LLC,DOLLAR GENERAL #16110,393,MAIN STREET,,,RICHMONDVILLE,NY,12149,9000,POINT (-74.553276168 42.636543174)
DELAWARE,728623,Store,A,DOLGEN NEW YORK LLC,DOLLAR GENERAL #17621,36558,ROUTE 23,,,GRAND GORGE,NY,12434,0,POINT (-74.50411597 42.368090177)
GREENE,728622,Store,A,DOLGEN NEW YORK LLC,DOLLAR GENERAL #16252,6459,NYS 23A,,,TANNERSVILLE,NY,12485,9346,POINT (-74.154488181 42.19369718)
NIAGARA,728621,Store,A,DOLGEN NEW YORK LLC,DOLLAR GENERAL #18074,6726,TRANSIT RD,,,LOCKPORT,NY,14094,0,POINT (-78.697671312 43.102303489)
DUTCHESS,728620,Store,A,DOLGEN NEW YORK LLC,DOLLAR GENERAL #16664,3059,NYS ROUTE 22,,,DOVER PLAINS,NY,12522,8000,POINT (-73.581488455 41.733830893)
CAYUGA,725933,Store,A,DOLGEN NEW YORK LLC,DOLLAR GENERAL #17989,72,UTICA ST,,,PORT BYRON,NY,13140,7200,POINT (-76.622851964 43.03474602)
CATTARAUGUS,725533,Store,A,DOLGENCORP OF NEW YORK INC,DOLLAR GENERAL #17246,5442,NYS RT 353,,,LITTLE VALLEY,NY,14755,9100,POINT (-78.779480028 42.242620421)
ALBANY,725467,Store,A,DOLGEN NEW YORK LLC,DOLLAR GENERAL 16872,1939,CENTRAL AVE,,,ALBANY,NY,12205,5500,POINT (-73.856759575 42.738680676)
STEUBEN,725466,Store,A,DOLGEN NEW YORK LLC,DOLLAR GENERAL #17267,95,S MAIN ST,,,AVOCA,NY,14809,0,POINT (-77.419807342 42.401003103)
BROOME,725134,Store,A,DOLGEN NEW YORK LLC,DOLLAR GENERAL #17006,599,KENT STREET,,,WINDSOR,NY,13865,9200,POINT (-75.642513454 42.070976101)
JEFFERSON,725026,Store,A,DOLGEN NEW YORK LLC,DOLLAR GENERAL STORE #17286,17953,COUNTY RT 75,,,SACKETS HARBOR,NY,13685,9400,POINT (-76.108409853 43.927504851)
TOMPKINS,725025,Store,A,DOLGEN NEW YORK LLC,DOLLAR GENERAL #16838,1989,EAST SHORE DRIVE,,,LANSING,NY,14882,0,POINT (-76.501756178 42.532707528)
OTSEGO,724830,Store,A,DOLGEN NEW YORK LLC,DOLLAR GENERAL #17787,318,MAIN ST,,,WORCESTER,NY,12197,9160,POINT (-74.734402893 42.595511243)
WASHINGTON,724826,Store,A,DOLGEN NEW YORK LLC,DOLLAR GENERAL #17062,11350,NYS RT 149,,,FORT ANN,NY,12827,9160,POINT (-73.494331331 43.414105844)
SULLIVAN,724824,Store,A,DOLGEN NEW YORK LLC,DOLLAR GENERAL #16523,100,MAIN ST,,,LIVINGSTON MANOR,NY,12758,9217,POINT (-74.831378746 41.898778156)
OTSEGO,724300,Store,A,DOLGEN NEW YORK LLC,DOLLAR GENERAL #17655,99,MAIN ST,,,MORRIS,NY,13808,0,POINT (-75.247937793 42.547699191)
NIAGARA,724298,Store,A,DOLGEN NEW YORK LLC,DOLLAR GENERAL #17234,4835,MILITARY ROAD,,,NIAGARA FALLS,NY,14305,0,POINT (-79.00689288 43.130580426)
CLINTON,724205,Store,A,DOLGEN NEW YORK LLC,DOLLAR GENERAL #17064,9775,RT 9,,,CHAZY,NY,12921,0,POINT (-73.437352578 44.896991376)
ULSTER,724204,Store,A,DOLGEN NEW YORK LLC,DOLLAR GENERAL #17103,1280,RT 32,,,WALLKILL,NY,12589,9000,POINT (-74.07532999 41.616443387)
GENESEE,723753,Store,A,DOLGEN NEW YORK LLC,DOLLAR GENERAL #16948,9195,ALLEGHANY RD,,,CORFU,NY,14036,8000,POINT (-78.405656534 42.967160974)
WASHINGTON,723014,Store,A,DOLGEN NEW YORK LLC,DOLLAR GENERAL #16472,1085,STATE RT 197,,,ARGYLE,NY,12809,7400,POINT (-73.492474278 43.24245588)
ST. LAWRENCE,723013,Store,A,DOLGEN NEW YORK LLC,DOLLAR GENERAL #16847,635,RT 11C,,,WINTHROP,NY,13697,0,POINT (-74.788479747 44.793410541)
CAYUGA,723012,Store,A,DOLGEN NEW YORK LLC,DOLLAR GENERAL #16610,2504,W MAIN ST,,,CATO,NY,13033,9200,POINT (-76.574626182 43.167731619)
WARREN,723011,Store,A,DOLGEN NEW YORK LLC,DOLLAR GENERAL #16739,6123,STATE RT 8,,,CHESTERTOWN,NY,12817,9111,POINT (-73.785379005 43.663921428)
CHEMUNG,722844,Store,A,DOLGEN NEW YORK LLC,DOLLAR GENERAL#16566,656,MAIN STREET,,,BREESPORT,NY,14816,0,POINT (-76.735035776 42.173100371)
JEFFERSON,722843,Store,A,DOLGEN NEW YORK LLC,DOLLAR GENERAL #16606,27531,WILSON ROAD,,,THERESA,NY,13691,0,POINT (-75.821415672 44.222800915)
LIVINGSTON,722825,Store,A,DOLGEN NEW YORK LLC,DOLLAR GENERAL #16318,8079,SOUTH MAIN STREET,,,SPRINGWATER,NY,14560,0,POINT (-77.597189368 42.632213334)
SULLIVAN,722689,Store,A,DOLGEN NEW YORK LLC,DOLLAR GENERAL #15950,585,STATE RT 55,,,ELDRED,NY,12732,8000,POINT (-74.884450023 41.527684145)
ULSTER,722525,Store,A,DOLGEN NEW YORK LLC,DOLLAR GENERAL #17514,3110,ROUTE 28,,,SHOKAN,NY,12481,4000,POINT (-74.20592155 41.974347258)
CLINTON,721056,Store,A,DOLGEN NEW YORK LLC,DOLLAR GENERAL #15842,6905,RT 22,,,PLATTSBURGH,NY,12901,0,POINT (-73.492416904 44.770401253)
NIAGARA,720933,Store,A,DOLGEN NEW YORK LLC,DOLLAR GENERAL #16268,3661,RANSOMVILLE ROAD,,,RANSOMVILLE,NY,14131,7272,POINT (-78.90887524 43.236330917)
SCHENECTADY,719899,Store,A,DOLGEN NEW YORK LLC,DOLLAR GENERAL #16215,3985,STATE HWY 30,,,ESPERANCE,NY,12066,3000,POINT (-74.246838565 42.760323725)
GENESEE,719896,Store,A,DOLGEN NEW YORK LLC,DOLLAR GENERAL #16178,7067,BIG TREE RD,,,PAVILION,NY,14525,6000,POINT (-78.013279698 42.869641931)
FRANKLIN,719892,Store,A,DOLGEN NEW YORK LLC,DOLLAR GENERAL #16269,884,STATE RT 11,,,MOIRA,NY,12957,3,POINT (-74.548297066 44.82095645)
ST. LAWRENCE,719871,Store,A,DOLGEN NEW YORK LLC,DOLLAR GENERAL #16163,57,SOUTH MAIN STREET,,,NORWOOD,NY,13668,0,POINT (-74.992881508 44.745113847)
CHAUTAUQUA,719291,Store,A,DOLGEN NEW YORK LLC,DOLLAR GENERAL # 16085,8026,ROUTE 60 N,,,CASSADAGA,NY,14718,9100,POINT (-79.31063503 42.350576903)
OSWEGO,719272,Store,A,DOLGEN NEW YORK LLC,DOLLAR GENERAL #16000,8,COLUMBIA AVENUE,,,OSWEGO,NY,13126,10000,POINT (-76.475262156 43.400319542)
FULTON,719162,Store,A,DOLGEN NEW YORK LLC,DOLLAR GENERAL #15744,2480,STATE HIGHWAY 30,,,MAYFIELD,NY,12117,7195,POINT (-74.268656324 43.109427855)
SARATOGA,719075,Store,A,DOLGEN NEW YORK LLC,DOLLAR GENERAL #15734,162,W MILTON RD,,,BALLSTON SPA,NY,12020,0,POINT (-73.928079146 43.036866222)
NIAGARA,719074,Store,A,DOLGEN NEW YORK LLC,DOLLAR GENERAL #15739,4201,CARMEN RD,,,MIDDLEPORT,NY,14105,0,POINT (-78.489936236 43.205978956)
STEUBEN,719073,Store,A,DOLGEN NEW YORK LLC,DOLLAR GENERAL #15759,4,W LAMOKA AVE,,,SAVONA,NY,14879,0,POINT (-77.219837009 42.28917787)
ONEIDA,718996,Store,A,DOLGEN NEW YORK LLC,DOLLAR GENERAL STORE #15735,4120,STATE RTE 69,,,TABERG,NY,13471,0,POINT (-75.615395399 43.297117275)
ST. LAWRENCE,718995,Store,A,DOLGEN NEW YORK LLC,DOLLAR GENERAL #15824,11997,STATE HWY 37,,,WADDINGTON,NY,13694,0,POINT (-75.218180779 44.85794625)
TIOGA,718993,Store,A,DOLGEN NEW YORK LLC,DOLLAR GENERAL #16036,1140,OWEGO RD,,,CANDOR,NY,13743,0,POINT (-76.311838429 42.165395503)
WARREN,718991,Store,A,DOLGEN NEW YORK LLC,DOLLAR GENERAL #14999,61,MAIN ST,,,QUEENSBURY,NY,12804,0,POINT (-73.669526434 43.300290999)
BROOME,718989,Store,A,DOLGEN NEW YORK LLC,DOLLAR GENERAL #15675,29,NORTH RD,,,WINDSOR,NY,13865,0,POINT (-75.757680049 42.09611632)
ULSTER,718029,Store,A,DOLGEN NEW YORK LLC,DOLLAR GENERAL #14385,6280,RT 209,,,KERHONKSON,NY,12446,9300,POINT (-74.297188657 41.7768907)
FRANKLIN,717878,Store,A,DOLGEN NEW YORK LLC,DOLLAR GENERAL 15825,2301,STATE RT 37,,,FORT COVINGTON,NY,12937,0,POINT (-74.510976139 44.983566294)
CHAUTAUQUA,717606,Store,A,DOLGEN NEW YORK LLC,DOLLAR GENERAL #16063,54,W MAIN ST,,,BROCTON,NY,14716,9339,POINT (-79.443523148 42.387482632)
GREENE,717599,Store,A,DOLGEN NEW YORK LLC,DOLLAR GENERAL #15881,729,RT 32A,,,PALENVILLE,NY,12463,0,POINT (-74.019827626 42.17424207)
DUTCHESS,717457,Store,A,DOLGEN NEW YORK LLC,DOLLAR GENERAL #15147,1049,VIOLET AVE,,,HYDE PARK,NY,12538,0,POINT (-73.914033675 41.784157516)
SULLIVAN,716799,Store,A,DOLGEN NEW YORK LLC,DOLLAR GENERAL #15815,4984,ST RT 52,,,JEFFERSONVILLE,NY,12748,0,POINT (-74.941404553 41.775361338)
ORANGE,716798,Store,A,DOLGEN NEW YORK LLC,DOLLAR GENERAL #15087,1170,ST RT 17K,,,MONTGOMERY,NY,12549,0,POINT (-74.217141398 41.526236716)
WASHINGTON,716206,Store,A,DOLGEN NEW YORK LLC,DOLLAR GENERAL #16176,1251,RT 29,,,GREENWICH,NY,12834,11560,POINT (-73.508295246 43.09782487)
ONONDAGA,715868,Store,A,DOLGEN NEW YORK LLC,DOLLAR GENERAL #15408,6523,COLLAMER RD/ ROUTE 298,,,EAST SYRACUSE,NY,13057,9100,POINT (-76.069653396 43.103205088)
ONTARIO,715563,Store,A,DOLGEN NEW YORK LLC,DOLLAR GENERAL 15283,7463,RT 5 & 20,,,BLOOMFIELD,NY,14469,0,POINT (-77.441848446 42.896753069)
SARATOGA,714399,Store,A,DOLGEN NEW YORK LLC,DOLLAR GENERAL #15552,1,DOMINIC DR,,,BALLSTON SPA,NY,12020,0,POINT (-73.851259422 42.98665791)
MADISON,714397,Store,A,DOLGEN NEW YORK LLC,DOLLAR GENERAL #15844,34,W MAIN ST RT 20,,,MORRISVILLE,NY,13408,0,POINT (-75.649537572 42.899608702)
ERIE,714395,Store,A,DOLGEN NEW YORK LLC,DOLLAR GENERAL #15900,244,FOREST AVE,,,BUFFALO,NY,14213,7000,POINT (-78.889814456 42.927960741)
CLINTON,714319,Store,A,DOLGEN NEW YORK LLC,DOLLAR GENERAL #15350,5602,RT 11,,,ELLENBURG CENTER,NY,12934,7200,POINT (-73.843402981 44.892441176)
SULLIVAN,714222,Store,A,DOLGEN NEW YORK LLC,DOLLAR GENERAL 15110,3282,ROUTE 209,,,WURTSBORO,NY,12790,91585,POINT (-74.478010456 41.584409)
ORLEANS,713654,Store,A,DOLGEN NEW YORK LLC,DOLLAR GENERAL #15417,11349,RIDGE RD,,,MEDINA,NY,14103,900,POINT (-78.38926807 43.267430753)
COLUMBIA,713653,Store,A,DOLGEN NEW YORK LLC,DOLLAR GENERAL #14942,3067,ST HWY 9,,,VALATIE,NY,12184,9300,POINT (-73.687703765 42.434716584)
SCHOHARIE,713615,Store,A,DOLGEN NEW YORK LLC,DOLLAR GENERAL #14952,681,ROUTE 20,,,SHARON SPRINGS,NY,13459,9158,POINT (-74.608136236 42.785723548)
SULLIVAN,713614,Store,A,DOLGEN NEW YORK LLC,DOLLAR GENERAL #14958,5687,STATE ROUTE 42,,,FALLSBURG,NY,12733,9339,POINT (-74.605819972 41.731548794)
ONONDAGA,713613,Store,A,DOLGEN NEW YORK LLC,DOLLAR GENERAL #14963,922,STATE FAIR BLVD,,,GEDDES,NY,13209,7000,POINT (-76.24421357 43.095910695)
OTSEGO,713612,Store,A,DOLGEN NEW YORK LLC,DOLLAR GENERAL #14992,91,MAIN ST,,,OTEGO,NY,13825,9158,POINT (-75.192477254 42.386665103)
ULSTER,713330,Store,A,DOLGEN NEW YORK LLC,DOLLAR GENERAL #14739,954,ROUTE 28,,,KINGSTON,NY,12401,6000,POINT (-74.085379222 41.983611985)
ONEIDA,712821,Store,A,DOLGEN NEW YORK LLC,DOLLAR GENERAL #15168,9501,US ROUTE 20,,,BRIDGEWATER,NY,13313,0,POINT (-75.257546967 42.879160839)
ERIE,712819,Store,A,DOLGEN NEW YORK LLC,DOLLAR GENERAL #14978,122,S MAIN ST,,,HOLLAND,NY,14080,9111,POINT (-78.538097981 42.639225886)
WAYNE,712243,Store,A,DOLGEN NEW YORK LLC,DOLLAR GENERAL #15522,1250,RT 104,,,ONTARIO,NY,14519,7798,POINT (-77.320139724 43.225605811)
ERIE,712222,Store,A,DOLGEN NEW YORK LLC,DOLLAR GENERAL #14886,663,E FERRY ST,,,BUFFALO,NY,14211,2500,POINT (-78.836662629 42.914232986)
OTSEGO,712219,Store,A,DOLGEN NEW YORK LLC,DOLLAR GENERAL #14993,4892,ST HWY 28,,,COOPERSTOWN,NY,13326,9158,POINT (-74.957988986 42.660083581)
GENESEE,712082,Store,A,DOLGEN NEW YORK LLC,DOLLAR GENERAL 14869,111,N MAIN ST,,,OAKFIELD,NY,14125,7200,POINT (-78.275736029 43.069783465)
SARATOGA,711740,Store,A,DOLGEN NEW YORK LLC,DOLLAR GENERAL #14704,6367,RT 9N,,,HADLEY,NY,12835,10000,POINT (-73.833667065 43.299765663)
ULSTER,711734,Store,A,DOLGEN NEW YORK LLC,DOLLAR GENERAL #14360,,2419 RT 52,,,PINE BUSH,NY,12566,9339,POINT (-74.299665 41.608545)
ORANGE,710940,Store,A,DOLGEN NEW YORK LLC,DOLLAR GENERAL #14171,1065,STATE ROUTE 52,,,WALDEN,NY,12586,6000,POINT (-74.173651235 41.562764334)
ONEIDA,710603,Store,A,DOLGEN NEW YORK LLC,DOLLAR GENERAL 14466,9070,RT 365,,,HOLLAND PATENT,NY,13354,5000,POINT (-75.28664693 43.233349851)
STEUBEN,710490,Store,A,DOLGEN NEW YORK LLC,DOLLAR GENERAL #14692,75,S MAIN ST,,,PRATTSBURGH,NY,14873,8000,POINT (-77.288990651 42.518256922)
ERIE,710054,Store,A,DOLGEN NEW YORK LLC,DOLLAR GENERAL #8338,25,GARDENVILLE PKWY,,,W SENECA,NY,14224,9000,POINT (-78.755177287 42.864819529)
DUTCHESS,709396,Store,A,DOLGEN NEW YORK LLC,DOLLAR GENERAL #14980,534,MAIN ST,,,POUGHKEEPSIE,NY,12601,0,POINT (-73.917111845 41.700179103)
ONEIDA,709395,Store,A,DOLGEN NEW YORK LLC,DOLLAR GENERAL #14421,1700,ERIE ST,,,UTICA,NY,13502,0,POINT (-75.255716663 43.109949629)
ERIE,709110,Store,A,DOLGEN NEW YORK LLC,DOLLAR GENERAL #14652,1618,MAIN ST,,,BUFFALO,NY,14209,0,POINT (-78.862823722 42.917501299)
NIAGARA,709067,Store,A,DOLGEN NEW YORK LLC,DOLLAR GENERAL #14797,686,LAKE ST RT 425,,,WILSON,NY,14172,9200,POINT (-78.825178835 43.296305488)
SENECA,709066,Store,A,DOLGEN NEW YORK LLC,DOLLAR GENERAL #6429,2173,ROUTE 96A,,,OVID,NY,14521,0,POINT (-76.821491712 42.680780418)
ERIE,709063,Store,A,DOLGEN NEW YORK LLC,DOLLAR GENERAL #14802,10607,ERIE RD,,,FARNHAM,NY,14061,8704,POINT (-79.091249359 42.59362653)
CATTARAUGUS,709062,Store,A,DOLGEN NEW YORK LLC,DOLLAR GENERAL #14922,24,NORTH 1ST STREET,,,ALLEGANY,NY,14706,2200,POINT (-78.498976956 42.095122897)
OSWEGO,708998,Store,A,DOLGEN NEW YORK LLC,DOLLAR GENERAL #14586,3091,COUNTY ROUTE 26,,,PARISH,NY,13131,8500,POINT (-76.114369508 43.404190011)
FULTON,708993,Store,A,DOLGEN NEW YORK LLC,DOLLAR GENERAL #14669,111,BELLEN RD,,,BROADALBIN,NY,12025,9000,POINT (-74.211907738 43.047975806)
WAYNE,708896,Store,A,DOLGEN NEW YORK LLC,DOLLAR GENERAL #14440,3838,WALWORTH MARION RD,,,MARION,NY,14505,10000,POINT (-77.197059367 43.145888437)
TOMPKINS,708891,Store,A,DOLGEN NEW YORK LLC,DOLLAR GENERAL #14064,169,NORTH ST,,,DRYDEN,NY,13053,0,POINT (-76.298983188 42.502352843)
CLINTON,708232,Store,A,DOLGEN NEW YORK LLC,DOLLAR GENERAL #14201,4989,SOUTH CATHERINE ST,,,PLATTSBURGH,NY,12901,9339,POINT (-73.458550495 44.688690647)
ONTARIO,708231,Store,A,DOLGEN NEW YORK LLC,DOLLAR GENERAL #14405,194,NORTH EXCHANGE ST,,,GENEVA,NY,14456,0,POINT (-76.977355926 42.882953022)
WYOMING,708209,Store,A,DOLGEN NEW YORK LLC,DOLLAR GENERAL #8085,80,SOUTH MAIN ST RT 19,,,WARSAW,NY,14569,6000,POINT (-78.132379669 42.738518162)
SULLIVAN,707838,Store,A,DOLGEN NEW YORK LLC,DOLLAR GENERAL #14321,1334,ST RT 17B,,,WHITE LAKE,NY,12786,10000,POINT (-74.815228328 41.675288538)
ERIE,707428,Store,A,DOLGEN NEW YORK LLC,DOLLAR GENERAL #14742,437,TONAWANDA ST,,,BUFFALO,NY,14207,7500,POINT (-78.898486793 42.941460969)
ULSTER,707426,Store,A,DOLGEN NEW YORK LLC,DOLLAR GENERAL #14176,1973,ULSTER AVE RT 9W,,,LAKE KATRINE,NY,12449,9300,POINT (-73.986685581 41.99096283)
ERIE,707425,Store,A,DOLGEN NEW YORK LLC,DOLLAR GENERAL #8362,804,WEHRLE DR,,,AMHERST,NY,14221,7300,POINT (-78.753872476 42.949923758)
RENSSELAER,704650,Store,A,DOLGEN NEW YORK LLC,DOLLAR GENERAL #13920,21428,ST ROUTE 22,,,HOOSICK FALLS,NY,12090,9340,POINT (-73.359981493 42.890316273)
ERIE,704163,Store,A,DOLGEN NEW YORK LLC,DOLLAR GENERAL #13797,7169,BOSTON ST RD,,,HAMBURG,NY,14075,4000,POINT (-78.757507767 42.678033695)
SCHOHARIE,704152,Store,A,DOLGEN NEW YORK LLC,DOLLAR GENERAL #13422,4503,NY 30,,,MIDDLEBURGH,NY,12122,9200,POINT (-74.337838122 42.612717698)
ULSTER,703903,Store,A,DOLGEN NEW YORK LLC,DOLLAR GENERAL #13782,1985,ROUTE 32,,,MODENA,NY,12548,7500,POINT (-74.113301772 41.659704485)
CHENANGO,703429,Store,A,DOLGEN NEW YORK LLC,DOLLAR GENERAL STORE # 13554,5013,SR 8,,,NEW BERLIN,NY,13411,0,POINT (-75.332622423 42.634787291)
YATES,570125,Store,A,DOLGEN NEW YORK LLC,DOLLAR GENERAL #10301,16,SENECA ST,,,DUNDEE,NY,14837,8500,POINT (-76.975783648 42.523835996)
YATES,570107,Store,A,DOLGEN NEW YORK LLC,DOLLAR GENERAL 6948,252,LAKE ST PLAZA,,,PENN YAN,NY,14527,7400,POINT (-77.058739931 42.653482279)
WYOMING,560080,Store,A,DOLGEN NEW YORK LLC,DOLLAR GENERAL 9726,201,S MAIN ST,,,PERRY,NY,14530,7000,POINT (-78.010695138 42.71125992)
WESTCHESTER,552813,Store,A,DOLGEN NEW YORK LLC,DOLLAR GENERAL #12866,807,WASHINGTON ST,,,PEEKSKILL,NY,10566,9500,POINT (-73.926885898 41.276552058)
WAYNE,540205,Store,A,DOLGEN NEW YORK LLC,DOLLAR GENERAL #11148,110,WAYNE AVE,,,CLYDE,NY,14433,7130,POINT (-76.868196138 43.087995538)
WAYNE,540182,Store,A,DOLGEN NEW YORK LLC,DOLLAR GENERAL #10071,7269,RIDGE RD,,,SODUS,NY,14551,8000,POINT (-77.037626084 43.230125417)
WAYNE,540155,Store,A,DOLGEN NEW YORK LLC,DOLLAR GENERAL 6125,6010,NEW HARTFORD ST,,,WOLCOTT,NY,14590,0,POINT (-76.8146543 43.219573355)
WAYNE,540140,Store,A,DOLGEN NEW YORK LLC,DOLLAR GENERAL 9109,3906,RT 104 PO BOX 181,,,WILLIAMSON,NY,14589,6100,POINT (-77.195080846 43.232588486)
WAYNE,540136,Store,A,DOLGEN NEW YORK LLC,DOLLAR GENERAL 8440,604,E MAIN ST,,,PALMYRA,NY,14522,6000,POINT (-77.223304686 43.06284723)
WAYNE,540135,Store,A,DOLGEN NEW YORK LLC,DOLLAR GENERAL 8643,204,W MILLER ST,,,NEWARK,NY,14513,10000,POINT (-77.098139483 43.045604334)
WASHINGTON,530135,Store,A,DOLGEN NEW YORK LLC,DOLLAR GENERAL #10980,180,BROADWAY,,,WHITEHALL,NY,12887,3000,POINT (-73.406083618 43.547294092)
WASHINGTON,530126,Store,A,DOLGEN NEW YORK LLC,DOLLAR GENERAL #10882,1133,STATE RT 22,,,CAMBRIDGE,NY,12816,7000,POINT (-73.37836309 43.018699034)
WASHINGTON,530085,Store,A,DOLGEN NEW YORK LLC,DOLLAR GENERAL 6184,87,QUAKER ST,,,GRANVILLE,NY,12832,3000,POINT (-73.267012608 43.398426447)
WASHINGTON,530077,Store,A,DOLGEN NEW YORK LLC,DOLLAR GENERAL #9556,343,MAIN ST,,,HUDSON FALLS,NY,12839,5000,POINT (-73.578450351 43.31358059)
ULSTER,510809,Store,A,DOLGEN NEW YORK LLC,DOLLAR GENERAL #12597,1155,RT 32,,,ROSENDALE,NY,12472,8000,POINT (-74.075970703 41.848939653)
ULSTER,510776,Store,A,DOLGEN NEW YORK LLC,DOLLAR GENERAL #12050,130,BROADWAY US 9W,,,PORT EWEN,NY,12466,5000,POINT (-73.978921005 41.909808699)
ULSTER,510571,Store,A,DOLGEN NEW YORK LLC,DOLLAR GENERAL # 7698,363,FOXHALL AVE,,,KINGSTON,NY,12401,5000,POINT (-74.000364092 41.937992346)
ULSTER,510531,Store,A,DOLGEN NEW YORK LLC,DOLLAR GENERAL 5736,2,"RIVERVIEW DR, STE 4",,,MARLBORO,NY,12542,6000,POINT (-73.963833244 41.615918428)
ULSTER,510500,Store,A,DOLGEN NEW YORK LLC,DOLLAR GENERAL #6514,3139,RT 9W,,,SAUGERTIES,NY,12477,7500,POINT (-73.954671656 42.057536054)
ULSTER,510493,Store,A,DOLGEN NEW YORK LLC,DOLLAR GENERAL STR 9531,114,S MAIN ST,,,ELLENVILLE,NY,12428,7000,POINT (-74.395844664 41.716409527)
TOMPKINS,500181,Store,A,DOLGEN NEW YORK LLC,DOLLAR GENERAL #10064,9814,RT 96,,,TRUMANSBURG,NY,14886,3000,POINT (-76.67529309 42.548821695)
TIOGA,490078,Store,A,DOLGEN NEW YORK LLC,DOLLAR GENERAL # 10153,65,E RIVER RD,,,NICHOLS,NY,13812,0,POINT (-76.365874967 42.021138939)
TIOGA,490064,Store,A,DOLGEN NEW YORK LLC,DOLLAR GENERAL 6065,575,BROAD ST,,,WAVERLY,NY,14892,0,POINT (-76.528464023 42.002461335)
TIOGA,490056,Store,A,DOLGEN NEW YORK LLC,DOLLAR GENERAL 9051,1147,NYS RT 17C,,,OWEGO,NY,13827,3000,POINT (-76.231441142 42.097736542)
SULLIVAN,480273,Store,A,DOLGEN NEW YORK LLC,DOLLAR GENERAL 6295,1860,ST RT 52,,,LIBERTY,NY,12754,2500,POINT (-74.713369429 41.782006636)
STEUBEN,460239,Store,A,DOLGEN NEW YORK LLC,DOLLAR GENERAL 7420,7078,STATE RTE 415,,,BATH,NY,14810,8700,POINT (-77.338444794 42.344210638)
STEUBEN,460207,Store,A,DOLGEN NEW YORK LLC,DOLLAR GENERAL #10186,187,MAIN ST,,,HORNELL,NY,14843,8000,POINT (-77.658811695 42.326358148)
STEUBEN,460203,Store,A,DOLGEN NEW YORK LLC,DOLLAR GENERAL # 7505,7183,ST RT 54 STE 101,,,BATH,NY,14810,9100,POINT (-77.307944557 42.350730417)
STEUBEN,460181,Store,A,DOLGEN NEW YORK LLC,DOLLAR GENERAL 6795,82,VICTORY HWY,,,PAINTED POST,NY,14870,6600,POINT (-77.10103778 42.170335181)
STEUBEN,460164,Store,A,DOLGEN NEW YORK LLC,DOLLAR GENERAL 9732,303,N LACKAWANNA ST,,,WAYLAND,NY,14572,7100,POINT (-77.590069025 42.573822356)
STEUBEN,460153,Store,A,DOLGEN NEW YORK LLC,DOLLAR GENERAL 9419,20,TUSCARORA ST,,,ADDISON,NY,14801,8500,POINT (-77.235655001 42.103731154)
STEUBEN,460131,Store,A,DOLGEN NEW YORK LLC,DOLLAR GENERAL 8446,54B,W MAIN ST,,,CANISTEO,NY,14823,6600,POINT (-77.606614147 42.274955205)
STEUBEN,460120,Store,A,DOLGEN NEW YORK LLC,DOLLAR GENERAL 8149,7451,SENECA RD N,,,HORNELL,NY,14843,8900,POINT (-77.666310984 42.3611451)
SENECA,450094,Store,A,DOLGEN NEW YORK LLC,DOLLAR GENERAL #6841,1328,WATERLOO GENEVA RD,,,WATERLOO,NY,13165,6900,POINT (-76.876773255 42.903192888)
SCHUYLER,440061,Store,A,DOLGEN NEW YORK LLC,DOLLAR GENERAL 6915,142,N CATHERINE ST,,,MONTOUR FALLS,NY,14865,0,POINT (-76.845954291 42.349900691)
SCHOHARIE,430064,Store,A,DOLGEN NEW YORK LLC,DOLLAR GENERAL 7491,813,E MAIN ST,,,COBLESKILL,NY,12043,4000,POINT (-74.473255144 42.680912694)
SCHENECTADY,420277,Store,A,DOLGEN NEW YORK LLC,DOLLAR GENERAL #6270,154,SAGANDAGA RD,,,SCOTIA,NY,12302,7200,POINT (-73.970757515 42.834399659)
SCHENECTADY,420203,Store,A,DOLGEN NEW YORK LLC,DOLLAR GENERAL 8895,1008,STATE ST,,,SCHENECTADY,NY,12307,6000,POINT (-73.929389853 42.80275319)
SARATOGA,410486,Store,A,DOLGEN NEW YORK LLC,DOLLAR GENERAL #12932,104,SARATOGA AVE,,,S GLENS FALLS,NY,12803,9000,POINT (-73.637857844 43.291329235)
SARATOGA,410438,Store,A,DOLGEN NEW YORK LLC,DOLLAR GENERAL #11706,1,PRICE CHOPPER PLAZA,,,MECHANICVILLE,NY,12118,8900,POINT (-73.684279003 42.910122333)
SARATOGA,410291,Store,A,DOLGEN NEW YORK LLC,DOLLAR GENERAL 6872,417,PALMER AVE,,,CORINTH,NY,12822,7000,POINT (-73.819785711 43.246039214)
SARATOGA,410206,Store,A,DOLGEN NEW YORK LLC,DOLLAR GENERAL 8576,772,SARATOGA RD,,,BURNT HILLS,NY,12027,1500,POINT (-73.90283267 42.904709672)
ST. LAWRENCE,400309,Store,A,DOLGEN NEW YORK LLC,DOLLAR GENERAL #10656,124,W MAIN ST,,,GOVERNEUR,NY,13642,0,POINT (-75.474810682 44.333963853)
ST. LAWRENCE,400230,Store,A,DOLGEN NEW YORK LLC,DOLLAR GENERAL 6066,232,N MAIN ST,,,MASSENA,NY,13662,0,POINT (-74.900179419 44.942878063)
ST. LAWRENCE,400215,Store,A,DOLGEN NEW YORK LLC,DOLLAR GENERAL 9559,2,MALBY AVE,,,MASSENA,NY,13662,9300,POINT (-74.876750575 44.926998087)
ST. LAWRENCE,400213,Store,A,DOLGEN NEW YORK LLC,DOLLAR GENERAL 9582,5933,NYS HWY 11,,,CANTON,NY,13617,6500,POINT (-75.145080639 44.598484695)
ST. LAWRENCE,400212,Store,A,DOLGEN NEW YORK LLC,DOLLAR GENERAL 9558,7669,STATE HWY 68,,,OGDENSBURG,NY,13669,6161,POINT (-75.474187823 44.689319415)
OTSEGO,360170,Store,A,DOLGEN NEW YORK LLC,DOLLAR GENERAL #10942,188,E MAIN ST,,,RICHFIELD SPRINGS,NY,13439,8000,POINT (-74.981105437 42.852306563)
OTSEGO,360161,Store,A,DOLGEN NEW YORK LLC,DOLLAR GENERAL #10652,76,CHESTNUT ST,,,ONEONTA,NY,13820,2500,POINT (-75.065646654 42.454487985)
OSWEGO,350252,Store,A,DOLGEN NEW YORK LLC,DOLLAR GENERAL #11152,952,CAYUGA ST,,,HANNIBAL,NY,13074,8000,POINT (-76.578531897 43.319317248)
OSWEGO,350227,Store,A,DOLGEN NEW YORK LLC,DOLLAR GENERAL #10640,6124,N MAIN ST,,,SANDY CREEK,NY,13145,7000,POINT (-76.084575027 43.647518295)
OSWEGO,350209,Store,A,DOLGEN NEW YORK LLC,DOLLAR GENERAL STR 6437,3391,MAIN ST,,,MEXICO,NY,13114,7400,POINT (-76.240644807 43.459710438)
OSWEGO,350164,Store,A,DOLGEN NEW YORK LLC,DOLLAR GENERAL #6029,1573,STATE RT 49,,,CONSTANTIA,NY,13044,7100,POINT (-76.012585375 43.251506101)
OSWEGO,350132,Store,A,DOLGEN NEW YORK LLC,DOLLAR GENERAL 8596,126,CAYUGA ST,,,FULTON,NY,13069,5700,POINT (-76.416449107 43.324025112)
OSWEGO,350124,Store,A,DOLGEN NEW YORK LLC,DOLLAR GENERAL 8443,4913,N JEFFERSON ST,,,PULASKI,NY,13142,8000,POINT (-76.126348505 43.570138912)
ORLEANS,340098,Store,A,DOLGEN NEW YORK LLC,DOLLAR GENERAL 5729,16684,RT 31,,,HOLLEY,NY,14470,7500,POINT (-78.039601724 43.226086429)
ORANGE,331387,Store,A,DOLGEN NEW YORK LLC,DOLLAR GENERAL #13753,16,RT 17K,,,NEWBURGH,NY,12550,7200,POINT (-74.051616245 41.50342214)
ORANGE,331381,Store,A,DOLGEN NEW YORK LLC,DOLLAR GENERAL #13706,191,JERSEY AVE,,,PORT JERVIS,NY,12771,7200,POINT (-74.686438877 41.366110305)
ORANGE,331374,Store,A,DOLGEN NEW YORK LLC,DOLLAR GENERAL #13496,280,RT 211 E,,,MIDDLETOWN,NY,10940,9043,POINT (-74.399724314 41.454382313)
ORANGE,331344,Store,A,DOLGEN NEW YORK LLC,DOLLAR GENERAL #13281,436,BLOOMING GROVE TPK,,,NEW WINDSOR,NY,12553,0,POINT (-74.038631755 41.464981894)
ORANGE,331337,Store,A,DOLGEN NEW YORK LLC,DOLLAR GENERAL #13210,65,DOLSON AVE,,,MIDDLETOWN,NY,10940,9677,POINT (-74.422198669 41.434087613)
ORANGE,331233,Store,A,DOLGEN NEW YORK LLC,DOLLAR GENERAL #12222,2,LAKES RD,,,MONROE,NY,10950,9500,POINT (-74.191404178 41.32809301)
ONTARIO,320247,Store,A,DOLGEN NEW YORK LLC,DOLLAR GENERAL #11107,86,S MAIN ST,,,MANCHESTER,NY,14504,7200,POINT (-77.231420883 42.963802094)
ONTARIO,320243,Store,A,DOLGEN NEW YORK LLC,DOLLAR GENERAL ST 10552,187,STATE RT 21,,,NAPLES,NY,14512,8250,POINT (-77.395952463 42.624527049)
ONTARIO,320187,Store,A,DOLGEN NEW YORK LLC,DOLLAR GENERAL STR 8308,74,WEST AVE,,,CANANDAIGUA,NY,14424,4000,POINT (-77.285254242 42.887434113)
ONONDAGA,311271,Store,A,DOLGEN NEW YORK LLC,DOLLAR GENERAL 13168,606,BUTTERNUT ST,,,SYRACUSE,NY,13208,10000,POINT (-76.146050671 43.05978574)
ONONDAGA,311181,Store,A,DOLGEN NEW YORK LLC,DOLLAR GENERAL #8840,7999,STATE ROUTE 31,,,BRIDGEPORT,NY,13030,6000,POINT (-75.974246467 43.155274309)
ONONDAGA,310974,Store,A,DOLGEN NEW YORK LLC,DOLLAR GENERAL #10893,1160,STATE ROUTE 5,,,ELBRIDGE,NY,13060,7160,POINT (-76.423747817 43.038562426)
ONONDAGA,310955,Store,A,DOLGEN NEW YORK LLC,DOLLAR GENERAL #11033,7031,MANLIUS CENTER RD,,,EAST SYRACUSE,NY,13057,3000,POINT (-76.035358168 43.063340338)
ONONDAGA,310925,Store,A,DOLGEN NEW YORK LLC,DOLLAR GENERAL #11009,3535,JAMES ST,,,SYRACUSE,NY,13206,9300,POINT (-76.097719109 43.069863596)
ONONDAGA,310891,Store,A,DOLGEN NEW YORK LLC,DOLLAR GENERAL #10784,2512,RTE 11,,,LAFAYETTE,NY,13084,5000,POINT (-76.105078336 42.893172071)
ONONDAGA,310819,Store,A,DOLGEN NEW YORK LLC,DOLLAR GENERAL #10325,602,OLD LIVERPOOL RD,,,LIVERPOOL,NY,13088,6400,POINT (-76.190113833 43.090208319)
ONONDAGA,310752,Store,A,DOLGEN NEW YORK LLC,DOLLAR GENERAL 6404,475,ST RT 281,,,TULLY,NY,13159,7100,POINT (-76.122141125 42.794256812)
ONONDAGA,310707,Store,A,DOLGEN NEW YORK LLC,DOLLAR GENERAL 9576,7252,STATE FAIR BLVD,,,SYRACUSE,NY,13209,5900,POINT (-76.286186788 43.121104978)
ONONDAGA,310593,Store,A,DOLGEN NEW YORK LLC,DOLLAR GENERAL 7940,709-729,N MAIN ST #721,,,NORTH SYRACUSE,NY,13212,6516,POINT (-76.128289502 43.144076715)
ONONDAGA,310592,Store,A,DOLGEN NEW YORK LLC,DOLLAR GENERAL 9030,6320,S SALINA ST,,,NEDROW,NY,13120,8250,POINT (-76.142963616 42.979011141)
ONONDAGA,310585,Store,A,DOLGEN NEW YORK LLC,DOLLAR GENERAL 8991,2909,MILTON AVE,,,SOLVAY,NY,13209,6000,POINT (-76.226273364 43.059747644)
ONONDAGA,310526,Store,A,DOLGEN NEW YORK LLC,DOLLAR GENERAL 8537,5501,BARTELL RD,,,BREWERTON,NY,13029,12000,POINT (-76.136271199 43.232814747)
ONEIDA,300731,Store,A,DOLGEN NEW YORK LLC,DOLLAR GENERAL #8903,13194,RT 12,,,BOONVILLE,NY,13309,8000,POINT (-75.319264771 43.477443402)
ONEIDA,300577,Store,A,DOLGEN NEW YORK LLC,DOLLAR GENERAL #11111,103,W MAIN ST,,,WATERVILLE,NY,13480,16500,POINT (-75.380384475 42.930941711)
ONEIDA,300531,Store,A,DOLGEN NEW YORK LLC,DOLLAR GENERAL #10537,95,STATE ST E,,,SHERRILL,NY,13461,8630,POINT (-75.591984408 43.074652596)
ONEIDA,300419,Store,A,DOLGEN NEW YORK LLC,DOLLAR GENERAL STR 9763,35,MAIN ST,,,CAMDEN,NY,13316,0,POINT (-75.747848368 43.334069575)
ONEIDA,300408,Store,A,DOLGEN NEW YORK LLC,DOLLAR GENERAL #6469,131,ORISKANY BLVD SUITE 7,,,WHITESBORO,NY,13492,6800,POINT (-75.293860228 43.119173117)
ONEIDA,300405,Store,A,DOLGEN NEW YORK LLC,DOLLAR GENERAL #6343,34,CHENANGO AVE,,,CLINTON,NY,13323,2000,POINT (-75.380163237 43.049223494)
ONEIDA,300365,Store,A,DOLGEN NEW YORK LLC,DOLLAR GENERAL 9428,8220,TURIN RD,,,ROME,NY,13440,6000,POINT (-75.461250065 43.257299427)
ONEIDA,300353,Store,A,DOLGEN NEW YORK LLC,DOLLAR GENERAL 9112,4464,PETERBORO ST S,,,VERNON,NY,13476,7800,POINT (-75.538847584 43.079205436)
ONEIDA,300321,Store,A,DOLGEN NEW YORK LLC,DOLLAR GENERAL 8559,801,BLACK RIVER BLVD N,,,ROME,NY,13440,7989,POINT (-75.448058748 43.219638818)
ONEIDA,300315,Store,A,DOLGEN NEW YORK LLC,DOLLAR GENERAL 8493,1,NEW HARTFORD SHOPPING CTR,STE F4,,NEW HARTFORD,NY,13413,7300,POINT (-75.295786893 43.075729)
NIAGARA,290552,Store,A,DOLGEN NEW YORK LLC,DOLLAR GENERAL #8306,384,TWIN CITY MEMORIAL HWY,,,NORTH TONAWANDA,NY,14120,9000,POINT (-78.861898781 43.033989888)
NIAGARA,290547,Store,A,DOLGEN NEW YORK LLC,DOLLAR GENERAL 12623,1385,NASH RD,,,NORTH TONAWANDA,NY,14120,10000,POINT (-78.864388624 43.060907825)
NIAGARA,290428,Store,A,DOLGEN NEW YORK LLC,DOLLAR GENERAL STR#8360,6181,MCKEE ST,,,NEWFANE,NY,14108,9100,POINT (-78.698354018 43.276648835)
NIAGARA,290362,Store,A,DOLGEN NEW YORK LLC,DOLLAR GENERAL 6717,8735,NIAGARA FALLS BLVD,,,NIAGARA FALLS,NY,14304,8500,POINT (-78.962302664 43.091314311)
NIAGARA,290358,Store,A,DOLGEN NEW YORK LLC,DOLLAR GENERAL 6955,4015,LAKE AVE,,,LOCKPORT,NY,14094,7000,POINT (-78.676230655 43.218094913)
NIAGARA,290334,Store,A,DOLGEN NEW YORK LLC,DOLLAR GENERAL 6050,8405,ROCHESTER RD,,,GASPORT,NY,14067,2000,POINT (-78.573004668 43.195986093)
NIAGARA,290279,Store,A,DOLGEN NEW YORK LLC,DOLLAR GENERAL 8183,5921,S TRANSIT RD,,,LOCKPORT,NY,14094,3000,POINT (-78.694851891 43.135400942)
NIAGARA,290278,Store,A,DOLGEN NEW YORK LLC,DOLLAR GENERAL 8417,1802,PINE AVE,,,NIAGARA FALLS,NY,14301,7980,POINT (-79.039964685 43.097635313)
NIAGARA,290275,Store,A,DOLGEN NEW YORK LLC,DOLLAR GENERAL 8370,735,CENTER ST,,,LEWISTON,NY,14092,5500,POINT (-79.037882452 43.17180799)
NIAGARA,290273,Store,A,DOLGEN NEW YORK LLC,DOLLAR GENERAL 8333,1201,LINCOLN AVE,,,LOCKPORT,NY,14094,5800,POINT (-78.665093202 43.153911789)
MONTGOMERY,270123,Store,A,DOLGEN NEW YORK LLC,DOLLAR GENERAL #7422,41,W MAIN ST,,,FONDA,NY,12068,6556,POINT (-74.377696418 42.954051258)
MONTGOMERY,270086,Store,A,DOLGEN NEW YORK LLC,DOLLAR GENERAL 9357,140,GUY PARK AVE,,,AMSTERDAM,NY,12010,10000,POINT (-74.198311201 42.943653424)
MONROE,261716,Store,A,DOLGEN NEW YORK LLC,DOLLAR GENERAL #10927,1315,CHILI AVE,,,ROCHESTER,NY,14624,5000,POINT (-77.670941398 43.138029088)
MONROE,261619,Store,A,DOLGEN NEW YORK LLC,DOLLAR GENERAL #5730,7135,W BUFFALO RD,,,CHURCHVILLE,NY,14428,0,POINT (-77.898884405 43.100371376)
MONROE,261610,Store,A,DOLGEN NEW YORK LLC,DOLLAR GENERAL #9897,5103,RIDGE RD W,,,SPENCERPORT,NY,14559,0,POINT (-77.79976312 43.21716075)
MONROE,261312,Store,A,DOLGEN NEW YORK LLC,DOLLAR GENERAL STR 9355,1816,LAKE RD,,,HAMLIN,NY,14464,0,POINT (-77.919721481 43.291581782)
MONROE,261285,Store,A,DOLGEN NEW YORK LLC,DOLLAR GENERAL 6386,50,MAIN ST,,,BROCKPORT,NY,14420,0,POINT (-77.938700792 43.21565888)
MONROE,261222,Store,A,DOLGEN NEW YORK LLC,DOLLAR GENERAL 9742,3892,SCOTTSVILLE RD,,,SCOTTSVILLE,NY,14546,7100,POINT (-77.742079197 43.028986311)
MONROE,261180,Store,A,DOLGEN NEW YORK LLC,DOLLAR GENERAL 7434,2873,DEWEY AVE,,,GREECE,NY,14616,6468,POINT (-77.64173583 43.222138092)
MONROE,261161,Store,A,DOLGEN NEW YORK LLC,DOLLAR GENERAL 9079,1900,S CLINTON AVE,,,ROCHESTER,NY,14618,2500,POINT (-77.59474269 43.120987463)
MONROE,261144,Store,A,DOLGEN NEW YORK LLC,DOLLAR GENERAL 9233,453,W COMMERCIAL ST,,,EAST ROCHESTER,NY,14445,7000,POINT (-77.495815781 43.116654229)
MONROE,261110,Store,A,DOLGEN NEW YORK LLC,DOLLAR GENERAL 8814,525,TITUS AVE,,,IRONDEQUOIT,NY,14617,8000,POINT (-77.605009348 43.207270356)
MONROE,261037,Store,A,DOLGEN NEW YORK LLC,DOLLAR GENERAL 8558,822,LAKE AVE,,,ROCHESTER,NY,14613,8600,POINT (-77.631038845 43.180124095)
MONROE,260979,Store,A,DOLGEN NEW YORK LLC,DOLLAR GENERAL 8211,3240,CHILI AVE,,,ROCHESTER,NY,14624,1000,POINT (-77.752098757 43.104461871)
MADISON,250107,Store,A,DOLGEN NEW YORK LLC,DOLLAR GENERAL #10521,300,TUSCARORA RD,,,CHITTENANGO,NY,13037,5000,POINT (-75.868493 43.054457741)
MADISON,250094,Store,A,DOLGEN NEW YORK LLC,DOLLAR GENERAL #6958,113,UTICA ST,,,HAMILTON,NY,13346,7000,POINT (-75.550355183 42.833231363)
MADISON,250084,Store,A,DOLGEN NEW YORK LLC,DOLLAR GENERAL STR 9723,431,N MAIN ST,,,ONEIDA,NY,13421,5000,POINT (-75.659609621 43.103052491)
MADISON,250066,Store,A,DOLGEN NEW YORK LLC,DOLLAR GENERAL 8656,419,S PETERBORO ST,,,CANASTOTA,NY,13032,7950,POINT (-75.752750484 43.070655224)
LIVINGSTON,240174,Store,A,DOLGEN NEW YORK LLC,DOLLAR GENERAL #6160,3707,RETSOF RD,,,RETSOF,NY,14533,7150,POINT (-77.881506289 42.830051101)
LIVINGSTON,240140,Store,A,DOLGEN NEW YORK LLC,DOLLAR GENERAL #6318,3337,CALEDONIA-AVON RD,,,CALEDONIA,NY,14423,8300,POINT (-77.842115284 42.964819364)
LIVINGSTON,240136,Store,A,DOLGEN NEW YORK LLC,DOLLAR GENERAL ST# 5897,1464,ROCHESTER ST,,,LIMA,NY,14485,8100,POINT (-77.612263382 42.920957074)
LIVINGSTON,240120,Store,A,DOLGEN NEW YORK LLC,DOLLAR GENERAL 6959,7,MAIN ST,,,LIVONIA,NY,14487,8200,POINT (-77.670996635 42.822516231)
LIVINGSTON,240116,Store,A,DOLGEN NEW YORK LLC,DOLLAR GENERAL 6456,116,N MAIN ST,,,MOUNT MORRIS,NY,14510,7000,POINT (-77.879301346 42.736342555)
LIVINGSTON,240115,Store,A,DOLGEN NEW YORK LLC,DOLLAR GENERAL 6217,27,OSSIAN STREET,,,DANSVILLE,NY,14437,7800,POINT (-77.699417406 42.560037939)
LIVINGSTON,240087,Store,A,DOLGEN NEW YORK LLC,DOLLAR GENERAL 8393,9033,ST RT 408,,,NUNDA,NY,14517,7200,POINT (-77.939052916 42.589331098)
LIVINGSTON,240076,Store,A,DOLGEN NEW YORK LLC,DOLLAR GENERAL 8191,275,E MAIN ST  STE 1,,,AVON,NY,14414,8000,POINT (-77.734636235 42.908409533)
LEWIS,230085,Store,A,DOLGEN NEW YORK LLC,DOLLAR GENERAL #11550,6804,MCALPINE ST,,,LYONS FALLS,NY,13368,3000,POINT (-75.367065678 43.618752571)
LEWIS,230078,Store,A,DOLGEN NEW YORK LLC,DOLLAR GENERAL #11150,7623,N STATE ST,,,LOWVILLE,NY,13367,7530,POINT (-75.492993964 43.787128699)
JEFFERSON,220347,Store,A,DOLGEN NEW YORK LLC,DOLLAR GENERAL #9496,144,EASTERN BLVD STE 14,,,WATERTOWN,NY,13601,10300,POINT (-75.878616495 43.968751884)
JEFFERSON,220342,Store,A,DOLGEN NEW YORK LLC,DOLLAR GENERAL #12614,22075,STATE RT 11,,,WATERTOWN,NY,13601,6000,POINT (-75.904568648 43.994549283)
JEFFERSON,220313,Store,A,DOLGEN NEW YORK LLC,DOLLAR GENERAL #11222,12644,ST RT 12,,,CHAUMONT,NY,13622,8000,POINT (-76.018776106 44.107253413)
JEFFERSON,220251,Store,A,DOLGEN NEW YORK LLC,DOLLAR GENERAL #6904,28525,NY STATE RT 3,,,BLACK RIVER,NY,13612,6936,POINT (-75.799821157 44.006348953)
JEFFERSON,220229,Store,A,DOLGEN NEW YORK LLC,DOLLAR GENERAL 6375,10757,US RT 11,,,ADAMS,NY,13605,8500,POINT (-76.022172629 43.823883757)
JEFFERSON,220169,Store,A,DOLGEN NEW YORK LLC,DOLLAR GENERAL 9086,2,S MAIN ST PO BOX 28,,,PHILADELPHIA,NY,13673,7500,POINT (-75.709321581 44.146437461)
JEFFERSON,220153,Store,A,DOLGEN NEW YORK LLC,DOLLAR GENERAL 8700,700,WEST END AVE,,,CARTHAGE,NY,13619,8000,POINT (-75.619219977 43.986325382)
JEFFERSON,220152,Store,A,DOLGEN NEW YORK LLC,DOLLAR GENERAL 8676,1222,ARSENAL ST,,,WATERTOWN,NY,13601,6000,POINT (-75.944258112 43.978185423)
HERKIMER,210131,Store,A,DOLGEN NEW YORK LLC,DOLLAR GENERAL #11102,1,STEWART ST,,,DOLGEVILLE,NY,13329,0,POINT (-74.781044747 43.093735214)
HERKIMER,210083,Store,A,DOLGEN NEW YORK LLC,DOLLAR GENERAL 9098,110,E STATE ST,,,HERKIMER,NY,13350,5000,POINT (-74.984837982 43.025519346)
HERKIMER,210070,Store,A,DOLGEN NEW YORK LLC,DOLLAR GENERAL 8373,522,ALBANY ST,,,LITTLE FALLS,NY,13365,6000,POINT (-74.858686316 43.042260019)
GREENE,190140,Store,A,DOLGEN NEW YORK LLC,DOLLAR GENERAL #10430,4,COUNTRY ESTATES RD,,,GREENVILLE,NY,12083,7100,POINT (-74.018041861 42.425202579)
GREENE,190121,Store,A,DOLGEN NEW YORK LLC,DOLLAR GENERAL 6540,11776,RT 9W,,,COXSACKIE,NY,12051,9000,POINT (-73.833836379 42.359367382)
GENESEE,180147,Store,A,DOLGEN NEW YORK LLC,DOLLAR GENERAL #10405,11281,ALEXANDER RD,,,ATTICA,NY,14011,8000,POINT (-78.282878333 42.870492066)
GENESEE,180107,Store,A,DOLGEN NEW YORK LLC,DOLLAR GENERAL #6107,3,WEST AVE,,,LEROY,NY,14482,6000,POINT (-78.003430375 42.979225257)
GENESEE,180086,Store,A,DOLGEN NEW YORK LLC,DOLLAR GENERAL 8105,412,E MAIN ST,,,BATAVIA,NY,14020,4000,POINT (-78.175290822 42.995515025)
FULTON,170123,Store,A,DOLGEN NEW YORK LLC,DOLLAR GENERAL #10752,37,ARTERIAL PLAZA,,,GLOVERSVILLE,NY,12078,6000,POINT (-74.325319079 43.057959323)
FULTON,170121,Store,A,DOLGEN NEW YORK LLC,DOLLAR GENERAL #10237,372,N MAIN ST,,,GLOVERSVILLE,NY,12078,8500,POINT (-74.340302378 43.063234264)
FRANKLIN,160129,Store,A,DOLGEN NEW YORK LLC,DOLLAR GENERAL #7325,3321,STATE RT 11,,,MALONE,NY,12953,8400,POINT (-74.319001052 44.848018933)
FRANKLIN,160114,Store,A,DOLGENCORP OF NEW YORK INC,DOLLAR GENERAL 6014,16,"DEMARS BLVD, STE 5",,,TUPPER LAKE,NY,12986,0,POINT (-74.462463611 44.227320186)
ESSEX,150209,Store,A,DOLGEN NEW YORK LLC,DOLLAR GENERAL #18555,4375,MAIN ST,,,PORT HENRY,NY,12974,7232,POINT (-73.457761842 44.052080784)
ESSEX,150197,Store,A,DOLGEN NEW YORK LLC,DOLLAR GENERAL #10970,925,US RT 9,,,SCHROON LAKE,NY,12870,7100,POINT (-73.772242223 43.829336977)
ERIE,143008,Store,A,DOLGEN NEW YORK LLC,DOLLAR GENERAL #13366,2137,SENECA ST,,,BUFFALO,NY,14210,9300,POINT (-78.80835426 42.853849965)
ERIE,142938,Store,A,DOLGEN NEW YORK LLC,DOLLAR GENERAL # 11797,3170,DELAWARE AVE,,,BUFFALO,NY,14217,0,POINT (-78.871164051 42.970318102)
ERIE,142934,Store,A,DOLGEN NEW YORK LLC,DOLLAR GENERAL #13305,2750,HARLEM RD,,,CHEEKTOWAGA,NY,14225,11500,POINT (-78.784388255 42.918619112)
ERIE,142913,Store,A,DOLGEN NEW YORK LLC,DOLLAR GENERAL 12975,1055,GENESEE ST,,,BUFFALO,NY,14211,11000,POINT (-78.839193107 42.902319127)
ERIE,142818,Store,A,DOLGEN NEW YORK LLC,DOLLAR GENERAL #9052,4190,UNION RD,,,CHEEKTOWAGA,NY,14225,10000,POINT (-78.754280004 42.92891523)
ERIE,142489,Store,A,DOLGEN NEW YORK LLC,DOLLAR GENERAL #8207,1833,ELMWOOD AVE,,,BUFFALO,NY,14207,0,POINT (-78.878070237 42.946944536)
ERIE,142203,Store,A,DOLGEN NEW YORK LLC,DOLLAR GENERAL #10547,4257,LAKE AVE,,,BLASDELL,NY,14219,0,POINT (-78.820111723 42.796617114)
ERIE,142146,Store,A,DOLGEN NEW YORK LLC,DOLLAR GENERAL #8363,13475,BROADWAY,,,ALDEN,NY,14004,8000,POINT (-78.485002095 42.899986722)
ERIE,142119,Store,A,DOLGEN NEW YORK LLC,DOLLAR GENERAL #10433,2920,WILLIAM ST,,,CHEEKTOWAGA,NY,14227,5000,POINT (-78.762759221 42.883993132)
ERIE,142033,Store,A,DOLGEN NEW YORK LLC,DOLLAR GENERAL #10256,12968,MAIN RD,,,AKRON,NY,14001,1500,POINT (-78.504020264 42.998318813)
ERIE,141827,Store,A,DOLGEN NEW YORK LLC,DOLLAR GENERAL 5701,5150,BROADWAY,,,DEPEW,NY,14043,7500,POINT (-78.683611675 42.901468981)
ERIE,141826,Store,A,DOLGEN NEW YORK LLC,DOLLAR GENERAL 6977,8790,ERIE RD,,,ANGOLA,NY,14006,8000,POINT (-79.044203246 42.646079768)
ERIE,141615,Store,A,DOLGEN NEW YORK LLC,DOLLAR GENERAL #9631,8229,N MAIN ST,,,EDEN,NY,14057,10000,POINT (-78.890203461 42.662983929)
ERIE,141506,Store,A,DOLGEN NEW YORK LLC,DOLLAR GENERAL 9229,3531,SENECA ST,,,WEST SENECA,NY,14224,5000,POINT (-78.772042598 42.829480587)
ERIE,141494,Store,A,DOLGEN NEW YORK LLC,DOLLAR GENERAL 8926,5783,CAMP RD,,,HAMBURG,NY,14075,6000,POINT (-78.835002593 42.729530792)
ERIE,141493,Store,A,DOLGEN NEW YORK LLC,DOLLAR GENERAL 9228,6000,SOUTH PARK,,,HAMBURG,NY,14075,6000,POINT (-78.825350329 42.732951363)
ERIE,141491,Store,A,DOLGEN NEW YORK LLC,DOLLAR GENERAL 8136,93,S ROSSLER AVE,,,BUFFALO,NY,14206,5100,POINT (-78.794805341 42.876690237)
ERIE,141469,Store,A,DOLGEN NEW YORK LLC,DOLLAR GENERAL 8177,942,MCKINLEY PKWY,,,BUFFALO,NY,14220,8000,POINT (-78.82434857 42.857550107)
ERIE,141468,Store,A,DOLGEN NEW YORK LLC,DOLLAR GENERAL 8960,230,HOLDEN ST,,,BUFFALO,NY,14214,1500,POINT (-78.834988237 42.939076035)
ERIE,141460,Store,A,DOLGEN NEW YORK LLC,DOLLAR GENERAL 9029,1233,ABBOTT RD,,,LACKAWANNA,NY,14218,1000,POINT (-78.805759726 42.831024534)
ERIE,141459,Store,A,DOLGEN NEW YORK LLC,DOLLAR GENERAL 9028,338,KENMORE AVE,,,BUFFALO,NY,14223,5600,POINT (-78.830329431 42.9582127)
ERIE,141394,Store,A,DOLGEN NEW YORK LLC,DOLLAR GENERAL 8896,1336,HERTEL AVE,,,BUFFALO,NY,14216,5600,POINT (-78.858431521 42.947987287)
ERIE,141382,Store,A,DOLGEN NEW YORK LLC,DOLLAR GENERAL 8488,29,NIAGARA ST ECKERD PLAZA,,,TONAWANDA,NY,14150,6000,POINT (-78.879261002 43.02070546)
ERIE,141338,Store,A,DOLGEN NEW YORK LLC,DOLLAR GENERAL 8366,3372,SHERIDAN DR,,,AMHERST,NY,14226,4000,POINT (-78.809162466 42.980141709)
ERIE,141306,Store,A,DOLGEN NEW YORK LLC,DOLLAR GENERAL 8427,315,W FERRY ST,,,BUFFALO,NY,14213,6000,POINT (-78.889182642 42.915256035)
ERIE,141292,Store,A,DOLGEN NEW YORK LLC,DOLLAR GENERAL 8245,2329,MILLERS PORT HWY,,,GETZVILLE,NY,14068,6000,POINT (-78.769323982 43.013732908)
DUTCHESS,131156,Store,A,DOLGEN NEW YORK LLC,DOLLAR GENERAL #13879,3338,E MAIN ST NY 343,,,AMENIA,NY,12501,7600,POINT (-73.54924567 41.851300395)
DUTCHESS,131135,Store,A,DOLGEN NEW YORK LLC,DOLLAR GENERAL #13402,1475,"ROUTE 9D, STE A1-5",,,WAPPINGERS FALLS,NY,12590,9090,POINT (-73.965129756 41.527638841)
DUTCHESS,131116,Store,A,DOLGEN NEW YORK LLC,DOLLAR GENERAL 13147,31,RT 22,,,PAWLING,NY,12564,9000,POINT (-73.588180818 41.526448569)
DUTCHESS,131083,Store,A,DOLGEN NEW YORK LLC,DOLLAR GENERAL #12739,3,MAGGIOCOMO LN UNIT 1A,,,PLEASANT VALLEY,NY,12569,6000,POINT (-73.823457488 41.743584998)
DUTCHESS,131067,Store,A,DOLGEN NEW YORK LLC,DOLLAR GENERAL #12419,1671,RT 9,,,WAPPINGERS FALLS,NY,12590,10000,POINT (-73.913107977 41.603620752)
DELAWARE,120157,Store,A,DOLGEN NEW YORK LLC,DOLLAR GENERAL #11789,355,MAIN ST,,,MARGARETVILLE,NY,12455,5000,POINT (-74.654583118 42.144647959)
DELAWARE,120139,Store,A,DOLGEN NEW YORK LLC,DOLLAR GENERAL 11022,3,MANG DR,,,SIDNEY,NY,13838,8200,POINT (-75.408324588 42.299332042)
CORTLAND,110100,Store,A,DOLGEN NEW YORK LLC,DOLLAR GENERAL #11177,14,W MAIN ST,,,MARATHON,NY,13803,7500,POINT (-76.037244935 42.441017554)
CORTLAND,110069,Store,A,DOLGEN NEW YORK LLC,DOLLAR GENERAL 6365,186,HOMER AVE,,,CORTLAND,NY,13045,8000,POINT (-76.186481888 42.612816868)
COLUMBIA,100331,Store,A,DOLGEN NEW YORK LLC,DOLLAR GENERAL #12546,70,"FAIRVIEW AVE, STE 100",,,HUDSON,NY,12534,7700,POINT (-73.769415921 42.250636454)
CLINTON,90342,Store,A,DOLGEN NEW YORK LLC,DOLLAR GENERAL #12931,1840,N AUSABLE ST,,,KEESEVILLE,NY,12944,9100,POINT (-73.483630196 44.503045961)
CLINTON,90246,Store,A,DOLGEN NEW YORK LLC,DOLLAR GENERAL #10763,64,LAKE ST,,,ROUSES POINT,NY,12979,9841,POINT (-73.366028784 44.994533469)
CLINTON,90240,Store,A,DOLGEN NEW YORK LLC,DOLLAR GENERAL #10345,3073,MAIN ST,,,PERU,NY,12972,7100,POINT (-73.521463216 44.58393513)
CHENANGO,80144,Store,A,DOLGEN NEW YORK LLC,DOLLAR GENERAL #12070,148,S CHENANGO ST,,,GREENE,NY,13778,0,POINT (-75.777088094 42.322009826)
CHENANGO,80125,Store,A,DOLGEN NEW YORK LLC,DOLLAR GENERAL #11151,1,NORTH WASHINGTON AVE,,,OXFORD,NY,13830,5000,POINT (-75.598634274 42.443143456)
CHENANGO,80084,Store,A,DOLGEN NEW YORK LLC,DOLLAR GENERAL 9497,5640,ST HWY 12,,,NORWICH,NY,13815,6000,POINT (-75.522827755 42.51486648)
CHENANGO,80079,Store,A,DOLGEN NEW YORK LLC,DOLLAR GENERAL 8994,51,N MAIN ST,,,SHERBURNE,NY,13460,9000,POINT (-75.50085116 42.684528102)
CHEMUNG,70234,Store,A,DOLGEN NEW YORK LLC,DOLLAR GENERAL 9657,1371,"COLLEGE AVE, SUITE A",,,ELMIRA,NY,14901,0,POINT (-76.822456092 42.114661491)
CHEMUNG,70229,Store,A,DOLGEN NEW YORK LLC,DOLLAR GENERAL #8106,1146,BROADWAY,,,ELMIRA,NY,14904,0,POINT (-76.819992735 42.056675736)
CHEMUNG,70196,Store,A,DOLGEN NEW YORK LLC,DOLLAR GENERAL #11195,3695,FRONT ST,,,WELLSBURG,NY,14894,7232,POINT (-76.726082227 42.016536604)
CHEMUNG,70185,Store,A,DOLGEN NEW YORK LLC,DOLLAR GENERAL #10705,3164,LAKE RD,,,HORSEHEADS,NY,14845,4000,POINT (-76.814621695 42.145080004)
CHEMUNG,70182,Store,A,DOLGEN NEW YORK LLC,DOLLAR GENERAL #10820,1808,W WATER ST,,,ELMIRA,NY,14905,2800,POINT (-76.857643908 42.081851956)
CHEMUNG,70112,Store,A,DOLGEN NEW YORK LLC,DOLLAR GENERAL 8958,363,COLLEGE AVE,,,ELMIRA,NY,14901,9500,POINT (-76.8116659 42.090564567)
CHEMUNG,70104,Store,A,DOLGEN NEW YORK LLC,DOLLAR GENERAL 8364,801,LAKE ST,,,ELMIRA,NY,14901,10000,POINT (-76.805555493 42.100893502)
CHAUTAUQUA,60399,Store,A,DOLGEN NEW YORK LLC,DOLLAR GENERAL #12852,141,W MAIN ST,,,FREWSBURG,NY,14738,9014,POINT (-79.169383952 42.052209523)
CHAUTAUQUA,60383,Store,A,DOLGEN NEW YORK LLC,DOLLAR GENERAL #12399,460,W MAIN ST,,,FALCONER,NY,14733,13000,POINT (-79.206763887 42.114080709)
CHAUTAUQUA,60236,Store,A,DOLGEN NEW YORK LLC,DOLLAR GENERAL 6849,601,W 3RD ST,,,JAMESTOWN,NY,14701,8000,POINT (-79.254436968 42.093723999)
CHAUTAUQUA,60215,Store,A,DOLGEN NEW YORK LLC,DOLLAR GENERAL # 9394,199,W LAKE RD,,,MAYVILLE,NY,14757,6795,POINT (-79.491153983 42.234205828)
CHAUTAUQUA,60204,Store,A,DOLGEN NEW YORK LLC,DOLLAR GENERAL #6079,7612,E RT 20,,,WESTFIELD,NY,14787,7000,POINT (-79.555539572 42.335708538)
CHAUTAUQUA,60203,Store,A,DOLGEN NEW YORK LLC,DOLLAR GENERAL 09488,1356,WASHINGTON ST,,,JAMESTOWN,NY,14701,5000,POINT (-79.244823511 42.105449192)
CHAUTAUQUA,60202,Store,A,DOLGEN NEW YORK LLC,DOLLAR GENERAL 8379,164-180,E FOURTH ST,,,DUNKIRK,NY,14048,5000,POINT (-79.328676042 42.484098914)
CHAUTAUQUA,60177,Store,A,DOLGEN NEW YORK LLC,DOLLAR GENERAL 8240,260,E MAIN ST,,,FREDONIA,NY,14063,9000,POINT (-79.319800306 42.447000473)
CHAUTAUQUA,60175,Store,A,DOLGEN NEW YORK LLC,DOLLAR GENERAL 8865,167,W FAIRMOUNT AVE,,,LAKEWOOD,NY,14750,7500,POINT (-79.341725269 42.097756952)
CHAUTAUQUA,60165,Store,A,DOLGEN NEW YORK LLC,DOLLAR GENERAL 8402,1360,RT 5,,,SILVER CREEK,NY,14136,10000,POINT (-79.150936137 42.549414757)
CHAUTAUQUA,60163,Store,A,DOLGEN NEW YORK LLC,DOLLAR GENERAL 8439,760,FOOTE AVE,,,JAMESTOWN,NY,14701,5000,POINT (-79.229295449 42.079655101)
CAYUGA,50182,Store,A,DOLGEN NEW YORK LLC,DOLLAR GENERAL #13235,133,MAIN ST,,,MORAVIA,NY,13118,0,POINT (-76.422193896 42.711997611)
CAYUGA,50105,Store,A,DOLGEN NEW YORK LLC,DOLLAR GENERAL 6337,343,W GENESEE ST,,,AUBURN,NY,13021,0,POINT (-76.589645379 42.921682905)
CAYUGA,50090,Store,A,DOLGEN NEW YORK LLC,DOLLAR GENERAL 8827,8881,S SENECA ST,PO BOX 365,,WEEDSPORT,NY,13166,5000,POINT (-76.563809503 43.047530517)
CATTARAUGUS,40207,Store,A,DOLGEN NEW YORK LLC,DOLLAR GENERAL #11658,216,S MAIN ST,,,CATTARAUGUS,NY,14719,8500,POINT (-78.868109015 42.322139159)
CATTARAUGUS,40168,Store,A,DOLGEN NEW YORK LLC,DOLLAR GENERAL #10097,95,S MAIN ST,,,FRANKLINVILLE,NY,14737,8300,POINT (-78.461270546 42.328574533)
CATTARAUGUS,40154,Store,A,DOLGEN NEW YORK LLC,DOLLAR GENERAL 6724,61,MAIN ST,,,RANDOLPH,NY,14772,7000,POINT (-78.97236363 42.162454809)
CATTARAUGUS,40145,Store,A,DOLGEN NEW YORK LLC,DOLLAR GENERAL 6175,169,S MAIN ST,,,PORTVILLE,NY,14770,7000,POINT (-78.337795724 42.028302742)
CATTARAUGUS,40134,Store,A,DOLGEN NEW YORK LLC,DOLLAR GENERAL #6383,5785,RT 219,,,GREAT VALLEY,NY,14741,7000,POINT (-78.64579218 42.248555213)
CATTARAUGUS,40107,Store,A,DOLGEN NEW YORK LLC,DOLLAR GENERAL 8627,12189,RT 16,,,CHAFFEE,NY,14030,11500,POINT (-78.478684453 42.528367924)
CATTARAUGUS,40099,Store,A,DOLGEN NEW YORK LLC,DOLLAR GENERAL 8104,502,N UNION ST,,,OLEAN,NY,14760,4800,POINT (-78.429693486 42.085223283)
BROOME,30416,Store,A,DOLGEN NEW YORK LLC,DOLLAR GENERAL #08494,3226,WATSON BLVD,,,ENDWELL,NY,13760,8100,POINT (-76.020574 42.110445184)
BROOME,30319,Store,A,DOLGEN NEW YORK LLC,DOLLAR GENERAL #10141,2658,ST RT 26,,,MAINE,NY,13802,7800,POINT (-76.058079343 42.198650775)
BROOME,30312,Store,A,DOLGEN NEW YORK LLC,DOLLAR GENERAL 6766,310,EXCHANGE AVE,,,ENDICOTT,NY,13760,9800,POINT (-76.065602254 42.094585282)
BROOME,30298,Store,A,DOLGEN NEW YORK LLC,DOLLAR GENERAL 9951,357,COURT ST,,,BINGHAMTON,NY,13904,10000,POINT (-75.889137208 42.104664395)
BROOME,30277,Store,A,DOLGEN NEW YORK LLC,DOLLAR GENERAL 6436,2649,MAIN ST,,,WHITNEY POINT,NY,13862,5000,POINT (-75.968536044 42.328647623)
BROOME,30268,Store,A,DOLGEN NEW YORK LLC,DOLLAR GENERAL #6294,225,HARRISON AVE,,,ENDICOTT,NY,13760,13000,POINT (-76.05300945 42.09864732)
BROOME,30244,Store,A,DOLGEN NEW YORK LLC,DOLLAR GENERAL 9622,325,CLINTON ST,,,BINGHAMTON,NY,13905,7000,POINT (-75.937174063 42.110125666)
ALLEGANY,20144,Store,A,DOLGEN NEW YORK LLC,DOLLAR GENERAL 8875,25,W DYKE ST,,,WELLSVILLE,NY,14895,6500,POINT (-77.940489826 42.11638393)
ALLEGANY,20115,Store,A,DOLGEN NEW YORK LLC,DOLLAR GENERAL #11056,7981,RT 19,,,BELFAST,NY,14711,9250,POINT (-78.119988031 42.34649039)
ALLEGANY,20104,Store,A,DOLGEN NEW YORK LLC,DOLLAR GENERAL #10600,303,MAIN ST,,,BOLIVAR,NY,14715,8100,POINT (-78.167834449 42.067144314)
ALLEGANY,20092,Store,A,DOLGEN NEW YORK LLC,DOLLAR GENERAL 9839,98,BOLIVAR RD,,,WELLSVILLE,NY,14895,8400,POINT (-77.962401294 42.128294908)
ALLEGANY,20090,Store,A,DOLGEN NEW YORK LLC,DOLLAR GENERAL 11284,5240,RT 305,,,CUBA,NY,14727,9000,POINT (-78.276214217 42.227663543)
ALLEGANY,20083,Store,A,DOLGEN NEW YORK LLC,DOLLAR GENERAL 6067,4836,STATE ROUTE 19 S,PO BOX 51,,BELMONT,NY,14813,8000,POINT (-78.013829802 42.20971923)
ALLEGANY,20078,Store,A,DOLGEN NEW YORK LLC,DOLLAR GENERAL 9592,46,S GENESEE ST PO BOX 274,,,FILLMORE,NY,14735,6300,POINT (-78.113074972 42.462473131)
ALLEGANY,20066,Store,A,DOLGEN NEW YORK LLC,DOLLAR GENERAL 8319,820,NY RT 244,,,ALFRED STATION,NY,14803,1400,POINT (-77.771294572 42.268112848)
ALBANY,10440,Store,A,DOLGEN NEW YORK LLC,DOLLAR GENERAL #25518,638,COLUMBIA ST EXT,,,LATHAM,NY,12110,3000,POINT (-73.75280651 42.762116572)
