,County,License Number,Operation Type,Establishment Type,Entity Name,DBA Name,Street Number,Street Name,Address Line 2,Address Line 3,City,State,Zip Code,Square Footage,Georeference
0,ONONDAGA,760190,Store,A,DOLGEN NEW YORK LLC,DOLLAR GENERAL #30401,2711,S SALINA ST,,,SYRACUSE,NY,13205,0,POINT (-76.142482076 43.021158703)
274,ONONDAGA,758863,Store,A,DOLGEN NEW YORK LLC,DOLLAR GENERAL #25200,3905,NEW COURT AVE,,,SYRACUSE,NY,13206,0,POINT (-76.113882855 43.080913165)
359,ONONDAGA,758544,Store,A,DOLGEN NEW YORK LLC,DOLLAR GENERAL #30177,101,LAWRENCE RD E,,,SYRACUSE,NY,13212,0,POINT (-76.144695317 43.115405912)
559,CHAUTAUQUA,757921,Store,A,DOLGEN NEW YORK LLC,DOLLAR GENERAL #24271,4041,ROUTE 60,,,GERRY,NY,14740,10658,POINT (-79.255417483 42.175323)
574,ERIE,757896,Store,A,DOLGEN NEW YORK LLC,DOLLAR GENERAL #23550,1853,LOVE RD,,,GRAND ISLAND,NY,14072,6000,POINT (-78.959705445 42.996155573)
815,NIAGARA,757292,Store,A,DOLGEN NEW YORK LLC,DOLLAR GENERAL #24374,3929,RIDGE RD,,,LOCKPORT,NY,14094,6000,POINT (-78.827157754 43.202369574)
1261,ERIE,755862,Store,A,DOLGEN NEW YORK LLC,DOLLAR GENERAL #21443,10344,MAIN ST,,,CLARENCE,NY,14031,7820,POINT (-78.602219121 42.980064537)
1641,NIAGARA,754829,Store,A,DOLGEN NEW YORK LLC,DOLLAR GENERAL #22399,2300,NIAGARA FALLS BLVD,,,NIAGARA FALLS,NY,14304,9000,POINT (-78.923697546 43.098053235)
1651,ERIE,754805,Store,A,DOLGEN NEW YORK LLC,DOLLAR GENERAL #23338,650,TWO ROD RD,,,MARILLA,NY,14102,10642,POINT (-78.556738914 42.856119574)
1689,ERIE,754703,Store,A,DOLGEN NEW YORK LLC,DOLLAR GENERAL #23945,5807,BROADWAY ST,,,LANCASTER,NY,14086,9100,POINT (-78.644594668 42.894847846)
3074,ERIE,751065,Store,A,DOLGEN NEW YORK LLC,DOLLAR GENERAL #22725,4030,SOUTHWESTERN BLVD,,,ORCHARD PARK,NY,14127,0,POINT (-78.799434238 42.774952954)
3077,ONEIDA,751062,Store,A,DOLGEN NEW YORK LLC,DOLLAR GENERAL #6714,1600,MAIN ST,,,SYLVAN BEACH,NY,13157,0,POINT (-75.728008112 43.203984794)
3091,ERIE,751042,Store,A,DOLGEN NEW YORK LLC,DOLLAR GENERAL #21764,12220,WALDEN AVE,,,ALDEN,NY,14004,9160,POINT (-78.533274531 42.939099703)
3324,ERIE,750455,Store,A,DOLGEN NEW YORK LLC,DOLLAR GENERAL 22699,8680,STATE RD,,,COLDEN,NY,14033,9400,POINT (-78.687051357 42.646966364)
3553,ONONDAGA,749812,Store,JAC,DOLGEN NEW YORK LLC,DOLLAR GENERAL #23195,301,S SALINA ST,,,SYRACUSE,NY,13202,0,POINT (-76.151937785 43.048480648)
3555,ERIE,749810,Store,A,DOLGEN NEW YORK LLC,DOLLAR GENERAL #21444,6401,OLEAN RD,,,SOUTH WALES,NY,14139,9000,POINT (-78.577850246 42.710679012)
3556,ERIE,749809,Store,A,DOLGEN NEW YORK LLC,DOLLAR GENERAL #22710,5203,SENECA ST,,,W SENECA,NY,14224,0,POINT (-78.712152978 42.834416103)
3601,CHAUTAUQUA,749728,Store,A,DOLGEN NEW YORK LLC,DOLLAR GENERAL #8294,1190,CENTRAL AVE A,,,DUNKIRK,NY,14048,7240,POINT (-79.333489714 42.457444995)
5301,ERIE,745207,Store,A,DOLGEN NEW YORK LLC,DOLLAR GENERAL #21384,2250,NIAGARA FALLS BLVD,,,TONAWANDA,NY,14150,8000,POINT (-78.822767781 43.015713525)
5303,ERIE,745205,Store,A,DOLGEN NEW YORK LLC,DOLLAR GENERAL #21543,1107,SHERIDAN DR,,,TONAWANDA,NY,14150,8000,POINT (-78.893453795 42.980318467)
5307,CHAUTAUQUA,745198,Store,A,DOLGEN NEW YORK LLC,DOLLAR GENERAL #21766,226,WINSOR ST,,,JAMESTOWN,NY,14701,9160,POINT (-79.229651093 42.099600761)
5327,ONEIDA,745160,Store,A,DOLGEN NEW YORK LLC,DOLLAR GENERAL #21145,9127,TURIN RD,,,ROME,NY,13440,9160,POINT (-75.473416688 43.302482322)
5612,ONONDAGA,744235,Store,A,DOLGEN NEW YORK LLC,DOLLAR GENERAL #22429,7386,OSWEGO RD,,,LIVERPOOL,NY,13090,0,POINT (-76.218293959 43.128768258)
5614,ERIE,744233,Store,A,DOLGEN NEW YORK LLC,DOLLAR GENERAL #21270,3230,WALDEN AVE,,,DEPEW,NY,14043,0,POINT (-78.700404818 42.911678181)
5617,NIAGARA,744228,Store,A,DOLGEN NEW YORK LLC,DOLLAR GENERAL #20328,5970,E LAKE RD,,,OLCOTT,NY,14126,7542,POINT (-78.7131376 43.335329659)
6608,ONEIDA,741148,Store,A,DOLGEN NEW YORK LLC,DOLLAR GENERAL #20688,5354,STATE ROUTE 233,,,WESTMORELAND,NY,13490,0,POINT (-75.405701136 43.121728926)
6785,NIAGARA,740535,Store,A,DOLGEN NEW YORK LLC,DOLLAR GENERAL #19988,3622,HYDE PARK BLVD,,,NIAGARA FALLS,NY,14305,6000,POINT (-79.036526428 43.120832859)
6786,ERIE,740534,Store,A,DOLGEN NEW YORK LLC,DOLLAR GENERAL #19760,11184,BIG TREE RD,,,EAST AURORA,NY,14052,9200,POINT (-78.569655008 42.767853482)
6787,ONEIDA,740533,Store,A,DOLGEN NEW YORK LLC,DOLLAR GENERAL #20510,10372,PRITCHARD RD,,,REMSEN,NY,13438,9750,POINT (-75.20126811 43.337443114)
6848,ERIE,740375,Store,A,DOLGEN NEW YORK LLC,DOLLAR GENERAL STORE #20621,6889,ERIE ROAD,,,DERBY,NY,14047,3000,POINT (-78.984109275 42.699097191)
7015,CHAUTAUQUA,739928,Store,A,DOLGEN NEW YORK LLC,DOLLAR GENERAL STORE #17957,3032,ROUTE 430,,,BEMUS POINT,NY,14712,7520,POINT (-79.308917913 42.123757783)
7170,ONONDAGA,739443,Store,A,DOLGEN NEW YORK LLC,DOLLAR GENERAL #21162,4975,BEAR RD,,,LIVERPOOL,NY,13088,10100,POINT (-76.171846313 43.136800133)
7375,ERIE,738953,Store,A,DOLGEN NEW YORK LLC,DOLLAR GENERAL #21065,1971,COLVIN BLVD,,,TONAWANDA,NY,14150,4000,POINT (-78.852171329 42.991592713)
7504,ONONDAGA,738512,Store,A,DOLGEN NEW YORK LLC,DOLLAR GENERAL #19518,7344,RTE 20,,,POMPEY,NY,13138,9346,POINT (-76.013929414 42.897599266)
8185,CHAUTAUQUA,736375,Store,A,DOLGEN NEW YORK LLC,DOLLAR GENERAL #19335,5360,ROUUTE 474,,,ASHVILLE,NY,14710,91609,POINT (-79.41050295 42.081422817)
8237,NIAGARA,736208,Store,A,DOLGEN NEW YORK LLC,DOLLAR GENERAL #19579,1895,QUAKER RD,,,BARKER,NY,14012,8000,POINT (-78.553807092 43.323078124)
8524,ERIE,735095,Store,A,DOLGEN NEW YORK LLC,DOLLAR GENERAL #18657,2737,SOUTHWESTERN BLVD,,,ORCHARD PARK,NY,14127,3000,POINT (-78.724601954 42.810973958)
8527,CHAUTAUQUA,735092,Store,A,DOLGEN NEW YORK LLC,DOLLAR GENERAL #18952,2864,ROUTE 426,,,FINDLEY LAKE,NY,14736,7263,POINT (-79.73825383 42.122736281)
8672,ONEIDA,734527,Store,A,DOLGEN NEW YORK LLC,DOLLAR GENERAL STORE #16137,8420,STATE ROUTE 69,,,ORISKANY,NY,13424,0,POINT (-75.332144539 43.159012324)
9295,NIAGARA,732351,Store,A,DOLGEN NEW YORK LLC,DOLLAR GENERAL #18480,3887,MAPLETON RD,,,NORTH TONAWANDA,NY,14120,7500,POINT (-78.833801886 43.122396126)
9499,CHAUTAUQUA,731678,Store,A,DOLGEN NEW YORK LLC,DOLLAR GENERAL #18496,4884,RTE 430,,,BEMUS POINT,NY,14712,9160,POINT (-79.420735938 42.204041328)
9561,CHAUTAUQUA,731468,Store,A,DOLGEN NEW YORK LLC,DOLLAR GENERAL #22154,5817,JAMESTOWN ST,,,SINCLAIRVILLE,NY,14782,9346,POINT (-79.266411103 42.253387814)
9562,CHAUTAUQUA,731467,Store,A,DOLGEN NEW YORK LLC,DOLLAR GENERAL #18261,50,E MAIN ST,,,RIPLEY,NY,14775,7520,POINT (-79.706042008 42.268333795)
9794,ONEIDA,730580,Store,A,DOLGEN NEW YORK LLC,DOLLAR GENERAL # 12183,1112,MOHAWK ST,,,UTICA,NY,13501,3000,POINT (-75.222035028 43.091109026)
9798,NIAGARA,730576,Store,A,DOLGEN NEW YORK LLC,DOLLAR GENERAL # 18375,6408,CAMPBELL BLVD,,,LOCKPORT,NY,14094,0,POINT (-78.769241617 43.116274445)
9806,ERIE,730565,Store,A,DOLGEN NEW YORK LLC,DOLLAR GENERAL # 19220,41,BUFFALO RD,,,EAST AURORA,NY,14052,11100,POINT (-78.630644166 42.768473617)
9813,ONONDAGA,730554,Store,A,DOLGEN NEW YORK LLC,DOLLAR GENERAL # 19245,4141,S SALINA ST,,,SYRACUSE,NY,13205,7000,POINT (-76.141282877 43.008193156)
9815,ERIE,730551,Store,A,DOLGEN NEW YORK LLC,DOLLAR GENERAL #19223,2391,GRAND ISLAND BLVD,,,GRAND ISLAND,NY,14072,0,POINT (-78.96760575 43.026950995)
9821,ONONDAGA,730532,Store,A,DOLGEN NEW YORK LLC,DOLLAR GENERAL # 19244,220,S GEDDES ST,,,SYRACUSE,NY,13204,0,POINT (-76.171170229 43.044831545)
9830,ONONDAGA,730521,Store,A,DOLGEN NEW YORK LLC,DOLLAR GENERAL # 19228,2202,BREWERTON RD,,,MATTYDALE,NY,13211,9994,POINT (-76.144455176 43.0979954)
9836,CHAUTAUQUA,730511,Store,A,DOLGEN NEW YORK LLC,DOLLAR GENERAL # 17678,112,OSBORNE ST,,,SHERMAN,NY,14781,9160,POINT (-79.5943477 42.156296038)
10262,NIAGARA,728621,Store,A,DOLGEN NEW YORK LLC,DOLLAR GENERAL #18074,6726,TRANSIT RD,,,LOCKPORT,NY,14094,0,POINT (-78.697671312 43.102303489)
11126,NIAGARA,724298,Store,A,DOLGEN NEW YORK LLC,DOLLAR GENERAL #17234,4835,MILITARY ROAD,,,NIAGARA FALLS,NY,14305,0,POINT (-79.00689288 43.130580426)
11843,NIAGARA,720933,Store,A,DOLGEN NEW YORK LLC,DOLLAR GENERAL #16268,3661,RANSOMVILLE ROAD,,,RANSOMVILLE,NY,14131,7272,POINT (-78.90887524 43.236330917)
12277,CHAUTAUQUA,719291,Store,A,DOLGEN NEW YORK LLC,DOLLAR GENERAL # 16085,8026,ROUTE 60 N,,,CASSADAGA,NY,14718,9100,POINT (-79.31063503 42.350576903)
12337,NIAGARA,719074,Store,A,DOLGEN NEW YORK LLC,DOLLAR GENERAL #15739,4201,CARMEN RD,,,MIDDLEPORT,NY,14105,0,POINT (-78.489936236 43.205978956)
12362,ONEIDA,718996,Store,A,DOLGEN NEW YORK LLC,DOLLAR GENERAL STORE #15735,4120,STATE RTE 69,,,TABERG,NY,13471,0,POINT (-75.615395399 43.297117275)
12676,CHAUTAUQUA,717606,Store,A,DOLGEN NEW YORK LLC,DOLLAR GENERAL #16063,54,W MAIN ST,,,BROCTON,NY,14716,9339,POINT (-79.443523148 42.387482632)
12991,ONONDAGA,715868,Store,A,DOLGEN NEW YORK LLC,DOLLAR GENERAL #15408,6523,COLLAMER RD/ ROUTE 298,,,EAST SYRACUSE,NY,13057,9100,POINT (-76.069653396 43.103205088)
13303,ERIE,714395,Store,A,DOLGEN NEW YORK LLC,DOLLAR GENERAL #15900,244,FOREST AVE,,,BUFFALO,NY,14213,7000,POINT (-78.889814456 42.927960741)
13470,ONONDAGA,713613,Store,A,DOLGEN NEW YORK LLC,DOLLAR GENERAL #14963,922,STATE FAIR BLVD,,,GEDDES,NY,13209,7000,POINT (-76.24421357 43.095910695)
13613,ONEIDA,712821,Store,A,DOLGEN NEW YORK LLC,DOLLAR GENERAL #15168,9501,US ROUTE 20,,,BRIDGEWATER,NY,13313,0,POINT (-75.257546967 42.879160839)
13614,ERIE,712819,Store,A,DOLGEN NEW YORK LLC,DOLLAR GENERAL #14978,122,S MAIN ST,,,HOLLAND,NY,14080,9111,POINT (-78.538097981 42.639225886)
13723,ERIE,712222,Store,A,DOLGEN NEW YORK LLC,DOLLAR GENERAL #14886,663,E FERRY ST,,,BUFFALO,NY,14211,2500,POINT (-78.836662629 42.914232986)
14001,ONEIDA,710603,Store,A,DOLGEN NEW YORK LLC,DOLLAR GENERAL 14466,9070,RT 365,,,HOLLAND PATENT,NY,13354,5000,POINT (-75.28664693 43.233349851)
14088,ERIE,710054,Store,A,DOLGEN NEW YORK LLC,DOLLAR GENERAL #8338,25,GARDENVILLE PKWY,,,W SENECA,NY,14224,9000,POINT (-78.755177287 42.864819529)
14175,ONEIDA,709395,Store,A,DOLGEN NEW YORK LLC,DOLLAR GENERAL #14421,1700,ERIE ST,,,UTICA,NY,13502,0,POINT (-75.255716663 43.109949629)
14214,ERIE,709110,Store,A,DOLGEN NEW YORK LLC,DOLLAR GENERAL #14652,1618,MAIN ST,,,BUFFALO,NY,14209,0,POINT (-78.862823722 42.917501299)
14223,NIAGARA,709067,Store,A,DOLGEN NEW YORK LLC,DOLLAR GENERAL #14797,686,LAKE ST RT 425,,,WILSON,NY,14172,9200,POINT (-78.825178835 43.296305488)
14227,ERIE,709063,Store,A,DOLGEN NEW YORK LLC,DOLLAR GENERAL #14802,10607,ERIE RD,,,FARNHAM,NY,14061,8704,POINT (-79.091249359 42.59362653)
14497,ERIE,707428,Store,A,DOLGEN NEW YORK LLC,DOLLAR GENERAL #14742,437,TONAWANDA ST,,,BUFFALO,NY,14207,7500,POINT (-78.898486793 42.941460969)
14499,ERIE,707425,Store,A,DOLGEN NEW YORK LLC,DOLLAR GENERAL #8362,804,WEHRLE DR,,,AMHERST,NY,14221,7300,POINT (-78.753872476 42.949923758)
14991,ERIE,704163,Store,A,DOLGEN NEW YORK LLC,DOLLAR GENERAL #13797,7169,BOSTON ST RD,,,HAMBURG,NY,14075,4000,POINT (-78.757507767 42.678033695)
21152,ONONDAGA,311271,Store,A,DOLGEN NEW YORK LLC,DOLLAR GENERAL 13168,606,BUTTERNUT ST,,,SYRACUSE,NY,13208,10000,POINT (-76.146050671 43.05978574)
21166,ONONDAGA,311181,Store,A,DOLGEN NEW YORK LLC,DOLLAR GENERAL #8840,7999,STATE ROUTE 31,,,BRIDGEPORT,NY,13030,6000,POINT (-75.974246467 43.155274309)
21204,ONONDAGA,310974,Store,A,DOLGEN NEW YORK LLC,DOLLAR GENERAL #10893,1160,STATE ROUTE 5,,,ELBRIDGE,NY,13060,7160,POINT (-76.423747817 43.038562426)
21210,ONONDAGA,310955,Store,A,DOLGEN NEW YORK LLC,DOLLAR GENERAL #11033,7031,MANLIUS CENTER RD,,,EAST SYRACUSE,NY,13057,3000,POINT (-76.035358168 43.063340338)
21216,ONONDAGA,310925,Store,A,DOLGEN NEW YORK LLC,DOLLAR GENERAL #11009,3535,JAMES ST,,,SYRACUSE,NY,13206,9300,POINT (-76.097719109 43.069863596)
21222,ONONDAGA,310891,Store,A,DOLGEN NEW YORK LLC,DOLLAR GENERAL #10784,2512,RTE 11,,,LAFAYETTE,NY,13084,5000,POINT (-76.105078336 42.893172071)
21232,ONONDAGA,310819,Store,A,DOLGEN NEW YORK LLC,DOLLAR GENERAL #10325,602,OLD LIVERPOOL RD,,,LIVERPOOL,NY,13088,6400,POINT (-76.190113833 43.090208319)
21240,ONONDAGA,310752,Store,A,DOLGEN NEW YORK LLC,DOLLAR GENERAL 6404,475,ST RT 281,,,TULLY,NY,13159,7100,POINT (-76.122141125 42.794256812)
21245,ONONDAGA,310707,Store,A,DOLGEN NEW YORK LLC,DOLLAR GENERAL 9576,7252,STATE FAIR BLVD,,,SYRACUSE,NY,13209,5900,POINT (-76.286186788 43.121104978)
21268,ONONDAGA,310593,Store,A,DOLGEN NEW YORK LLC,DOLLAR GENERAL 7940,709-729,N MAIN ST #721,,,NORTH SYRACUSE,NY,13212,6516,POINT (-76.128289502 43.144076715)
21269,ONONDAGA,310592,Store,A,DOLGEN NEW YORK LLC,DOLLAR GENERAL 9030,6320,S SALINA ST,,,NEDROW,NY,13120,8250,POINT (-76.142963616 42.979011141)
21270,ONONDAGA,310585,Store,A,DOLGEN NEW YORK LLC,DOLLAR GENERAL 8991,2909,MILTON AVE,,,SOLVAY,NY,13209,6000,POINT (-76.226273364 43.059747644)
21278,ONONDAGA,310526,Store,A,DOLGEN NEW YORK LLC,DOLLAR GENERAL 8537,5501,BARTELL RD,,,BREWERTON,NY,13029,12000,POINT (-76.136271199 43.232814747)
21354,ONEIDA,300731,Store,A,DOLGEN NEW YORK LLC,DOLLAR GENERAL #8903,13194,RT 12,,,BOONVILLE,NY,13309,8000,POINT (-75.319264771 43.477443402)
21372,ONEIDA,300577,Store,A,DOLGEN NEW YORK LLC,DOLLAR GENERAL #11111,103,W MAIN ST,,,WATERVILLE,NY,13480,16500,POINT (-75.380384475 42.930941711)
21384,ONEIDA,300531,Store,A,DOLGEN NEW YORK LLC,DOLLAR GENERAL #10537,95,STATE ST E,,,SHERRILL,NY,13461,8630,POINT (-75.591984408 43.074652596)
21414,ONEIDA,300419,Store,A,DOLGEN NEW YORK LLC,DOLLAR GENERAL STR 9763,35,MAIN ST,,,CAMDEN,NY,13316,0,POINT (-75.747848368 43.334069575)
21415,ONEIDA,300408,Store,A,DOLGEN NEW YORK LLC,DOLLAR GENERAL #6469,131,ORISKANY BLVD SUITE 7,,,WHITESBORO,NY,13492,6800,POINT (-75.293860228 43.119173117)
21416,ONEIDA,300405,Store,A,DOLGEN NEW YORK LLC,DOLLAR GENERAL #6343,34,CHENANGO AVE,,,CLINTON,NY,13323,2000,POINT (-75.380163237 43.049223494)
21424,ONEIDA,300365,Store,A,DOLGEN NEW YORK LLC,DOLLAR GENERAL 9428,8220,TURIN RD,,,ROME,NY,13440,6000,POINT (-75.461250065 43.257299427)
21428,ONEIDA,300353,Store,A,DOLGEN NEW YORK LLC,DOLLAR GENERAL 9112,4464,PETERBORO ST S,,,VERNON,NY,13476,7800,POINT (-75.538847584 43.079205436)
21432,ONEIDA,300321,Store,A,DOLGEN NEW YORK LLC,DOLLAR GENERAL 8559,801,BLACK RIVER BLVD N,,,ROME,NY,13440,7989,POINT (-75.448058748 43.219638818)
21436,ONEIDA,300315,Store,A,DOLGEN NEW YORK LLC,DOLLAR GENERAL 8493,1,NEW HARTFORD SHOPPING CTR,STE F4,,NEW HARTFORD,NY,13413,7300,POINT (-75.295786893 43.075729)
21488,NIAGARA,290552,Store,A,DOLGEN NEW YORK LLC,DOLLAR GENERAL #8306,384,TWIN CITY MEMORIAL HWY,,,NORTH TONAWANDA,NY,14120,9000,POINT (-78.861898781 43.033989888)
21490,NIAGARA,290547,Store,A,DOLGEN NEW YORK LLC,DOLLAR GENERAL 12623,1385,NASH RD,,,NORTH TONAWANDA,NY,14120,10000,POINT (-78.864388624 43.060907825)
21512,NIAGARA,290428,Store,A,DOLGEN NEW YORK LLC,DOLLAR GENERAL STR#8360,6181,MCKEE ST,,,NEWFANE,NY,14108,9100,POINT (-78.698354018 43.276648835)
21522,NIAGARA,290362,Store,A,DOLGEN NEW YORK LLC,DOLLAR GENERAL 6717,8735,NIAGARA FALLS BLVD,,,NIAGARA FALLS,NY,14304,8500,POINT (-78.962302664 43.091314311)
21523,NIAGARA,290358,Store,A,DOLGEN NEW YORK LLC,DOLLAR GENERAL 6955,4015,LAKE AVE,,,LOCKPORT,NY,14094,7000,POINT (-78.676230655 43.218094913)
21529,NIAGARA,290334,Store,A,DOLGEN NEW YORK LLC,DOLLAR GENERAL 6050,8405,ROCHESTER RD,,,GASPORT,NY,14067,2000,POINT (-78.573004668 43.195986093)
21537,NIAGARA,290279,Store,A,DOLGEN NEW YORK LLC,DOLLAR GENERAL 8183,5921,S TRANSIT RD,,,LOCKPORT,NY,14094,3000,POINT (-78.694851891 43.135400942)
21538,NIAGARA,290278,Store,A,DOLGEN NEW YORK LLC,DOLLAR GENERAL 8417,1802,PINE AVE,,,NIAGARA FALLS,NY,14301,7980,POINT (-79.039964685 43.097635313)
21539,NIAGARA,290275,Store,A,DOLGEN NEW YORK LLC,DOLLAR GENERAL 8370,735,CENTER ST,,,LEWISTON,NY,14092,5500,POINT (-79.037882452 43.17180799)
21540,NIAGARA,290273,Store,A,DOLGEN NEW YORK LLC,DOLLAR GENERAL 8333,1201,LINCOLN AVE,,,LOCKPORT,NY,14094,5800,POINT (-78.665093202 43.153911789)
22881,ERIE,143008,Store,A,DOLGEN NEW YORK LLC,DOLLAR GENERAL #13366,2137,SENECA ST,,,BUFFALO,NY,14210,9300,POINT (-78.80835426 42.853849965)
22891,ERIE,142938,Store,A,DOLGEN NEW YORK LLC,DOLLAR GENERAL # 11797,3170,DELAWARE AVE,,,BUFFALO,NY,14217,0,POINT (-78.871164051 42.970318102)
22893,ERIE,142934,Store,A,DOLGEN NEW YORK LLC,DOLLAR GENERAL #13305,2750,HARLEM RD,,,CHEEKTOWAGA,NY,14225,11500,POINT (-78.784388255 42.918619112)
22898,ERIE,142913,Store,A,DOLGEN NEW YORK LLC,DOLLAR GENERAL 12975,1055,GENESEE ST,,,BUFFALO,NY,14211,11000,POINT (-78.839193107 42.902319127)
22913,ERIE,142818,Store,A,DOLGEN NEW YORK LLC,DOLLAR GENERAL #9052,4190,UNION RD,,,CHEEKTOWAGA,NY,14225,10000,POINT (-78.754280004 42.92891523)
22977,ERIE,142489,Store,A,DOLGEN NEW YORK LLC,DOLLAR GENERAL #8207,1833,ELMWOOD AVE,,,BUFFALO,NY,14207,0,POINT (-78.878070237 42.946944536)
23011,ERIE,142203,Store,A,DOLGEN NEW YORK LLC,DOLLAR GENERAL #10547,4257,LAKE AVE,,,BLASDELL,NY,14219,0,POINT (-78.820111723 42.796617114)
23022,ERIE,142146,Store,A,DOLGEN NEW YORK LLC,DOLLAR GENERAL #8363,13475,BROADWAY,,,ALDEN,NY,14004,8000,POINT (-78.485002095 42.899986722)
23025,ERIE,142119,Store,A,DOLGEN NEW YORK LLC,DOLLAR GENERAL #10433,2920,WILLIAM ST,,,CHEEKTOWAGA,NY,14227,5000,POINT (-78.762759221 42.883993132)
23036,ERIE,142033,Store,A,DOLGEN NEW YORK LLC,DOLLAR GENERAL #10256,12968,MAIN RD,,,AKRON,NY,14001,1500,POINT (-78.504020264 42.998318813)
23054,ERIE,141827,Store,A,DOLGEN NEW YORK LLC,DOLLAR GENERAL 5701,5150,BROADWAY,,,DEPEW,NY,14043,7500,POINT (-78.683611675 42.901468981)
23055,ERIE,141826,Store,A,DOLGEN NEW YORK LLC,DOLLAR GENERAL 6977,8790,ERIE RD,,,ANGOLA,NY,14006,8000,POINT (-79.044203246 42.646079768)
23078,ERIE,141615,Store,A,DOLGEN NEW YORK LLC,DOLLAR GENERAL #9631,8229,N MAIN ST,,,EDEN,NY,14057,10000,POINT (-78.890203461 42.662983929)
23089,ERIE,141506,Store,A,DOLGEN NEW YORK LLC,DOLLAR GENERAL 9229,3531,SENECA ST,,,WEST SENECA,NY,14224,5000,POINT (-78.772042598 42.829480587)
23091,ERIE,141494,Store,A,DOLGEN NEW YORK LLC,DOLLAR GENERAL 8926,5783,CAMP RD,,,HAMBURG,NY,14075,6000,POINT (-78.835002593 42.729530792)
23092,ERIE,141493,Store,A,DOLGEN NEW YORK LLC,DOLLAR GENERAL 9228,6000,SOUTH PARK,,,HAMBURG,NY,14075,6000,POINT (-78.825350329 42.732951363)
23093,ERIE,141491,Store,A,DOLGEN NEW YORK LLC,DOLLAR GENERAL 8136,93,S ROSSLER AVE,,,BUFFALO,NY,14206,5100,POINT (-78.794805341 42.876690237)
23099,ERIE,141469,Store,A,DOLGEN NEW YORK LLC,DOLLAR GENERAL 8177,942,MCKINLEY PKWY,,,BUFFALO,NY,14220,8000,POINT (-78.82434857 42.857550107)
23100,ERIE,141468,Store,A,DOLGEN NEW YORK LLC,DOLLAR GENERAL 8960,230,HOLDEN ST,,,BUFFALO,NY,14214,1500,POINT (-78.834988237 42.939076035)
23101,ERIE,141460,Store,A,DOLGEN NEW YORK LLC,DOLLAR GENERAL 9029,1233,ABBOTT RD,,,LACKAWANNA,NY,14218,1000,POINT (-78.805759726 42.831024534)
23102,ERIE,141459,Store,A,DOLGEN NEW YORK LLC,DOLLAR GENERAL 9028,338,KENMORE AVE,,,BUFFALO,NY,14223,5600,POINT (-78.830329431 42.9582127)
23109,ERIE,141394,Store,A,DOLGEN NEW YORK LLC,DOLLAR GENERAL 8896,1336,HERTEL AVE,,,BUFFALO,NY,14216,5600,POINT (-78.858431521 42.947987287)
23111,ERIE,141382,Store,A,DOLGEN NEW YORK LLC,DOLLAR GENERAL 8488,29,NIAGARA ST ECKERD PLAZA,,,TONAWANDA,NY,14150,6000,POINT (-78.879261002 43.02070546)
23120,ERIE,141338,Store,A,DOLGEN NEW YORK LLC,DOLLAR GENERAL 8366,3372,SHERIDAN DR,,,AMHERST,NY,14226,4000,POINT (-78.809162466 42.980141709)
23123,ERIE,141306,Store,A,DOLGEN NEW YORK LLC,DOLLAR GENERAL 8427,315,W FERRY ST,,,BUFFALO,NY,14213,6000,POINT (-78.889182642 42.915256035)
23126,ERIE,141292,Store,A,DOLGEN NEW YORK LLC,DOLLAR GENERAL 8245,2329,MILLERS PORT HWY,,,GETZVILLE,NY,14068,6000,POINT (-78.769323982 43.013732908)
23743,CHAUTAUQUA,60399,Store,A,DOLGEN NEW YORK LLC,DOLLAR GENERAL #12852,141,W MAIN ST,,,FREWSBURG,NY,14738,9014,POINT (-79.169383952 42.052209523)
23747,CHAUTAUQUA,60383,Store,A,DOLGEN NEW YORK LLC,DOLLAR GENERAL #12399,460,W MAIN ST,,,FALCONER,NY,14733,13000,POINT (-79.206763887 42.114080709)
23771,CHAUTAUQUA,60236,Store,A,DOLGEN NEW YORK LLC,DOLLAR GENERAL 6849,601,W 3RD ST,,,JAMESTOWN,NY,14701,8000,POINT (-79.254436968 42.093723999)
23773,CHAUTAUQUA,60215,Store,A,DOLGEN NEW YORK LLC,DOLLAR GENERAL # 9394,199,W LAKE RD,,,MAYVILLE,NY,14757,6795,POINT (-79.491153983 42.234205828)
23775,CHAUTAUQUA,60204,Store,A,DOLGEN NEW YORK LLC,DOLLAR GENERAL #6079,7612,E RT 20,,,WESTFIELD,NY,14787,7000,POINT (-79.555539572 42.335708538)
23776,CHAUTAUQUA,60203,Store,A,DOLGEN NEW YORK LLC,DOLLAR GENERAL 09488,1356,WASHINGTON ST,,,JAMESTOWN,NY,14701,5000,POINT (-79.244823511 42.105449192)
23777,CHAUTAUQUA,60202,Store,A,DOLGEN NEW YORK LLC,DOLLAR GENERAL 8379,164-180,E FOURTH ST,,,DUNKIRK,NY,14048,5000,POINT (-79.328676042 42.484098914)
23781,CHAUTAUQUA,60177,Store,A,DOLGEN NEW YORK LLC,DOLLAR GENERAL 8240,260,E MAIN ST,,,FREDONIA,NY,14063,9000,POINT (-79.319800306 42.447000473)
23782,CHAUTAUQUA,60175,Store,A,DOLGEN NEW YORK LLC,DOLLAR GENERAL 8865,167,W FAIRMOUNT AVE,,,LAKEWOOD,NY,14750,7500,POINT (-79.341725269 42.097756952)
23783,CHAUTAUQUA,60165,Store,A,DOLGEN NEW YORK LLC,DOLLAR GENERAL 8402,1360,RT 5,,,SILVER CREEK,NY,14136,10000,POINT (-79.150936137 42.549414757)
23784,CHAUTAUQUA,60163,Store,A,DOLGEN NEW YORK LLC,DOLLAR GENERAL 8439,760,FOOTE AVE,,,JAMESTOWN,NY,14701,5000,POINT (-79.229295449 42.079655101)
